{"type":"FeatureCollection","features":[{"type":"Feature","geometry":{"type":"LineString","coordinates":[[150.01731,-34.80123,560.4],[150.01728,-34.8012,560.83],[150.01726,-34.80117,561.23],[150.01725,-34.80115,561.48],[150.01725,-34.80111,561.9],[150.01724,-34.80108,561.82],[150.01725,-34.80105,561.66],[150.01727,-34.80103,561.49],[150.01728,-34.801,561.31],[150.0173,-34.80097,561.07],[150.01732,-34.80094,560.82],[150.01733,-34.80091,560.61],[150.01734,-34.80089,560.44],[150.01734,-34.80085,560.24],[150.01734,-34.80082,560.27],[150.01735,-34.80078,560.55],[150.01735,-34.80075,560.82],[150.01735,-34.80072,561.08],[150.01735,-34.8007,561.26],[150.01736,-34.80067,561.48],[150.01737,-34.80064,561.7],[150.01739,-34.80061,561.89],[150.01742,-34.80058,562.05],[150.01743,-34.80055,562.2],[150.01744,-34.80052,561.86],[150.01746,-34.80049,561.47],[150.01747,-34.80047,561.22],[150.01749,-34.80044,560.8],[150.01751,-34.80041,560.32],[150.01753,-34.80038,559.84],[150.01754,-34.80035,559.49],[150.01754,-34.80032,559.22],[150.01753,-34.80029,559],[150.01752,-34.80025,558.54],[150.01753,-34.80022,558.08],[150.01755,-34.80019,557.61],[150.01757,-34.80017,557.29],[150.0176,-34.80013,556.7],[150.01762,-34.8001,556.28],[150.01764,-34.80006,555.76],[150.01766,-34.80003,555.37],[150.01768,-34.80001,555.12],[150.01771,-34.79997,555.46],[150.01773,-34.79995,555.75],[150.01775,-34.79992,556.18],[150.01776,-34.79988,556.76],[150.01777,-34.79985,557.18],[150.01778,-34.79981,557.73],[150.01779,-34.79978,558.12],[150.0178,-34.79974,558.66],[150.01782,-34.79971,559.11],[150.01785,-34.79969,559.41],[150.01787,-34.79966,559.94],[150.01789,-34.79964,560.25],[150.0179,-34.79961,560.81],[150.01792,-34.79959,561.1],[150.01795,-34.79956,561.52],[150.01797,-34.79954,561.79],[150.01799,-34.79951,562.24],[150.01802,-34.79949,562.42],[150.01805,-34.79948,562.4],[150.01808,-34.79945,562.55],[150.0181,-34.79943,562.4],[150.01813,-34.79941,562.02],[150.01816,-34.79938,561.64],[150.01819,-34.79935,561.24],[150.01823,-34.79934,560.63],[150.01826,-34.79933,560.16],[150.0183,-34.79934,559.53],[150.01834,-34.79934,558.83],[150.01838,-34.79934,557.8],[150.01843,-34.79936,556.59],[150.01847,-34.79935,555.55],[150.0185,-34.79934,554.72],[150.01853,-34.79931,553.72],[150.01856,-34.79928,552.65],[150.01859,-34.79926,551.62],[150.01862,-34.79924,550.44],[150.01867,-34.79924,548.47],[150.0187,-34.79924,547.29],[150.01874,-34.79924,545.71],[150.01877,-34.79923,544.34],[150.01881,-34.79922,542.53],[150.01885,-34.79921,540.68],[150.01889,-34.7992,538.81],[150.01892,-34.79919,537.78],[150.01896,-34.79918,536.51],[150.01899,-34.79916,535.03],[150.01903,-34.79916,533.95],[150.01907,-34.79916,532.87],[150.01908,-34.79919,533.6],[150.0191,-34.79916,532.06],[150.01909,-34.79919,533.34],[150.01908,-34.79917,533.24],[150.01904,-34.79918,534.45],[150.01907,-34.79919,533.86],[150.01904,-34.79919,534.64],[150.01907,-34.79919,533.86],[150.01904,-34.79917,534.26],[150.01899,-34.79917,535.52],[150.01892,-34.79918,537.54],[150.01886,-34.79919,539.8],[150.01882,-34.7992,541.7],[150.01878,-34.79921,543.55],[150.01875,-34.79921,544.78],[150.01871,-34.79921,546.42],[150.01868,-34.79921,547.65],[150.01864,-34.7992,549.16],[150.01863,-34.79917,549.22],[150.01864,-34.79914,547.96],[150.01864,-34.7991,546.78],[150.01866,-34.79907,544.98],[150.01867,-34.79904,543.61],[150.01868,-34.79901,542.23],[150.01869,-34.79898,540.83],[150.01871,-34.79896,539.25],[150.01872,-34.79893,537.81],[150.01874,-34.7989,535.86],[150.01876,-34.79887,532.35],[150.01878,-34.79884,527.73],[150.0188,-34.79881,522.86],[150.01882,-34.79879,519],[150.01884,-34.79876,513.67],[150.01885,-34.79873,508.93],[150.01884,-34.7987,505.86],[150.01886,-34.79867,500.04],[150.01889,-34.79866,495.75],[150.01886,-34.79867,500.04],[150.01883,-34.79869,505.47],[150.01882,-34.79872,510.17],[150.01882,-34.79875,513.96],[150.01884,-34.79877,514.98],[150.01883,-34.7988,519.57],[150.01881,-34.79883,524.67],[150.01878,-34.79886,530.08],[150.01875,-34.79889,535.04],[150.01873,-34.79891,536.68],[150.01871,-34.79895,538.93],[150.0187,-34.79898,540.35],[150.01869,-34.79901,541.76],[150.01869,-34.79904,542.68],[150.01868,-34.79907,544.07],[150.01868,-34.7991,544.98],[150.01869,-34.79913,545.46],[150.01869,-34.79916,546.39],[150.01867,-34.79919,547.78],[150.01863,-34.79919,549.46],[150.0186,-34.79921,550.81],[150.01857,-34.79923,551.91],[150.01855,-34.79925,552.68],[150.01853,-34.79928,553.49],[150.0185,-34.79931,554.53],[150.01849,-34.79933,554.92],[150.01846,-34.79932,555.65],[150.01842,-34.79931,556.67],[150.01839,-34.79931,557.48],[150.01832,-34.79932,559.21],[150.01829,-34.79933,559.69],[150.01827,-34.79935,559.99],[150.01825,-34.79939,560.26],[150.01823,-34.79941,560.53],[150.01821,-34.79944,560.78],[150.01817,-34.79946,561.14],[150.01815,-34.79948,561.13],[150.01812,-34.7995,561.21],[150.01809,-34.79952,561.25],[150.01805,-34.79954,561.31],[150.01803,-34.79957,560.88],[150.018,-34.79959,560.68],[150.01798,-34.79961,560.4],[150.01795,-34.79963,560.17],[150.01792,-34.79966,559.72],[150.0179,-34.79968,559.41],[150.01787,-34.79971,558.92],[150.01785,-34.79974,558.48],[150.01784,-34.79976,558.23],[150.01782,-34.79979,557.87],[150.01781,-34.79982,557.48],[150.01778,-34.79985,557.15],[150.01775,-34.79987,556.92],[150.01773,-34.7999,556.5],[150.01771,-34.79993,556.07],[150.01769,-34.79995,555.78],[150.01765,-34.79997,555.48],[150.01762,-34.79999,555.16],[150.0176,-34.80002,555.26],[150.01758,-34.80004,555.53],[150.01757,-34.80007,555.94],[150.01756,-34.8001,556.36],[150.01755,-34.80013,556.79],[150.01754,-34.80015,557.08],[150.01753,-34.80018,557.52],[150.01751,-34.8002,557.85],[150.0175,-34.80023,558.31],[150.01748,-34.80026,558.89],[150.01746,-34.80028,559.31],[150.01745,-34.80031,559.69],[150.01743,-34.80033,560.02],[150.01741,-34.80036,560.44],[150.01739,-34.80038,560.75],[150.01737,-34.80041,561.14],[150.01735,-34.80043,561.43],[150.01734,-34.80046,561.74],[150.01733,-34.80049,562.05],[150.01734,-34.80052,562.27],[150.01732,-34.80055,562.6],[150.01731,-34.80057,562.56],[150.01729,-34.8006,562.4],[150.01726,-34.80062,562.37],[150.01724,-34.80067,562.09],[150.01722,-34.80073,561.77],[150.01721,-34.80078,561.56],[150.01721,-34.80081,561.37],[150.01721,-34.80085,561.27],[150.01722,-34.80088,561.2],[150.01722,-34.80091,561.31],[150.01722,-34.80095,561.45],[150.01722,-34.80098,561.56],[150.01721,-34.80101,561.77],[150.01721,-34.80104,561.87],[150.01721,-34.80107,561.96],[150.01721,-34.80109,562.02],[150.01722,-34.80112,561.92],[150.01723,-34.80116,561.44],[150.01724,-34.80119,561.08],[150.01726,-34.80122,560.69],[150.01727,-34.80125,560.33],[150.01728,-34.80129,559.86],[150.01729,-34.80131,559.61],[150.0173,-34.80135,559.14],[150.01732,-34.80137,558.85],[150.01733,-34.80141,558.51],[150.01736,-34.80143,558.28],[150.0174,-34.80145,558],[150.01744,-34.80147,557.7],[150.01747,-34.80147,557.56],[150.01752,-34.80147,557.02],[150.01756,-34.80146,556.25],[150.0176,-34.80145,555.44],[150.01764,-34.80145,554.59],[150.01769,-34.80144,553.47],[150.01773,-34.80144,552.6],[150.01776,-34.80145,552.04],[150.01779,-34.80146,551.55],[150.01782,-34.80148,551.18],[150.01784,-34.80151,551.02],[150.01785,-34.80153,550.96],[150.01786,-34.80156,550.93],[150.01785,-34.8016,551.45],[150.01783,-34.80163,552.2],[150.01781,-34.80164,552.83],[150.01781,-34.80161,552.55],[150.01778,-34.80163,553.54],[150.01775,-34.80162,553.78],[150.01771,-34.8016,554.06],[150.01768,-34.80158,554.32],[150.01766,-34.80156,554.51],[150.01762,-34.80154,555.06],[150.01758,-34.80153,555.7],[150.01755,-34.80151,556.26],[150.01752,-34.80149,556.9],[150.01749,-34.80147,557.46],[150.01747,-34.80145,557.69],[150.01745,-34.80143,557.91],[150.01742,-34.80139,558.28],[150.0174,-34.80137,558.56],[150.01739,-34.80134,558.92],[150.01738,-34.80131,559.28],[150.01738,-34.80128,559.61],[150.01737,-34.80124,560.08],[150.01735,-34.80121,560.47],[150.01733,-34.80119,560.76],[150.01729,-34.80117,561.12],[150.01726,-34.80118,561.12],[150.01724,-34.8012,560.98],[150.01722,-34.80122,560.84],[150.01719,-34.80125,560.73],[150.01714,-34.80126,560.98],[150.01709,-34.80128,561.13],[150.01705,-34.80129,561.31],[150.01702,-34.80134,560.98],[150.01699,-34.80138,560.77],[150.01694,-34.8014,560.79],[150.01689,-34.8014,560.62],[150.01684,-34.8014,560.45],[150.01679,-34.80139,560.43],[150.01672,-34.8014,560.06],[150.01666,-34.80141,559.8],[150.01662,-34.80145,559.54],[150.01658,-34.80146,559.62],[150.01655,-34.80148,559.57],[150.01651,-34.80149,559.68],[150.01647,-34.8015,559.79],[150.01643,-34.80151,559.92],[150.01639,-34.80152,560.05],[150.01634,-34.80151,560.56],[150.0163,-34.8015,560.97],[150.01624,-34.80147,561.64],[150.01618,-34.80146,562.18],[150.01614,-34.80145,562.55],[150.01608,-34.80143,562.76],[150.01603,-34.80142,562.63],[150.01599,-34.80138,562.52],[150.01595,-34.80136,562.24],[150.01591,-34.80135,561.97],[150.01587,-34.80135,561.77],[150.01583,-34.80135,561.56],[150.01576,-34.80132,560.73],[150.01569,-34.8013,559.86],[150.01565,-34.80127,558.93],[150.01561,-34.80125,558.09],[150.01557,-34.80122,556.92],[150.01552,-34.80118,555.03],[150.01546,-34.80114,552.94],[150.01539,-34.80113,551.41],[150.01532,-34.80116,550.69],[150.01531,-34.80123,551.82],[150.0153,-34.80127,552.35],[150.01529,-34.8013,552.68],[150.01528,-34.80133,552.99],[150.01527,-34.80135,553.21],[150.01526,-34.80138,553.64],[150.01526,-34.80141,554.26],[150.01526,-34.80144,554.9],[150.01526,-34.80148,555.76],[150.01525,-34.80151,556.27],[150.01524,-34.80154,556.78],[150.01521,-34.80157,557.02],[150.01518,-34.80159,557.03],[150.01514,-34.8016,556.7],[150.01511,-34.80162,556.68],[150.01507,-34.80164,556.5],[150.01505,-34.80166,556.6],[150.01502,-34.80169,556.37],[150.01501,-34.80171,556.3],[150.01499,-34.80174,556.21],[150.01497,-34.80177,556.24],[150.01495,-34.80179,556.24],[150.01492,-34.80181,556.24],[150.01489,-34.80181,556.13],[150.01486,-34.8018,555.96],[150.01482,-34.8018,555.81],[150.01478,-34.80178,555.47],[150.01474,-34.80177,555.2],[150.01471,-34.80175,554.99],[150.01468,-34.80175,555.2],[150.01465,-34.80173,555.2],[150.01463,-34.80171,555.13],[150.0146,-34.80169,555.13],[150.01458,-34.80166,554.98],[150.01457,-34.80163,554.84],[150.01455,-34.80159,554.75],[150.01454,-34.80156,554.66],[150.01453,-34.80153,554.59],[150.0145,-34.80152,554.86],[150.01447,-34.8015,555.11],[150.01444,-34.80149,555.41],[150.0144,-34.80148,555.81],[150.01437,-34.80148,556.13],[150.01433,-34.80149,556.64],[150.01431,-34.80151,557.04],[150.01428,-34.80149,557.19],[150.01426,-34.80147,557.2],[150.01426,-34.80144,556.88],[150.01426,-34.80141,556.56],[150.01427,-34.80138,555.89],[150.01426,-34.80135,554.74],[150.01425,-34.80133,554.03],[150.01425,-34.8013,552.82],[150.01425,-34.80127,551.61],[150.01427,-34.80124,550.1],[150.01428,-34.80121,548.69],[150.01431,-34.80119,547.33],[150.01431,-34.80116,546.03],[150.01431,-34.80113,544.72],[150.01431,-34.80111,543.83],[150.01433,-34.80108,541.52],[150.01436,-34.80106,539.73],[150.0144,-34.80105,538.45],[150.01443,-34.80104,537.39],[150.01446,-34.80102,536.16],[150.01449,-34.80101,535.75],[150.01452,-34.80099,534.77],[150.01454,-34.80096,533.15],[150.01455,-34.80094,532.05],[150.01458,-34.80092,530.98],[150.0146,-34.80089,529.29],[150.01462,-34.80087,528.15],[150.01464,-34.80084,526.39],[150.0146,-34.80084,526.39],[150.01458,-34.80082,525.23],[150.01457,-34.80079,523.47],[150.01457,-34.80076,521.73],[150.01459,-34.80073,520.08],[150.01462,-34.80071,519.13],[150.01464,-34.80069,518.17],[150.01467,-34.80068,517.86],[150.01469,-34.80066,516.97],[150.01471,-34.80063,515.62],[150.01472,-34.80061,514.72],[150.01474,-34.80058,513.66],[150.01476,-34.80056,513.17],[150.01478,-34.80053,512.39],[150.01476,-34.80051,511.03],[150.01474,-34.80049,509.65],[150.01473,-34.80046,508.09],[150.01473,-34.80043,506.8],[150.01475,-34.8004,506.09],[150.01477,-34.80037,505.42],[150.0148,-34.80034,505.08],[150.01482,-34.80032,504.88],[150.01485,-34.80029,504.63],[150.01487,-34.80027,504.04],[150.0149,-34.80025,503.14],[150.01492,-34.80022,501.06],[150.01493,-34.80019,498.67],[150.01489,-34.8002,498.05],[150.01486,-34.80021,497.87],[150.01481,-34.80022,497],[150.01478,-34.80022,495.89],[150.01474,-34.80024,496.55],[150.01471,-34.80025,496.37],[150.01468,-34.80025,494.81],[150.01464,-34.80025,492.74],[150.0146,-34.80025,490.66],[150.01457,-34.80025,489.11],[150.01454,-34.80027,489.43],[150.01451,-34.80029,489.44],[150.01447,-34.80031,488.93],[150.01444,-34.80033,489.27],[150.0144,-34.80033,488.81],[150.01439,-34.80031,487.06],[150.01441,-34.80029,485.63],[150.01445,-34.80027,484.62],[150.01448,-34.80024,483.55],[150.01451,-34.80023,484.17],[150.01454,-34.80021,483.8],[150.01456,-34.80019,482.87],[150.01458,-34.80017,481.87],[150.0146,-34.80014,479.83],[150.01462,-34.80011,477.69],[150.01464,-34.80008,475.46],[150.01466,-34.80005,473.14],[150.01468,-34.80003,471.77],[150.01469,-34.8,468.96],[150.0147,-34.79997,467.9],[150.01473,-34.79996,468.53],[150.01477,-34.79995,470.09],[150.0148,-34.79994,471.09],[150.01482,-34.79992,471.03],[150.01484,-34.79989,470.37],[150.01481,-34.79987,467.92],[150.01475,-34.79988,465.67],[150.01468,-34.79989,463.66],[150.01461,-34.79991,462.54],[150.01457,-34.79992,461.8],[150.01454,-34.79992,460.92],[150.0145,-34.79992,459.75],[150.01446,-34.79992,458.58],[150.01443,-34.79992,457.98],[150.01439,-34.79992,457.59],[150.01436,-34.79992,457.29],[150.01433,-34.79994,457.89],[150.0143,-34.79996,458.59],[150.01426,-34.79997,458.83],[150.01424,-34.79999,459.75],[150.01422,-34.80001,461],[150.01419,-34.80003,462.48],[150.01416,-34.80004,463.19],[150.01413,-34.80006,464.88],[150.0141,-34.80008,466.58],[150.01409,-34.8001,468.2],[150.01408,-34.80013,470.61],[150.01405,-34.80013,470.72],[150.01402,-34.80012,470.03],[150.01398,-34.8001,468.59],[150.01395,-34.80009,467.91],[150.01392,-34.80007,466.43],[150.01393,-34.80004,464.02],[150.01391,-34.80002,462.51],[150.01391,-34.79999,460.18],[150.01389,-34.79997,458.73],[150.01384,-34.79996,459.41],[150.0138,-34.79994,458.77],[150.01377,-34.79992,457.63],[150.01373,-34.7999,456.48],[150.01369,-34.79989,456.16],[150.01372,-34.79987,453.55],[150.01373,-34.79984,450.34],[150.01373,-34.79981,447.27],[150.01374,-34.79978,444.21],[150.01373,-34.79976,442.15],[150.01373,-34.79973,439.08],[150.01371,-34.7997,437.19],[150.01371,-34.79966,435.6],[150.01373,-34.79964,435.03],[150.01377,-34.79963,435.06],[150.0138,-34.79963,435.39],[150.01381,-34.7996,434.31],[150.01381,-34.79957,433.12],[150.01383,-34.79954,432.15],[150.01382,-34.79951,430.85],[150.01382,-34.79948,429.66],[150.01383,-34.79945,428.58],[150.01383,-34.79942,425.94],[150.01386,-34.7994,424.24],[150.01388,-34.79938,422.42],[150.01391,-34.79936,421.2],[150.01392,-34.79933,418.64],[150.01392,-34.7993,415.75],[150.01393,-34.79925,411.43],[150.01392,-34.79921,407.08],[150.01394,-34.79919,406.31],[150.01394,-34.79916,403.93],[150.01394,-34.79913,403.06],[150.01393,-34.7991,401.62],[150.01391,-34.79908,399.97],[150.01389,-34.79905,398.12],[150.01387,-34.79902,396.84],[150.01383,-34.79902,395.86],[150.01381,-34.79899,394.28],[150.01379,-34.79896,392.52],[150.01378,-34.79893,390.97],[150.01375,-34.79891,388.95],[150.01373,-34.79889,387.19],[150.01374,-34.79886,386.87],[150.01374,-34.79882,385.9],[150.01373,-34.79879,384.85],[150.01372,-34.79876,383.86],[150.01371,-34.79872,382.72],[150.01368,-34.79868,381.23],[150.01366,-34.79866,380.48],[150.01363,-34.79864,379.64],[150.01362,-34.7986,378.67],[150.01358,-34.79858,376.37],[150.01359,-34.79855,375.53],[150.0136,-34.79852,374.65],[150.0136,-34.79848,372.95],[150.01358,-34.79846,371.43],[150.01356,-34.79843,369.57],[150.01353,-34.79841,367.87],[150.01351,-34.79838,366.16],[150.01349,-34.79836,364.89],[150.01346,-34.79834,363.41],[150.01343,-34.79831,362.5],[150.01342,-34.79828,362.28],[150.01339,-34.79826,361.33],[150.01336,-34.79823,360.21],[150.01334,-34.7982,359.3],[150.01331,-34.79818,359.08],[150.01329,-34.79815,358.95],[150.01328,-34.79812,358.69],[150.01327,-34.79809,358.39],[150.01325,-34.79805,357.86],[150.01323,-34.79802,357.04],[150.01322,-34.79799,356.2],[150.0132,-34.79797,355.56],[150.01316,-34.79796,355.08],[150.01312,-34.79794,354.23],[150.01309,-34.79792,353.36],[150.01308,-34.79789,352.25],[150.01306,-34.79784,350.29],[150.01304,-34.7978,348.4],[150.01303,-34.79777,346.53],[150.01302,-34.79774,343.44],[150.013,-34.79771,340.2],[150.013,-34.79767,336.54],[150.01297,-34.79763,332.48],[150.01296,-34.79758,327.98],[150.01299,-34.79756,326.42],[150.01296,-34.79753,323.62],[150.01294,-34.79751,321.85],[150.01295,-34.79748,320.59],[150.01293,-34.79744,319.54],[150.01292,-34.79741,318.63],[150.01292,-34.79738,317.84],[150.01289,-34.79734,315.85],[150.01287,-34.7973,313.79],[150.01287,-34.79727,312.7],[150.01286,-34.79723,310.74],[150.01284,-34.7972,307.74],[150.01282,-34.79717,304.49],[150.01279,-34.79713,300.01],[150.01276,-34.79712,298.53],[150.01272,-34.79712,298.28],[150.0127,-34.79709,295.93],[150.01271,-34.79706,293.79],[150.01273,-34.79703,291.75],[150.01275,-34.79701,290.47],[150.01271,-34.797,289.37],[150.01267,-34.797,288.99],[150.01267,-34.79697,286.75],[150.01268,-34.79694,284.7],[150.01269,-34.79691,283.19],[150.0127,-34.79688,281.64],[150.01271,-34.79685,280.08],[150.01272,-34.79682,278.49],[150.01271,-34.7968,277.33],[150.0127,-34.79676,275.09],[150.01266,-34.79675,274.42],[150.01265,-34.79671,272.28],[150.01266,-34.79666,269.6],[150.01265,-34.79662,267.22],[150.01263,-34.79658,264.86],[150.01263,-34.79655,263.08],[150.01263,-34.79647,258.34],[150.01263,-34.79642,255.38],[150.01269,-34.79641,254.58],[150.01262,-34.79638,253.48],[150.01263,-34.79632,252.87],[150.01266,-34.79629,252.67],[150.01265,-34.79623,252.14],[150.01264,-34.79617,251.54],[150.0127,-34.79619,252.28],[150.01275,-34.79617,252.71],[150.01277,-34.79614,252.9],[150.01272,-34.79616,252.35],[150.01275,-34.79613,252.63],[150.01278,-34.79607,253.04],[150.01279,-34.79614,253.28],[150.01277,-34.79618,252.92],[150.01274,-34.79621,252.7],[150.0127,-34.79622,252.43],[150.01273,-34.79618,252.53],[150.01279,-34.79617,253.35],[150.01281,-34.79612,253.63],[150.0128,-34.79607,253.42],[150.01279,-34.79601,253.25],[150.01278,-34.79598,253.05],[150.01279,-34.79594,253.27],[150.01281,-34.79591,253.75],[150.01283,-34.79587,254.27],[150.01285,-34.79583,254.9],[150.01291,-34.79581,256.88],[150.01288,-34.79577,257.09],[150.01287,-34.79569,258.76],[150.01281,-34.79566,258.11],[150.01276,-34.79564,257.16],[150.01273,-34.79561,256.49],[150.01265,-34.79558,253.01],[150.01267,-34.79552,254.47],[150.01271,-34.79548,256.53],[150.01275,-34.79545,258.16],[150.01277,-34.79541,258.69],[150.01276,-34.79538,258.22],[150.01273,-34.79537,257.35],[150.01269,-34.7954,256.09],[150.01266,-34.79543,254.84],[150.01269,-34.79542,255.98],[150.0127,-34.79545,256.21],[150.0127,-34.79549,256.05],[150.01273,-34.79551,257.4],[150.01279,-34.7955,259.97],[150.01282,-34.79549,260.87],[150.01286,-34.79547,262.25],[150.0129,-34.79548,263.53],[150.01286,-34.79548,262.2],[150.0129,-34.79551,263.18],[150.01306,-34.79551,267.73],[150.01315,-34.79545,272.02],[150.01324,-34.7954,276.41],[150.01337,-34.79537,280.49],[150.01349,-34.79533,283.67],[150.01353,-34.7953,286.2],[150.01359,-34.79527,289.66],[150.01363,-34.79524,293.22],[150.0137,-34.79521,295.51],[150.01377,-34.79519,297.05],[150.01382,-34.79518,297.77],[150.01387,-34.79517,298.68],[150.0138,-34.79515,302.99],[150.01384,-34.79515,302.55],[150.01385,-34.79519,295.54],[150.01385,-34.79514,304.16],[150.01389,-34.79517,298.38],[150.01392,-34.79522,289.14],[150.01386,-34.79525,284.88],[150.0138,-34.79516,301.36],[150.0138,-34.79506,317.64],[150.01389,-34.79501,327.14],[150.01397,-34.795,324.62],[150.01404,-34.795,320.84],[150.01409,-34.79505,311.23],[150.01415,-34.79499,317.26],[150.01422,-34.79497,317.19],[150.01433,-34.79494,314.89],[150.01441,-34.79493,310.05],[150.01448,-34.79494,304.61],[150.01446,-34.79499,296.58],[150.01446,-34.79503,293.3],[150.01447,-34.79508,290.65],[150.01449,-34.79515,287.1],[150.01452,-34.79523,283.39],[150.01453,-34.7953,280.78],[150.01453,-34.79537,279.34],[150.01451,-34.79543,277.79],[150.01467,-34.79546,279.84],[150.01476,-34.79548,280.93],[150.01483,-34.79549,281.69],[150.0149,-34.7955,282.3],[150.01497,-34.7955,283.21],[150.01504,-34.79548,285.99],[150.01509,-34.79547,288.19],[150.01514,-34.79545,290.65],[150.01519,-34.79544,292.62],[150.01525,-34.79543,294.83],[150.01532,-34.79541,297.73],[150.0154,-34.79541,300.73],[150.01548,-34.79542,303.6],[150.01557,-34.79543,306.9],[150.01565,-34.79545,309.47],[150.01571,-34.79546,311.28],[150.01577,-34.79547,312.93],[150.01583,-34.79551,313.04],[150.01587,-34.79556,313.02],[150.01588,-34.79562,314.14],[150.01589,-34.79569,315.42],[150.01594,-34.79575,319.24],[150.01601,-34.79575,323.72],[150.01609,-34.79575,328.85],[150.01615,-34.79574,331.62],[150.01623,-34.79572,334.61],[150.01631,-34.7957,337.68],[150.01639,-34.79568,340.83],[150.01646,-34.79567,342.95],[150.01653,-34.79565,344.93],[150.01659,-34.79564,346.73],[150.01664,-34.79563,348.21],[150.01669,-34.79562,349.72],[150.01674,-34.79561,351.26],[150.01679,-34.7956,352.78],[150.01684,-34.79559,354.27],[150.01691,-34.79558,356.39],[150.01699,-34.79555,357.23],[150.01707,-34.79555,357.85],[150.01715,-34.79554,358.43],[150.01719,-34.79556,358.88],[150.01724,-34.79558,360.1],[150.01729,-34.7956,361.88],[150.01734,-34.79562,363.52],[150.0174,-34.79563,365.14],[150.01746,-34.79564,366.67],[150.01752,-34.79564,368.33],[150.01758,-34.79564,370.48],[150.01763,-34.79565,372.17],[150.01769,-34.79564,374.42],[150.01772,-34.79563,375.71],[150.01779,-34.79562,378.46],[150.01787,-34.79558,381.84],[150.0179,-34.79556,383.36],[150.01792,-34.79561,382.13],[150.01793,-34.79564,381.29],[150.01794,-34.79568,380.04],[150.01797,-34.7957,379.94],[150.01798,-34.79574,378.58],[150.018,-34.79578,377.35],[150.01801,-34.79581,376.3],[150.01803,-34.79584,375.56],[150.01804,-34.79588,375.27],[150.01815,-34.79589,375.51],[150.01821,-34.7959,375.21],[150.01822,-34.79594,373.67],[150.01822,-34.79598,372.13],[150.01822,-34.79601,370.97],[150.01822,-34.79605,369.43],[150.01823,-34.79608,367.97],[150.01824,-34.79613,366.7],[150.01826,-34.79615,366.37],[150.01828,-34.79618,366.27],[150.0183,-34.79621,366.21],[150.01834,-34.79624,365.38],[150.01838,-34.79625,363.14],[150.01842,-34.79627,360.99],[150.0185,-34.79621,355.45],[150.01852,-34.79615,353.87],[150.01848,-34.79618,356.31],[150.01847,-34.79615,356.54],[150.0185,-34.79618,355.2],[150.01851,-34.79622,354.95],[150.01853,-34.79626,354.03],[150.01856,-34.79632,352.41],[150.01855,-34.79637,353.31],[150.01849,-34.79639,357.68],[150.01847,-34.79641,358.44],[150.01845,-34.79645,358.56],[150.01843,-34.7965,358.42],[150.01848,-34.79647,355.64],[150.01844,-34.79656,355.68],[150.01845,-34.79661,353.23],[150.01845,-34.79665,351.9],[150.01851,-34.79667,346.39],[150.01856,-34.79665,342.86],[150.01861,-34.79663,339.54],[150.01861,-34.7966,340.73],[150.01866,-34.7966,332.34],[150.0186,-34.7966,341.53],[150.01856,-34.79662,343.99],[150.01858,-34.79666,340.83],[150.01863,-34.79665,335.56],[150.01868,-34.79668,327.34],[150.01866,-34.79673,331.97],[150.01868,-34.79676,330.35],[150.01877,-34.79676,319.03],[150.01879,-34.79663,309.71],[150.01881,-34.79652,308.19],[150.01881,-34.79644,309.5],[150.01878,-34.79637,316.25],[150.01887,-34.79639,298.66],[150.01888,-34.79646,296.14],[150.01889,-34.79651,293.91],[150.01889,-34.79655,293.64],[150.01892,-34.79664,288.83],[150.01895,-34.79676,295.21],[150.01889,-34.79683,312.23],[150.01889,-34.79688,318.16],[150.01894,-34.7968,301.07],[150.01898,-34.79672,286.71],[150.01903,-34.79666,274.38],[150.01908,-34.79662,264.98],[150.01912,-34.79659,256.48],[150.01916,-34.79657,248.03],[150.01916,-34.79653,243.96],[150.01916,-34.7965,240.91],[150.0192,-34.7965,235.64],[150.01923,-34.79648,230.4],[150.01928,-34.79648,224.78],[150.01932,-34.79647,219.74],[150.01935,-34.79646,216.02],[150.01939,-34.79649,212.75],[150.01936,-34.79644,214.13],[150.0194,-34.79647,211.02],[150.01942,-34.79644,208.16],[150.01947,-34.79645,204.26],[150.01945,-34.79642,205.1],[150.0194,-34.79645,210.44],[150.01944,-34.79642,205.86],[150.01945,-34.79637,205.62],[150.01949,-34.79637,203.21],[150.0195,-34.79634,204.2],[150.01955,-34.79634,201.27],[150.01961,-34.79631,199.52],[150.01959,-34.79639,196.1],[150.01957,-34.79643,197.71],[150.01962,-34.79642,194.49],[150.01964,-34.79637,194.18],[150.01968,-34.79636,192.39],[150.01975,-34.79637,187.64],[150.01977,-34.79641,185.59],[150.01982,-34.79642,183.11],[150.01986,-34.7964,180.74],[150.01991,-34.79638,178.18],[150.01998,-34.79637,174.55],[150.02003,-34.79637,172.62],[150.02007,-34.79636,171.76],[150.02011,-34.79636,170.69],[150.02014,-34.79636,169.89],[150.02018,-34.79637,168.7],[150.02021,-34.7964,168.18],[150.02027,-34.79638,166.26],[150.02028,-34.79635,166.27],[150.02033,-34.79636,166.09],[150.02037,-34.79633,166],[150.0204,-34.79631,165.82],[150.02043,-34.7963,165.59],[150.02046,-34.79624,164.96],[150.02047,-34.79619,164.46],[150.02046,-34.79614,164.27],[150.02048,-34.79611,163.66],[150.02051,-34.79608,163.62],[150.02053,-34.79606,163.54],[150.02056,-34.79604,163.24],[150.02059,-34.79602,163.31],[150.02062,-34.79603,162.86],[150.02065,-34.79603,162.58],[150.02067,-34.79601,162.7],[150.02069,-34.79598,162.94],[150.02073,-34.79595,162.92],[150.02078,-34.79593,162.59],[150.0208,-34.7959,162.7],[150.02076,-34.7959,163.21],[150.02077,-34.79593,162.71],[150.0208,-34.79593,162.35],[150.02081,-34.7959,162.58],[150.02078,-34.79589,163.08],[150.02075,-34.79589,163.47],[150.02072,-34.79591,163.58],[150.02071,-34.79586,164.4],[150.02067,-34.79585,165.1],[150.02064,-34.79587,165.2],[150.02066,-34.7959,164.48],[150.02069,-34.79589,164.24],[150.02071,-34.79586,164.4],[150.02074,-34.79586,163.99],[150.02077,-34.79587,163.46],[150.0208,-34.79589,162.82],[150.02076,-34.7959,163.21],[150.02076,-34.79587,163.59],[150.02076,-34.79584,163.97],[150.02079,-34.79581,164.76],[150.0208,-34.79579,165.56],[150.02082,-34.79576,166.66],[150.02085,-34.79574,167.21],[150.02089,-34.79572,167.64],[150.02093,-34.7957,167.9],[150.02096,-34.79569,167.83],[150.02099,-34.79568,167.69],[150.02102,-34.79565,168.03],[150.02102,-34.79562,168.86],[150.02105,-34.79562,168.19],[150.02108,-34.79564,167.1],[150.02112,-34.79563,166.57],[150.02114,-34.79561,166.71],[150.02117,-34.79559,166.66],[150.02121,-34.7956,166.06],[150.02124,-34.79562,165.52],[150.02126,-34.7956,165.48],[150.02128,-34.79557,165.47],[150.02129,-34.79554,165.79],[150.02133,-34.79552,165.55],[150.02136,-34.79552,165.02],[150.02139,-34.7955,164.79],[150.02144,-34.79548,164.7],[150.02148,-34.79547,164.5],[150.02152,-34.79547,164.18],[150.02156,-34.79547,163.86],[150.02159,-34.79546,163.66],[150.02163,-34.79545,163.33],[150.02167,-34.79544,162.98],[150.0217,-34.79542,162.82],[150.02172,-34.7954,162.7],[150.02175,-34.79538,162.51],[150.02179,-34.79537,162.26],[150.02182,-34.79537,162.08],[150.02184,-34.79535,161.91],[150.02187,-34.79533,161.67],[150.0219,-34.79531,161.42],[150.02193,-34.79529,161.15],[150.02196,-34.79527,161.3],[150.022,-34.79527,161.42],[150.02204,-34.79526,161.79],[150.02207,-34.79524,162.31],[150.0221,-34.79523,162.53],[150.02214,-34.79523,162.53],[150.02218,-34.79524,162.38],[150.02221,-34.79521,162.75],[150.02223,-34.79519,162.91],[150.02226,-34.79517,162.98],[150.02229,-34.79518,162.73],[150.02232,-34.79518,162.58],[150.02236,-34.79518,162.39],[150.0224,-34.7952,162.02],[150.02243,-34.79518,162.04],[150.02247,-34.79519,161.77],[150.0225,-34.79517,161.78],[150.02254,-34.79517,161.6],[150.02257,-34.79516,161.56],[150.0226,-34.79515,161.53],[150.02263,-34.79514,161.52],[150.02264,-34.79511,161.81],[150.02267,-34.7951,161.84],[150.02271,-34.79511,161.61],[150.02273,-34.79513,161.29],[150.02277,-34.79513,161.15],[150.02279,-34.7951,161.56],[150.02282,-34.79508,161.85],[150.02286,-34.79507,161.99],[150.02289,-34.79505,162.28],[150.02292,-34.79505,162.28],[150.02296,-34.79504,162.42],[150.02299,-34.79502,162.71],[150.02303,-34.79501,162.86],[150.02305,-34.79498,163.86],[150.02309,-34.79498,163.69],[150.02313,-34.79499,163.11],[150.02317,-34.79501,162.47],[150.02321,-34.79502,162.24],[150.02325,-34.79502,162.11],[150.02329,-34.79503,161.91],[150.02332,-34.79503,161.82],[150.02336,-34.79502,161.75],[150.02339,-34.79502,161.64],[150.02342,-34.79504,161.36],[150.02346,-34.79504,161.19],[150.0235,-34.79504,161.03],[150.02354,-34.79503,160.96],[150.02358,-34.79503,160.8],[150.02361,-34.79503,160.68],[150.02365,-34.79503,160.4],[150.02368,-34.79501,160.4],[150.02371,-34.79499,160.46],[150.02376,-34.79498,160.34],[150.02379,-34.795,159.71],[150.02381,-34.79502,159.35],[150.0238,-34.79504,159.21],[150.02379,-34.79507,158.96],[150.02376,-34.79509,158.96],[150.02375,-34.79511,158.81],[150.02379,-34.79513,158.31],[150.02382,-34.79514,157.98],[150.02387,-34.79515,157.52],[150.02389,-34.79518,157.05],[150.02392,-34.79519,156.91],[150.02395,-34.79517,157.11],[150.02397,-34.79515,157.36],[150.02399,-34.79513,157.62],[150.02399,-34.7951,158.02],[150.02397,-34.79507,158.39],[150.02394,-34.79506,158.46],[150.02392,-34.79503,158.76],[150.02391,-34.79501,158.96],[150.02392,-34.79498,159.68],[150.02392,-34.79495,160.53],[150.02393,-34.79492,161.41],[150.02396,-34.7949,162.04],[150.024,-34.7949,162.14],[150.02404,-34.7949,162.23],[150.02407,-34.79489,162.56],[150.0241,-34.79487,163.15],[150.02411,-34.79484,163.95],[150.02414,-34.79482,164.5],[150.02417,-34.79481,164.79],[150.02419,-34.79478,165.54],[150.02423,-34.79477,165.8],[150.02426,-34.79479,165.29],[150.0243,-34.79479,165.29],[150.02433,-34.79478,165.54],[150.02436,-34.7948,165.04],[150.02439,-34.7948,165.04],[150.02443,-34.7948,165.04],[150.02446,-34.79482,164.16],[150.02449,-34.79483,163.2],[150.02453,-34.79483,162.25],[150.02456,-34.79482,161.77],[150.02459,-34.7948,161.52],[150.02462,-34.79478,161.25],[150.02465,-34.79478,160.52],[150.02468,-34.79475,160.45],[150.0247,-34.79473,160.39],[150.02473,-34.79472,160.08],[150.02477,-34.79472,159.79],[150.0248,-34.79471,160.15],[150.02484,-34.79471,159.84],[150.02487,-34.79471,159.61],[150.0249,-34.79469,160.47],[150.02494,-34.79469,160.13],[150.02498,-34.79467,160.82],[150.02501,-34.79467,160.52],[150.02505,-34.79467,160.06],[150.02509,-34.79467,159.6],[150.02513,-34.79466,159.63],[150.02517,-34.79466,159.16],[150.0252,-34.79464,159.77],[150.02523,-34.79462,160.36],[150.02526,-34.79461,160.47],[150.0253,-34.79459,160.96],[150.02532,-34.79457,161.62],[150.02535,-34.79455,162.09],[150.0254,-34.79452,162.54],[150.02544,-34.79451,162.25],[150.02548,-34.79451,161.59],[150.0255,-34.79449,161.86],[150.02556,-34.79448,161.03],[150.02558,-34.79446,161.19],[150.0256,-34.79443,161.71],[150.02562,-34.79442,161.7],[150.02566,-34.79441,161.31],[150.0257,-34.79441,160.58],[150.02573,-34.79439,160.7],[150.02577,-34.79439,159.95],[150.02581,-34.79438,159.53],[150.02583,-34.79436,159.8],[150.02586,-34.79433,159.89],[150.02589,-34.79432,159.26],[150.02592,-34.79431,158.58],[150.02595,-34.79429,158.08],[150.02598,-34.79428,157.28],[150.026,-34.79426,156.99],[150.02602,-34.79424,156.62],[150.02604,-34.79421,156.36],[150.02606,-34.79418,156.01],[150.02609,-34.79417,154.87],[150.02612,-34.79416,153.97],[150.02615,-34.79415,153.66],[150.02619,-34.79413,153.32],[150.02621,-34.7941,153.37],[150.02623,-34.79408,153.27],[150.02625,-34.79406,153.15],[150.02628,-34.79404,152.84],[150.02631,-34.79403,152.4],[150.02633,-34.794,152.3],[150.02637,-34.79398,151.71],[150.0264,-34.79396,151.4],[150.02641,-34.79393,151.48],[150.02644,-34.79391,151.21],[150.02647,-34.7939,150.83],[150.02651,-34.79389,150.26],[150.02655,-34.79388,149.95],[150.02658,-34.79387,149.81],[150.02662,-34.79387,149.23],[150.02665,-34.79385,149.37],[150.02668,-34.79383,149.8],[150.0267,-34.79381,150.5],[150.02673,-34.79379,151.21],[150.02676,-34.79379,151.38],[150.02678,-34.79377,151.95],[150.02682,-34.79374,152.76],[150.02684,-34.79372,153.22],[150.02687,-34.7937,153.64],[150.02689,-34.79368,154.01],[150.02693,-34.79367,154.16],[150.02695,-34.79365,154.39],[150.02697,-34.79363,154.48],[150.027,-34.79361,154.43],[150.02703,-34.79359,154.71],[150.02706,-34.79359,154.39],[150.02709,-34.79357,154.69],[150.02711,-34.79355,155.1],[150.02714,-34.79354,155.12],[150.02717,-34.79354,154.82],[150.02719,-34.79357,153.66],[150.02719,-34.7936,152.7],[150.02719,-34.79363,152.32],[150.02721,-34.7936,152.49],[150.02725,-34.79361,152.13],[150.02728,-34.7936,152.54],[150.02731,-34.79362,152.31],[150.02733,-34.79364,152.35],[150.02736,-34.79366,152.41],[150.02737,-34.79363,152.5],[150.02736,-34.7936,152.8],[150.02737,-34.79363,152.5],[150.0274,-34.79364,152.57],[150.02745,-34.79364,152.73],[150.02748,-34.79366,152.76],[150.02752,-34.79366,153.05],[150.02756,-34.79366,153.51],[150.02759,-34.79367,153.83],[150.02763,-34.79366,154.31],[150.02765,-34.79365,154.56],[150.0277,-34.79365,155.12],[150.02773,-34.79365,155.46],[150.02777,-34.79365,155.91],[150.02781,-34.79365,156.06],[150.02784,-34.79365,156.13],[150.02786,-34.79363,156.08],[150.0279,-34.79363,156.12],[150.02793,-34.79362,156.07],[150.02796,-34.79364,156.27],[150.02799,-34.79362,156.1],[150.02802,-34.79362,156.11],[150.02806,-34.79363,156.23],[150.02809,-34.79363,155.91],[150.02812,-34.79361,155.29],[150.02814,-34.79358,154.77],[150.02817,-34.79357,154.45],[150.02821,-34.79357,154.17],[150.02825,-34.79358,153.89],[150.02828,-34.79357,153.67],[150.02832,-34.79358,153.33],[150.02834,-34.7936,153.09],[150.02836,-34.79362,153.15],[150.0284,-34.79364,153.45],[150.02844,-34.79364,153.4],[150.02845,-34.79368,153.93],[150.02846,-34.79371,154.29],[150.02848,-34.79373,154.46],[150.02851,-34.79375,154.55],[150.02853,-34.79378,154.75],[150.02853,-34.79381,155.06],[150.02855,-34.79383,155.1],[150.02858,-34.79384,154.92],[150.02862,-34.79386,154.84],[150.02864,-34.79388,155.06],[150.02866,-34.79391,155.2],[150.02869,-34.79392,155.35],[150.02868,-34.79395,155.36],[150.02868,-34.79399,155.43],[150.02869,-34.79402,155.55],[150.0287,-34.79404,155.67],[150.02872,-34.79407,155.9],[150.02873,-34.7941,156.08],[150.02872,-34.79413,156.07],[150.02873,-34.79416,156.26],[150.02873,-34.79419,156.03],[150.02875,-34.79422,155.83],[150.02877,-34.79425,155.51],[150.02879,-34.79428,155.09],[150.0288,-34.7943,154.76],[150.02881,-34.79433,154.2],[150.02882,-34.79436,153.59],[150.02883,-34.7944,152.73],[150.02883,-34.79443,152.13],[150.02884,-34.79447,152.39],[150.02884,-34.7945,153.2],[150.02884,-34.79453,154.01],[150.02883,-34.79456,154.91],[150.02884,-34.7946,155.89],[150.02886,-34.79463,156.55],[150.02888,-34.79466,157.26],[150.0289,-34.79468,157.77],[150.02893,-34.7947,158.26],[150.02895,-34.79474,158.65],[150.02896,-34.79477,158.4],[150.02896,-34.79479,158.26],[150.02898,-34.79482,157.97],[150.02902,-34.79483,157.75],[150.02905,-34.79486,157.43],[150.02907,-34.79489,157.14],[150.02909,-34.79492,156.85],[150.02911,-34.79495,156.56],[150.02912,-34.79498,156.31],[150.02914,-34.79501,156.1],[150.02915,-34.79504,156.08],[150.02915,-34.79507,156.09],[150.02919,-34.7951,155.75],[150.02922,-34.79511,155.42],[150.02924,-34.79513,155.21],[150.02926,-34.79516,154.99],[150.02929,-34.79518,154.67],[150.02931,-34.79521,154.45],[150.02932,-34.79524,154.34],[150.02934,-34.79527,154.13],[150.02935,-34.7953,154.85],[150.02937,-34.79532,155.36],[150.02938,-34.79536,156.72],[150.02942,-34.79536,156.25],[150.02946,-34.79537,156.25],[150.02949,-34.79539,156.77],[150.02952,-34.7954,156.92],[150.02951,-34.79543,157.96],[150.02954,-34.79543,157.73],[150.02956,-34.79545,158.17],[150.02958,-34.79547,158.57],[150.02961,-34.79549,158.82],[150.02964,-34.7955,158.75],[150.02968,-34.79551,158.52],[150.0297,-34.79553,158.74],[150.02972,-34.79556,159.14],[150.02974,-34.79558,159.42],[150.02977,-34.79559,159.35],[150.02979,-34.79561,159.64],[150.02984,-34.79562,159.35],[150.02988,-34.79563,159.17],[150.0299,-34.79565,159.46],[150.02993,-34.79563,158.63],[150.02996,-34.79564,158.56],[150.02999,-34.79564,158.24],[150.03003,-34.79565,158.34],[150.03007,-34.79564,158.1],[150.0301,-34.79564,158.08],[150.03013,-34.79563,157.93],[150.03017,-34.79564,158.05],[150.0302,-34.79565,158.11],[150.03024,-34.79566,158.09],[150.03028,-34.79566,157.98],[150.03031,-34.79565,157.73],[150.03034,-34.79563,157.54],[150.03036,-34.79561,157.47],[150.0304,-34.7956,157.28],[150.03044,-34.79559,157.13],[150.03049,-34.79558,156.97],[150.03053,-34.79557,156.9],[150.03057,-34.79556,156.47],[150.0306,-34.79556,155.51],[150.03064,-34.79555,154.34],[150.03067,-34.79556,153.25],[150.03071,-34.79556,151.97],[150.03075,-34.79555,150.82],[150.03079,-34.79556,149.39],[150.03082,-34.79556,148.43],[150.03087,-34.79557,147.74],[150.0309,-34.79558,147.52],[150.03096,-34.79558,147.09],[150.031,-34.79559,146.8],[150.03104,-34.79557,146.51],[150.03107,-34.79558,146.3],[150.03111,-34.79558,146.01],[150.03114,-34.79558,145.99],[150.03119,-34.79558,145.98],[150.03122,-34.79558,145.97],[150.03126,-34.79559,145.93],[150.0313,-34.79559,145.92],[150.03135,-34.79558,145.92],[150.03139,-34.79559,145.87],[150.03142,-34.79561,145.71],[150.03146,-34.7956,145.62],[150.0315,-34.79561,145.48],[150.03153,-34.79562,145.38],[150.03157,-34.79563,145.25],[150.0316,-34.79563,145.18],[150.03163,-34.79565,145.09],[150.03163,-34.79569,145.07],[150.03167,-34.79569,145.03],[150.03172,-34.79569,145.48],[150.03175,-34.79569,145.75],[150.0318,-34.7957,146.19],[150.03183,-34.7957,146.46],[150.03187,-34.79571,146.79],[150.0319,-34.79571,147.05],[150.03194,-34.79572,147.37],[150.03197,-34.79572,147.58],[150.03201,-34.79572,147.85],[150.03204,-34.79571,148.17],[150.03208,-34.7957,148.63],[150.03211,-34.7957,148.89],[150.03215,-34.79572,148.78],[150.03219,-34.79573,148.79],[150.03222,-34.79573,148.96],[150.03226,-34.79575,149.76],[150.0323,-34.79575,151.2],[150.03234,-34.79575,152.64],[150.03237,-34.79577,153.14],[150.03238,-34.7958,152.64],[150.03241,-34.79581,153.43],[150.03245,-34.7958,155.16],[150.03248,-34.79578,156.82],[150.03251,-34.7958,157.4],[150.03252,-34.79583,156.96],[150.03254,-34.79585,157.45],[150.03255,-34.79588,157.37],[150.03257,-34.79591,157.64],[150.0326,-34.79592,158.62],[150.03261,-34.79595,158.41],[150.03264,-34.79597,159.09],[150.03264,-34.79601,158.22],[150.03264,-34.79605,157.36],[150.03263,-34.79608,156.4],[150.03262,-34.7961,155.69],[150.03261,-34.79614,154.8],[150.03261,-34.79617,154.41],[150.03262,-34.7962,154.26],[150.03263,-34.79623,154.09],[150.03264,-34.79626,153.88],[150.03264,-34.79629,153.45],[150.03265,-34.79632,153.19],[150.03268,-34.79635,153.23],[150.0327,-34.79638,153.04],[150.03272,-34.79641,152.94],[150.03273,-34.79644,152.73],[150.03275,-34.79646,152.7],[150.03277,-34.79648,152.62],[150.0328,-34.7965,152.5],[150.03282,-34.79653,152.12],[150.03284,-34.79655,151.87],[150.03286,-34.79658,151.43],[150.03286,-34.79661,150.94],[150.0329,-34.79663,150.64],[150.03292,-34.79665,150.3],[150.03294,-34.79667,150],[150.03297,-34.79666,150.13],[150.033,-34.79666,150.13],[150.03303,-34.79668,150],[150.03307,-34.79667,150.1],[150.0331,-34.79667,150.32],[150.03311,-34.7967,150.34],[150.03313,-34.79672,150.43],[150.03316,-34.79674,150.55],[150.03321,-34.79674,150.82],[150.03325,-34.79674,151.03],[150.03329,-34.79676,151.12],[150.03332,-34.79677,151.2],[150.03334,-34.79679,151.13],[150.03332,-34.79681,150.92],[150.03337,-34.79681,151.03],[150.03342,-34.79681,151.11],[150.03346,-34.79682,151.05],[150.03349,-34.79682,151.09],[150.03353,-34.79683,150.99],[150.03356,-34.79685,150.7],[150.0336,-34.79686,150.52],[150.03362,-34.79688,150.19],[150.03365,-34.7969,149.94],[150.03369,-34.79692,149.72],[150.03374,-34.79693,149.72],[150.03377,-34.79694,149.65],[150.03381,-34.79696,149.47],[150.03384,-34.79698,149.23],[150.03389,-34.797,149],[150.03393,-34.79701,148.67],[150.03398,-34.79702,148.31],[150.03402,-34.79705,147.63],[150.03407,-34.79706,147.27],[150.03411,-34.79706,147.12],[150.03415,-34.79708,146.62],[150.0342,-34.7971,146.28],[150.03422,-34.79712,146.01],[150.03425,-34.79713,145.96],[150.03428,-34.79711,146.34],[150.03432,-34.79712,146.33],[150.03435,-34.79712,146.43],[150.03439,-34.79711,146.65],[150.03443,-34.7971,146.84],[150.03446,-34.7971,146.74],[150.03449,-34.79712,146.35],[150.03453,-34.79712,146.01],[150.03455,-34.7971,145.95],[150.03459,-34.79709,145.65],[150.03462,-34.7971,145.34],[150.03465,-34.79711,145.03],[150.03468,-34.79709,144.85],[150.03472,-34.79707,144.57],[150.03475,-34.79706,144.13],[150.0348,-34.79707,143.27],[150.03483,-34.79707,142.78],[150.03488,-34.79706,141.98],[150.03491,-34.79704,141.51],[150.03495,-34.79704,140.84],[150.03499,-34.79703,140.17],[150.03502,-34.79702,139.68],[150.03507,-34.79702,138.88],[150.03511,-34.79702,138.24],[150.03514,-34.79701,137.72],[150.03517,-34.79698,137.1],[150.03521,-34.79696,136.3],[150.03525,-34.79694,135.61],[150.03528,-34.79693,135.35],[150.0353,-34.7969,135.93],[150.03532,-34.79688,136.25],[150.03536,-34.79686,136.36],[150.03539,-34.79684,136.52],[150.03541,-34.79682,136.76],[150.03545,-34.79681,136.55],[150.03548,-34.7968,136.43],[150.03551,-34.79678,136.48],[150.03554,-34.79677,136.32],[150.03557,-34.79675,136.35],[150.03561,-34.79674,136.1],[150.03564,-34.79672,136.06],[150.03568,-34.79671,135.71],[150.03571,-34.79669,135.54],[150.03576,-34.79668,134.96],[150.03582,-34.79667,134.18],[150.03587,-34.79665,134.25],[150.03591,-34.79663,134.53],[150.03596,-34.79662,134.37],[150.036,-34.79661,134.27],[150.03604,-34.79658,134.62],[150.03609,-34.79655,134.77],[150.03613,-34.79654,134.54],[150.03617,-34.79653,134.32],[150.03622,-34.79651,134.11],[150.03626,-34.79651,133.64],[150.0363,-34.79651,133.17],[150.03633,-34.79648,133.13],[150.03637,-34.79645,132.84],[150.03641,-34.79645,132.59],[150.03646,-34.79644,132.73],[150.03651,-34.79643,132.83],[150.03654,-34.79641,132.93],[150.03658,-34.79638,133.35],[150.03663,-34.79638,133.35],[150.03668,-34.79637,133.74],[150.03672,-34.79636,134.12],[150.03676,-34.79636,134.11],[150.03681,-34.79635,134.47],[150.03685,-34.79633,135.19],[150.0369,-34.79632,135.52],[150.03695,-34.7963,136.19],[150.03699,-34.79629,136.44],[150.03705,-34.79628,136.62],[150.03709,-34.79628,136.51],[150.03713,-34.79627,136.71],[150.03718,-34.79625,137.15],[150.03722,-34.79626,136.72],[150.03726,-34.79624,137.35],[150.0373,-34.79622,137.97],[150.03735,-34.79621,138.32],[150.03739,-34.79621,138.37],[150.03743,-34.7962,138.68],[150.03749,-34.79619,139],[150.03753,-34.79619,139.03],[150.03757,-34.79618,139.26],[150.03761,-34.79619,139.07],[150.03765,-34.79619,139.09],[150.0377,-34.79619,139.11],[150.03773,-34.79618,139.26],[150.03776,-34.79617,139.37],[150.03779,-34.79616,139.43],[150.03783,-34.79617,139.18],[150.03786,-34.79617,139.07],[150.0379,-34.79617,138.92],[150.03793,-34.79616,138.92],[150.03798,-34.79615,138.85],[150.03801,-34.79615,138.74],[150.03806,-34.79614,138.64],[150.03809,-34.79613,138.45],[150.03812,-34.79613,138.15],[150.03816,-34.79612,137.81],[150.03821,-34.79611,137.34],[150.03825,-34.79609,137.13],[150.03827,-34.79607,137.13],[150.03831,-34.79606,136.8],[150.03835,-34.79605,136.61],[150.03838,-34.79603,136.79],[150.03841,-34.79602,136.88],[150.03844,-34.796,137.2],[150.03847,-34.79598,137.59],[150.03849,-34.79595,138.25],[150.03851,-34.79593,138.76],[150.03854,-34.7959,139.62],[150.03856,-34.79589,140],[150.03859,-34.79587,140.77],[150.03862,-34.79584,141.78],[150.03865,-34.79583,141.93],[150.03868,-34.79581,142.19],[150.0387,-34.79578,142.65],[150.03872,-34.79575,143.06],[150.03873,-34.79573,143.33],[150.03874,-34.79569,143.91],[150.03875,-34.79566,144.31],[150.03877,-34.79562,144.72],[150.03877,-34.79559,145.18],[150.03878,-34.79556,145.5],[150.03879,-34.79554,145.48],[150.0388,-34.7955,145.47],[150.0388,-34.79547,145.58],[150.0388,-34.79544,145.68],[150.03881,-34.79541,145.58],[150.03882,-34.79538,145.46],[150.03884,-34.79535,145.09],[150.03884,-34.79533,145.13],[150.03884,-34.7953,145.19],[150.03883,-34.79526,145.31],[150.03883,-34.79523,145],[150.03883,-34.7952,144.7],[150.03883,-34.79517,144.4],[150.03883,-34.79513,144],[150.0388,-34.79511,144.62],[150.03879,-34.79506,144.42],[150.03878,-34.79503,144.42],[150.03877,-34.795,144.42],[150.03876,-34.79496,144.01],[150.03873,-34.79494,144.43],[150.03872,-34.79492,144.3],[150.03868,-34.79493,145.5],[150.03865,-34.79493,146.26],[150.03861,-34.79492,147],[150.03859,-34.7949,146.86],[150.03857,-34.79487,146.46],[150.03856,-34.79484,145.89],[150.03853,-34.79481,145.67],[150.0385,-34.7948,145.96],[150.0385,-34.79477,145.2],[150.03852,-34.79474,144.09],[150.03855,-34.79473,143.3],[150.03858,-34.79471,142.63],[150.03859,-34.79468,142.64],[150.03859,-34.79465,142.82],[150.03858,-34.79462,143.13],[150.03857,-34.79459,143.41],[150.03858,-34.79454,143.58],[150.03859,-34.79451,143.68],[150.03859,-34.79448,143.86],[150.03862,-34.79444,143.83],[150.03864,-34.79441,143.55],[150.03866,-34.79438,143.34],[150.03869,-34.79437,142.87],[150.03869,-34.79433,143.18],[150.0387,-34.7943,143.27],[150.0387,-34.79427,143.51],[150.0387,-34.79423,143.84],[150.0387,-34.79419,144.17],[150.03871,-34.79415,144.12],[150.03871,-34.79413,143.91],[150.03871,-34.79409,143.5],[150.03874,-34.79407,142.78],[150.03876,-34.79405,142.13],[150.03878,-34.79402,141.22],[150.0388,-34.79399,140.18],[150.03881,-34.79396,139.31],[150.03882,-34.79392,138.15],[150.03882,-34.79389,137.5],[150.03881,-34.79384,137.86],[150.03881,-34.79381,137.88],[150.03882,-34.79378,137.48],[150.03883,-34.79375,137.04],[150.03885,-34.79373,136.15],[150.03887,-34.79371,135.21],[150.03889,-34.79368,134.24],[150.03891,-34.79365,133.94],[150.03892,-34.79362,133.71],[150.03891,-34.79358,134.27],[150.0389,-34.79355,134.92],[150.03893,-34.79353,134.71],[150.03896,-34.7935,134.52],[150.03896,-34.79347,134.86],[150.03896,-34.79344,135.21],[150.039,-34.79345,134.08],[150.03903,-34.79344,133.37],[150.03903,-34.79341,133.52],[150.03905,-34.79339,133.01],[150.03906,-34.79336,132.77],[150.0391,-34.79336,131.43],[150.03913,-34.79334,130.35],[150.03915,-34.79332,129.94],[150.03916,-34.79329,130.34],[150.03917,-34.79325,131.08],[150.03918,-34.79323,131.51],[150.0392,-34.7932,132.07],[150.03924,-34.79319,131.93],[150.03929,-34.7932,131.29],[150.03933,-34.79321,130.8],[150.03936,-34.7932,130.69],[150.0394,-34.79321,130.24],[150.03945,-34.79319,130.01],[150.03948,-34.79317,130.05],[150.03951,-34.79316,130.01],[150.03955,-34.79317,129.8],[150.03959,-34.79314,129.87],[150.03961,-34.79312,129.94],[150.03964,-34.7931,129.98],[150.03967,-34.79308,130.01],[150.0397,-34.79306,130.05],[150.03974,-34.79306,129.97],[150.03976,-34.79305,130.14],[150.0398,-34.79304,130.38],[150.03984,-34.79304,130.37],[150.03988,-34.79306,129.97],[150.03992,-34.79307,129.9],[150.03998,-34.79307,129.9],[150.04001,-34.79307,129.93],[150.04005,-34.79307,130.05],[150.04008,-34.79306,130.24],[150.04012,-34.79305,130.55],[150.04015,-34.79307,130.35],[150.04018,-34.79309,130.16],[150.04021,-34.7931,130.07],[150.04025,-34.79311,129.98],[150.04028,-34.7931,130.21],[150.04031,-34.79312,129.99],[150.04034,-34.79313,129.93],[150.04037,-34.79315,129.63],[150.04041,-34.79317,129.3],[150.04046,-34.79319,128.94],[150.04049,-34.7932,128.74],[150.04054,-34.79321,128.53],[150.04057,-34.79321,128.45],[150.04061,-34.79322,127.87],[150.04064,-34.79324,127.08],[150.04068,-34.79325,126.5],[150.04071,-34.79327,125.71],[150.04074,-34.79329,124.92],[150.04077,-34.79327,125.28],[150.0408,-34.79328,124.78],[150.04084,-34.79328,124.27],[150.04088,-34.79329,122.4],[150.04091,-34.79329,121.21],[150.04095,-34.7933,119.34],[150.04099,-34.79331,117.47],[150.04102,-34.79332,115.99],[150.04099,-34.79331,117.47],[150.04098,-34.79334,117.04],[150.04097,-34.79337,116.72],[150.04097,-34.79341,115.78],[150.04096,-34.79345,115.12],[150.04097,-34.79348,114.13],[150.04102,-34.79348,112.81],[150.04105,-34.79347,112.19],[150.04108,-34.79345,111.64],[150.04111,-34.79344,110.88],[150.04114,-34.79343,110.45],[150.04118,-34.79343,109.74],[150.04122,-34.79343,109.03],[150.04118,-34.79343,109.74],[150.04122,-34.79345,108.98],[150.04122,-34.79342,109.05],[150.04118,-34.79342,109.79],[150.04115,-34.79343,110.27],[150.04112,-34.79343,110.8],[150.04108,-34.79344,111.78],[150.04106,-34.79347,111.91],[150.04104,-34.79349,112.11],[150.04102,-34.79352,112.05],[150.04101,-34.79355,111.68],[150.04101,-34.79358,111.08],[150.041,-34.7936,110.83],[150.04104,-34.79361,110.04],[150.04106,-34.79363,109.66],[150.04104,-34.79366,109.8],[150.04101,-34.79365,110.27],[150.04101,-34.79361,110.48],[150.04103,-34.79358,110.73],[150.04104,-34.79355,111.08],[150.04101,-34.79356,111.48],[150.04101,-34.79359,110.88],[150.04097,-34.7936,111.29],[150.04094,-34.7936,111.76],[150.0409,-34.79361,112.07],[150.04091,-34.79363,111.78],[150.04094,-34.79363,111.35],[150.04098,-34.79363,110.79],[150.04102,-34.79362,110.27],[150.04105,-34.79361,109.9],[150.04105,-34.79358,110.39],[150.04105,-34.79355,110.88],[150.04105,-34.79352,111.37],[150.04106,-34.79349,111.61],[150.04108,-34.79347,111.37],[150.04108,-34.79344,111.78],[150.04107,-34.79342,112.37],[150.04106,-34.79339,113.15],[150.04103,-34.79337,114.55],[150.041,-34.79336,115.84],[150.04096,-34.79335,117.58],[150.04093,-34.79335,118.72],[150.04089,-34.79336,119.93],[150.04086,-34.79337,120.71],[150.04082,-34.79338,121.43],[150.04079,-34.79339,121.34],[150.04076,-34.79339,121.6],[150.04072,-34.79339,121.94],[150.04069,-34.79337,122.85],[150.04065,-34.79338,122.86],[150.04064,-34.7934,122.33],[150.0406,-34.79341,122.38],[150.04057,-34.79341,122.66],[150.04055,-34.79343,122.27],[150.04053,-34.79346,121.65],[150.0405,-34.79348,121.5],[150.04047,-34.79349,121.66],[150.04045,-34.79351,121.5],[150.04042,-34.79354,121.35],[150.04039,-34.79355,121.68],[150.04036,-34.79356,122.05],[150.04035,-34.79359,121.77],[150.04033,-34.79362,121.69],[150.04031,-34.79364,121.7],[150.04029,-34.79367,121.48],[150.04027,-34.7937,121.26],[150.04025,-34.79372,121.29],[150.04023,-34.79374,121.33],[150.04021,-34.79377,121.17],[150.0402,-34.7938,120.79],[150.0402,-34.79383,120.17],[150.04021,-34.79386,119.31],[150.04021,-34.79389,118.68],[150.04019,-34.79391,118.71],[150.04018,-34.79394,118.23],[150.04016,-34.79396,118.21],[150.04012,-34.79398,118.64],[150.04009,-34.794,118.79],[150.04007,-34.79402,118.7],[150.04004,-34.79404,118.8],[150.04001,-34.79405,119.15],[150.03998,-34.79407,119.4],[150.03996,-34.7941,119.26],[150.03994,-34.79412,119.47],[150.03993,-34.79415,119.15],[150.03992,-34.79418,118.96],[150.03991,-34.79421,118.89],[150.03991,-34.79423,118.57],[150.03989,-34.79427,118.79],[150.03987,-34.79429,119.34],[150.03985,-34.79431,119.92],[150.03983,-34.79434,120.38],[150.03981,-34.79436,121],[150.0398,-34.79439,121.06],[150.03978,-34.79442,121.6],[150.03976,-34.79445,122.29],[150.03975,-34.79448,123.1],[150.03973,-34.7945,124.24],[150.03971,-34.79453,125.37],[150.03971,-34.79456,125.68],[150.03968,-34.79458,126.91],[150.03966,-34.7946,127.77],[150.03964,-34.79464,128.74],[150.03962,-34.79466,129.52],[150.03961,-34.7947,130.09],[150.0396,-34.79473,130.72],[150.03958,-34.79476,132.04],[150.03957,-34.79479,133.07],[150.03957,-34.79483,134.06],[150.03956,-34.79486,135.06],[150.03956,-34.7949,136.04],[150.03955,-34.79492,136.77],[150.03954,-34.79495,137.73],[150.03954,-34.79498,138.45],[150.03955,-34.79501,138.99],[150.03955,-34.79504,139.81],[150.03955,-34.79507,140.63],[150.03956,-34.79511,141.67],[150.03956,-34.79513,142.24],[150.03956,-34.79516,143.11],[150.03956,-34.7952,144.26],[150.03955,-34.79522,144.71],[150.03954,-34.79525,145.35],[150.03955,-34.79528,146.29],[150.03954,-34.7953,146.22],[150.03955,-34.79535,146.73],[150.03954,-34.79538,146.78],[150.03953,-34.7954,146.79],[150.03954,-34.79543,147.12],[150.03955,-34.79545,147.35],[150.03956,-34.79548,147.59],[150.03958,-34.79551,147.82],[150.0396,-34.79554,147.96],[150.03962,-34.79556,148.04],[150.03963,-34.79558,148.26],[150.03965,-34.79561,148.67],[150.03967,-34.79563,149.04],[150.03968,-34.79566,149.54],[150.03969,-34.79569,150.08],[150.03968,-34.79572,150.42],[150.03967,-34.79575,150.71],[150.03967,-34.79578,151.13],[150.03968,-34.7958,151.6],[150.03969,-34.79583,152.25],[150.03969,-34.79586,150.64],[150.03972,-34.79589,149.29],[150.03974,-34.79591,147.78],[150.03976,-34.79593,146.36],[150.03977,-34.79596,144.59],[150.03977,-34.79599,142.93],[150.03977,-34.79602,141.26],[150.03978,-34.79605,139.73],[150.03978,-34.79608,138.12],[150.03978,-34.7961,137.05],[150.03976,-34.79613,135.94],[150.03975,-34.79617,135.68],[150.03975,-34.79619,135.67],[150.03975,-34.79623,135.66],[150.03974,-34.79626,135.41],[150.03973,-34.79628,135.18],[150.03974,-34.79632,135.4],[150.03972,-34.79634,135],[150.03973,-34.79637,135.17],[150.03973,-34.7964,135.88],[150.03974,-34.79643,137.94],[150.03974,-34.79646,139.81],[150.03974,-34.79649,141.68],[150.03974,-34.79652,143.55],[150.03974,-34.79654,144.79],[150.03975,-34.79657,146.62],[150.03975,-34.7966,148.44],[150.03974,-34.79663,150.4],[150.03973,-34.79666,152.44],[150.03972,-34.79668,153.86],[150.03971,-34.79671,155.78],[150.03969,-34.79674,157.73],[150.03968,-34.79677,159.71],[150.03967,-34.7968,161.72],[150.03966,-34.79683,163.76],[150.03965,-34.79686,165.81],[150.03963,-34.79688,167.26],[150.0396,-34.7969,168.79],[150.03958,-34.79692,170.3],[150.03955,-34.79695,172.44],[150.03953,-34.79696,172.97],[150.0395,-34.79699,174.47],[150.03949,-34.79701,175.43],[150.03947,-34.79704,177.03],[150.03946,-34.79706,178.11],[150.03946,-34.79709,179.47],[150.03946,-34.79712,180.82],[150.03946,-34.79715,182.18],[150.03944,-34.79717,183.43],[150.03942,-34.7972,184.41],[150.03941,-34.79723,185.54],[150.03938,-34.79723,185.01],[150.03936,-34.79726,185.37],[150.03935,-34.79728,185.69],[150.03933,-34.7973,185.92],[150.03931,-34.79733,186.46],[150.03931,-34.79736,187.26],[150.0393,-34.79739,187.99],[150.03926,-34.7974,188],[150.03924,-34.79742,188.5],[150.03921,-34.79744,189.01],[150.0392,-34.79747,189.98],[150.03917,-34.79749,190.64],[150.03914,-34.7975,191],[150.03912,-34.79753,192.62],[150.03912,-34.79756,194.24],[150.03912,-34.79758,195.32],[150.03912,-34.79762,197.48],[150.03913,-34.79764,198.56],[150.03912,-34.79767,200.18],[150.03911,-34.7977,201.8],[150.03911,-34.79773,203.42],[150.03912,-34.79776,205.04],[150.03911,-34.79779,206.57],[150.03912,-34.79782,207.98],[150.03912,-34.79785,209.38],[150.03912,-34.79788,210.78],[150.03909,-34.79789,211.25],[150.03906,-34.79791,212.19],[150.03904,-34.79793,213.12],[150.03903,-34.79796,214.53],[150.039,-34.79798,215.46],[150.039,-34.79801,216.87],[150.039,-34.79803,217.8],[150.03898,-34.79806,219.21],[150.03896,-34.79808,220.16],[150.03895,-34.79811,221.61],[150.03893,-34.79814,223.12],[150.0389,-34.79815,223.72],[150.0389,-34.79818,225.22],[150.03886,-34.7982,226.55],[150.03886,-34.79824,228.61],[150.03884,-34.79826,229.87],[150.03882,-34.79829,231.69],[150.0388,-34.79831,233.02],[150.03878,-34.79834,235.03],[150.03878,-34.79837,237.13],[150.03877,-34.7984,239.37],[150.03879,-34.79844,241.86],[150.03879,-34.79847,243.95],[150.03881,-34.79849,245.01],[150.0388,-34.79852,247.26],[150.03879,-34.79855,249.52],[150.0388,-34.79858,251.44],[150.0388,-34.7986,252.83],[150.03879,-34.79863,254.94],[150.03876,-34.79865,256.75],[150.03872,-34.79866,258.18],[150.0387,-34.79868,259.87],[150.03871,-34.79872,262.25],[150.03872,-34.79875,263.95],[150.03871,-34.79877,265.48],[150.0387,-34.7988,267.67],[150.03869,-34.79883,269.88],[150.03866,-34.79884,271.34],[150.03865,-34.79887,273.62],[150.03867,-34.79889,274.37],[150.03867,-34.79892,276.11],[150.03864,-34.79893,277.69],[150.0386,-34.79893,279.02],[150.03857,-34.79895,281.29],[150.03855,-34.79897,283.24],[150.03855,-34.799,285.18],[150.03855,-34.79903,287.12],[150.03853,-34.79905,289.07],[150.03833,-34.80012,340.41],[150.03847,-34.7991,294.25],[150.03829,-34.8001,341.47],[150.03824,-34.79996,339.67],[150.03819,-34.79986,337.3],[150.03817,-34.79981,335.97],[150.03815,-34.79977,334.96],[150.03814,-34.79974,334.1],[150.03814,-34.79969,331.81],[150.03813,-34.79966,330.42],[150.03811,-34.79964,329.7],[150.03811,-34.79961,328.12],[150.0381,-34.79958,326.68],[150.03808,-34.79961,328.57],[150.03808,-34.79964,330.17],[150.03806,-34.79966,331.57],[150.03808,-34.79969,332.84],[150.03805,-34.7997,333.85],[150.03802,-34.79974,336.04],[150.03802,-34.79977,337.15],[150.03805,-34.79977,336.79],[150.03803,-34.79979,337.76],[150.03799,-34.79979,338.26],[150.03795,-34.79979,338.77],[150.03792,-34.7998,339.54],[150.03789,-34.7998,339.92],[150.03785,-34.7998,340.43],[150.03784,-34.79983,341.81],[150.03782,-34.79985,342.92],[150.0378,-34.79988,344.49],[150.03779,-34.79992,346.35],[150.03778,-34.79996,348.23],[150.03775,-34.8,350.6],[150.03774,-34.80004,352.75],[150.03773,-34.80008,354.92],[150.0377,-34.8001,356.66],[150.03765,-34.80011,358.45],[150.03765,-34.80014,360.01],[150.03763,-34.80016,361.6],[150.03761,-34.80018,363.22],[150.03757,-34.80018,364.37],[150.03754,-34.80018,365.22],[150.03752,-34.80021,367.5],[150.0375,-34.80023,369.25],[150.03746,-34.80022,369.7],[150.03743,-34.80023,371.09],[150.0374,-34.80023,371.88],[150.03737,-34.80024,373.31],[150.03734,-34.80026,375.44],[150.03732,-34.80028,377.34],[150.03729,-34.8003,379.67],[150.03727,-34.80032,381.74],[150.03731,-34.80032,380.52],[150.03728,-34.80034,382.9],[150.03731,-34.80034,381.96],[150.03734,-34.80032,379.61],[150.03738,-34.8003,377],[150.03734,-34.80031,378.9],[150.03734,-34.80034,381.03],[150.03732,-34.80037,383.81],[150.03731,-34.8004,386.29],[150.03731,-34.80043,388.46],[150.03728,-34.80045,390.97],[150.03725,-34.80043,390.54],[150.03723,-34.80045,392.74],[150.03721,-34.80047,394.51],[150.03718,-34.80049,395.92],[150.03713,-34.8005,396.47],[150.0371,-34.80051,397.04],[150.03707,-34.80053,398.22],[150.03703,-34.80054,398.63],[150.037,-34.80056,399.6],[150.03697,-34.80058,400.34],[150.03694,-34.80059,400.67],[150.0369,-34.8006,400.52],[150.03686,-34.80062,400.82],[150.03684,-34.80064,401.41],[150.0368,-34.80066,401.6],[150.03679,-34.80069,402.74],[150.03678,-34.80071,403.43],[150.03675,-34.80072,403.24],[150.03672,-34.80074,403.45],[150.0367,-34.80077,404.25],[150.03668,-34.8008,405],[150.03666,-34.80082,405.4],[150.03663,-34.80083,405.48],[150.03661,-34.80085,405.92],[150.03658,-34.80086,405.9],[150.03653,-34.80088,405.95],[150.0365,-34.80088,405.61],[150.03646,-34.80088,405.16],[150.03643,-34.80089,405.11],[150.03639,-34.80091,405.22],[150.03636,-34.80092,405.46],[150.03632,-34.80091,405.14],[150.03628,-34.80091,405.1],[150.03625,-34.80091,405.07],[150.03621,-34.80092,405.3],[150.03617,-34.80093,405.51],[150.03613,-34.80093,405.46],[150.03608,-34.80094,405.78],[150.03605,-34.80096,406.33],[150.03601,-34.80096,406.42],[150.03597,-34.80096,406.51],[150.03594,-34.80096,406.58],[150.03589,-34.80097,406.86],[150.03586,-34.80098,407.07],[150.03581,-34.80099,406.68],[150.03578,-34.801,406.09],[150.03575,-34.80102,405.69],[150.03572,-34.80103,405.15],[150.03569,-34.80105,404.8],[150.03567,-34.80108,404.89],[150.03563,-34.8011,404.39],[150.03559,-34.80109,403.31],[150.03556,-34.80108,402.43],[150.03552,-34.80109,401.99],[150.03548,-34.8011,401.63],[150.03545,-34.80111,401.45],[150.03541,-34.80112,400.79],[150.03538,-34.80113,400.26],[150.03534,-34.80114,399.62],[150.0353,-34.80114,399.09],[150.03524,-34.80115,398.91],[150.0352,-34.80116,399.08],[150.03516,-34.80116,399.3],[150.03512,-34.80116,399.52],[150.03507,-34.80118,399.81],[150.03503,-34.80119,400.08],[150.035,-34.8012,400.32],[150.03496,-34.80121,400.84],[150.03492,-34.80121,401.32],[150.03488,-34.80121,401.81],[150.03484,-34.8012,402.23],[150.0348,-34.8012,402.71],[150.03477,-34.8012,403.07],[150.03473,-34.80121,403.62],[150.03468,-34.80122,404.54],[150.03464,-34.80123,405.34],[150.03459,-34.80124,406.31],[150.03456,-34.80125,406.92],[150.03452,-34.80126,407.71],[150.03449,-34.80126,408.25],[150.03446,-34.80125,408.72],[150.03442,-34.80125,409.04],[150.03438,-34.80125,409.12],[150.03435,-34.80124,409.11],[150.03431,-34.80124,409.19],[150.03428,-34.80124,409.25],[150.03425,-34.80125,409.35],[150.03422,-34.80127,409.49],[150.03418,-34.80127,409.55],[150.03414,-34.80125,409.6],[150.03411,-34.80123,409.66],[150.03409,-34.80121,409.71],[150.03406,-34.80119,409.83],[150.03402,-34.80119,410.04],[150.03399,-34.80118,410.2],[150.03395,-34.80117,410.44],[150.03392,-34.80118,410.58],[150.03389,-34.80118,410.75],[150.03385,-34.80117,411.13],[150.03382,-34.80117,411.39],[150.0338,-34.80119,411.54],[150.03376,-34.8012,411.9],[150.03372,-34.8012,412.29],[150.03369,-34.80119,412.55],[150.03366,-34.80117,412.79],[150.03363,-34.80117,413.05],[150.0336,-34.80116,413.15],[150.03356,-34.80116,413.06],[150.03352,-34.80115,412.9],[150.03349,-34.80115,412.83],[150.03345,-34.80115,412.72],[150.0334,-34.80114,412.5],[150.03337,-34.80113,412.32],[150.03335,-34.80111,412.02],[150.03332,-34.80112,411.96],[150.03329,-34.80113,411.76],[150.03325,-34.80114,411.47],[150.03322,-34.80115,411.31],[150.03318,-34.80116,411.07],[150.03315,-34.80118,411.09],[150.03311,-34.80119,410.9],[150.03308,-34.8012,410.81],[150.03305,-34.80121,410.75],[150.03302,-34.80123,410.98],[150.03299,-34.80125,411.26],[150.03296,-34.80126,411.39],[150.03293,-34.80129,412.03],[150.0329,-34.80129,411.98],[150.03286,-34.80129,411.92],[150.03284,-34.80132,412.77],[150.03283,-34.80134,413.36],[150.03282,-34.80137,414.28],[150.0328,-34.8014,414.93],[150.03279,-34.80143,415.04],[150.03276,-34.80145,415.37],[150.03274,-34.80147,415.58],[150.03274,-34.8015,415.64],[150.03273,-34.80153,415.76],[150.0327,-34.80155,415.93],[150.03267,-34.80157,416.06],[150.03265,-34.80159,416.1],[150.03263,-34.80161,416.12],[150.03261,-34.80163,416.11],[150.03259,-34.80166,416.02],[150.03256,-34.80168,415.94],[150.03253,-34.80169,415.95],[150.0325,-34.8017,416],[150.03247,-34.80173,416.22],[150.03244,-34.80174,416.43],[150.03241,-34.80175,416.65],[150.03238,-34.80177,416.86],[150.03235,-34.80179,417.08],[150.03233,-34.80181,417.22],[150.03231,-34.80183,417.37],[150.03229,-34.80185,417.51],[150.03225,-34.80187,417.8],[150.03222,-34.80189,418.01],[150.03218,-34.8019,418.21],[150.03215,-34.80191,418.39],[150.03212,-34.80192,418.61],[150.0321,-34.80194,418.85],[150.03207,-34.80196,418.77],[150.03204,-34.80199,418.38],[150.03202,-34.80201,418.15],[150.03198,-34.80203,418.13],[150.03195,-34.80204,418.23],[150.03192,-34.80205,418.18],[150.03188,-34.80207,418.03],[150.03184,-34.80208,418.1],[150.03181,-34.80209,418.16],[150.03178,-34.8021,418.27],[150.03175,-34.80211,418.41],[150.03171,-34.80211,418.69],[150.03167,-34.8021,418.98],[150.03164,-34.8021,419.48],[150.0316,-34.8021,420.21],[150.03157,-34.80211,420.87],[150.03152,-34.8021,421.66],[150.03146,-34.80211,422.99],[150.03142,-34.80212,424.05],[150.03137,-34.80213,425.31],[150.03134,-34.80213,425.78],[150.03131,-34.80211,425.55],[150.03127,-34.80212,426.51],[150.03123,-34.80212,427.13],[150.03119,-34.80212,427.74],[150.03115,-34.80213,428.74],[150.03111,-34.80212,428.97],[150.03108,-34.80212,429.51],[150.03104,-34.80212,430.23],[150.03101,-34.80212,430.77],[150.03098,-34.80213,431.71],[150.03097,-34.80216,433.08],[150.03095,-34.80218,434.23],[150.03092,-34.80219,435.16],[150.03095,-34.8022,435.02],[150.03093,-34.80222,436.17],[150.03092,-34.80219,435.16],[150.03091,-34.80217,434.55],[150.03088,-34.80218,435.49],[150.03084,-34.80218,436.21],[150.0308,-34.80219,437.44],[150.03077,-34.8022,438.49],[150.03074,-34.80222,439.93],[150.03071,-34.80224,441.12],[150.03068,-34.80225,442],[150.03064,-34.80227,443.31],[150.03061,-34.80228,444.15],[150.03057,-34.8023,445.4],[150.03054,-34.80231,446.2],[150.03051,-34.80233,447.18],[150.03048,-34.80234,447.95],[150.03044,-34.80234,448.69],[150.03041,-34.80235,449.42],[150.03037,-34.80236,450.32],[150.03034,-34.80238,451.18],[150.03032,-34.80239,451.69],[150.03029,-34.80242,452.65],[150.03026,-34.80244,453.28],[150.03024,-34.80246,453.72],[150.03021,-34.80248,454.22],[150.03019,-34.80251,454.45],[150.03016,-34.80251,454.67],[150.03013,-34.80252,454.7],[150.03009,-34.80253,454.81],[150.03005,-34.80254,454.92],[150.03002,-34.80255,454.96],[150.02998,-34.80256,455.26],[150.02994,-34.80257,455.77],[150.0299,-34.80258,456.26],[150.02987,-34.80258,456.77],[150.02983,-34.80258,457.44],[150.02979,-34.80257,458.33],[150.02976,-34.80259,458.42],[150.02973,-34.80259,458.93],[150.0297,-34.8026,459.54],[150.02967,-34.80261,460.28],[150.02964,-34.8026,461.42],[150.02961,-34.80261,462.18],[150.02957,-34.80262,463.27],[150.02952,-34.80263,464.7],[150.02949,-34.80263,465.66],[150.02944,-34.80262,467.32],[150.02941,-34.80263,467.48],[150.02938,-34.80265,467.57],[150.02935,-34.80266,467.82],[150.02931,-34.80266,468.3],[150.02928,-34.80268,468.53],[150.02925,-34.80268,468.92],[150.02922,-34.80267,469.34],[150.0292,-34.80265,469.62],[150.02917,-34.80265,469.96],[150.02914,-34.80266,470.61],[150.0291,-34.80268,471.58],[150.02911,-34.80265,471.26],[150.02908,-34.80265,471.92],[150.02904,-34.80265,472.81],[150.02901,-34.80264,473.39],[150.02898,-34.80265,474.14],[150.02894,-34.80265,475.03],[150.0289,-34.80266,476.05],[150.02887,-34.80266,476.85],[150.02883,-34.80265,477.9],[150.0288,-34.80263,478.66],[150.02876,-34.80263,479.92],[150.02872,-34.80263,481.18],[150.02869,-34.80263,482.12],[150.02865,-34.80262,483.45],[150.02862,-34.80263,484.32],[150.02858,-34.80262,485.26],[150.02854,-34.80262,485.98],[150.0285,-34.80261,486.81],[150.02847,-34.80261,487.35],[150.02843,-34.80262,487.96],[150.02841,-34.8026,488.54],[150.02838,-34.80259,489.19],[150.02835,-34.80258,489.84],[150.0283,-34.80257,491.05],[150.02827,-34.80256,491.87],[150.02824,-34.80254,492.73],[150.02821,-34.80253,493.48],[150.02819,-34.80251,494.04],[150.02815,-34.80252,494.89],[150.02814,-34.80254,495.04],[150.0281,-34.80253,495.99],[150.02807,-34.80252,496.68],[150.02805,-34.8025,497.14],[150.02803,-34.80252,497.65],[150.028,-34.80249,498.1],[150.02796,-34.80249,499.11],[150.02792,-34.8025,500.42],[150.02789,-34.80253,501.24],[150.02786,-34.80255,502.05],[150.02783,-34.80256,502.86],[150.0278,-34.80257,503.67],[150.02777,-34.80257,504.49],[150.02773,-34.80258,505.76],[150.0277,-34.80259,506.75],[150.02767,-34.80261,507.81],[150.02764,-34.80263,508.9],[150.02761,-34.80262,509.79],[150.02758,-34.80262,510.74],[150.02759,-34.80259,510.17],[150.02762,-34.80256,509.01],[150.02759,-34.80257,510],[150.02757,-34.80255,510.43],[150.02756,-34.80258,511.01],[150.02755,-34.80261,511.61],[150.02752,-34.80262,512.66],[150.02748,-34.80262,514.05],[150.02745,-34.80263,515.29],[150.02742,-34.80264,516.54],[150.02739,-34.80262,517.43],[150.02737,-34.8026,517.93],[150.02734,-34.80261,519.18],[150.02731,-34.80262,520.43],[150.02728,-34.80263,521.69],[150.02724,-34.80263,523.2],[150.02722,-34.80261,523.68],[150.02719,-34.80259,524.65],[150.02716,-34.80257,525.69],[150.02713,-34.80255,526.8],[150.02711,-34.80253,527.51],[150.02707,-34.80254,529.38],[150.02708,-34.8025,528.66],[150.02708,-34.80247,528.01],[150.0271,-34.80245,526.6],[150.02714,-34.80245,524.62],[150.02716,-34.80242,522.87],[150.02712,-34.80241,524.67],[150.02709,-34.80242,526.43],[150.02705,-34.80243,528.67],[150.02702,-34.80246,530.73],[150.027,-34.80248,532.05],[150.02697,-34.80249,533.65],[150.02693,-34.8025,535.57],[150.0269,-34.80251,536.77],[150.02686,-34.80251,538.35],[150.02683,-34.80252,539.56],[150.0268,-34.80254,540.79],[150.02676,-34.80256,542.45],[150.02673,-34.80256,543.66],[150.0267,-34.80257,544.9],[150.02666,-34.80257,546.46],[150.02662,-34.80257,547.68],[150.02659,-34.80257,548.59],[150.02655,-34.80257,549.82],[150.02651,-34.80257,551.04],[150.02648,-34.80256,552.07],[150.02644,-34.80256,553.32],[150.02641,-34.80255,554.42],[150.02637,-34.80254,555.67],[150.02633,-34.80253,556.74],[150.0263,-34.80252,557.67],[150.02627,-34.8025,559],[150.02624,-34.80248,559.72],[150.02621,-34.80248,560.5],[150.02617,-34.80248,561.54],[150.02614,-34.80246,562.37],[150.02611,-34.80245,563.18],[150.02607,-34.80245,563],[150.02604,-34.80244,563],[150.026,-34.80243,563.06],[150.02596,-34.80242,563.22],[150.02592,-34.80242,563.21],[150.02589,-34.80242,563.19],[150.02585,-34.80242,563.18],[150.02581,-34.80241,563.7],[150.02577,-34.80241,563.94],[150.02574,-34.8024,564.54],[150.0257,-34.80239,565.22],[150.02567,-34.80239,565.41],[150.02563,-34.80239,565.67],[150.02559,-34.80239,565.93],[150.02556,-34.80239,566.12],[150.02551,-34.8024,565.43],[150.02548,-34.80241,564.87],[150.02544,-34.80242,564.32],[150.02541,-34.80244,563.54],[150.02537,-34.80245,563.17],[150.02533,-34.80246,562.87],[150.0253,-34.80247,562.63],[150.02526,-34.80247,562.31],[150.02523,-34.80248,561.55],[150.02519,-34.8025,560.42],[150.02516,-34.80252,559.26],[150.02513,-34.80254,558.12],[150.0251,-34.80256,556.99],[150.02508,-34.80258,556.05],[150.02505,-34.80259,555.25],[150.02502,-34.80261,554.16],[150.02499,-34.80263,553.06],[150.02496,-34.80265,551.89],[150.02492,-34.80266,550.83],[150.02488,-34.80267,549.78],[150.02485,-34.80268,548.93],[150.02481,-34.80269,547.89],[150.02478,-34.8027,547.06],[150.02475,-34.80271,546.23],[150.02472,-34.80272,545.44],[150.02469,-34.80274,544.73],[150.02466,-34.80276,544.12],[150.02462,-34.80277,543.76],[150.0246,-34.80275,543.95],[150.02457,-34.80274,543.88],[150.02453,-34.80273,543.68],[150.0245,-34.80273,543.44],[150.02446,-34.80275,543.1],[150.02443,-34.80276,542.79],[150.0244,-34.80277,542.35],[150.02436,-34.80277,541.77],[150.02432,-34.80277,541.18],[150.02429,-34.80278,540.74],[150.02426,-34.8028,540.05],[150.02422,-34.8028,539.53],[150.02418,-34.8028,539.01],[150.02415,-34.80279,539.03],[150.02412,-34.80278,539.32],[150.02409,-34.80279,539.46],[150.02407,-34.80282,539.39],[150.02404,-34.80284,539.46],[150.02401,-34.80286,539.54],[150.02397,-34.80287,539.75],[150.02393,-34.80289,539.9],[150.0239,-34.80289,540.11],[150.02386,-34.8029,540.42],[150.02382,-34.8029,540.83],[150.02379,-34.80291,541.1],[150.02375,-34.80291,541.52],[150.02372,-34.80291,541.84],[150.02368,-34.8029,542.29],[150.02365,-34.80289,542.61],[150.02361,-34.80289,543.01],[150.02358,-34.80288,543.18],[150.02354,-34.80288,543.4],[150.02351,-34.80289,543.67],[150.02347,-34.8029,544.06],[150.02344,-34.8029,544.28],[150.0234,-34.80291,544.77],[150.02337,-34.80292,545.24],[150.02334,-34.80294,546.01],[150.02332,-34.80296,546.62],[150.02328,-34.80298,547.24],[150.02325,-34.803,547.84],[150.02322,-34.803,547.93],[150.02318,-34.803,548.04],[150.02314,-34.80301,548.43],[150.02311,-34.80302,548.81],[150.02307,-34.80303,549.22],[150.02304,-34.80303,549.43],[150.02301,-34.80305,550.33],[150.02297,-34.80306,550.95],[150.02294,-34.80306,551.27],[150.02291,-34.80308,551.65],[150.02288,-34.8031,551.97],[150.02285,-34.80311,552.23],[150.02282,-34.80313,552.44],[150.02279,-34.80314,552.62],[150.02276,-34.80315,552.64],[150.02272,-34.80317,552.55],[150.02269,-34.80318,552.52],[150.02266,-34.80319,552.5],[150.02262,-34.80321,552.51],[150.02259,-34.80321,552.52],[150.02256,-34.80322,552.55],[150.02253,-34.80324,552.63],[150.0225,-34.80326,552.74],[150.02246,-34.80328,552.69],[150.02243,-34.80329,552.63],[150.02239,-34.8033,552.53],[150.02236,-34.8033,552.44],[150.02232,-34.80329,552.3],[150.02229,-34.80327,552.19],[150.02227,-34.80325,552.12],[150.02223,-34.80324,552.02],[150.0222,-34.80323,551.91],[150.02217,-34.80322,551.77],[150.02213,-34.80321,551.56],[150.0221,-34.8032,551.37],[150.02206,-34.8032,551.16],[150.02202,-34.80319,550.87],[150.02199,-34.80318,550.62],[150.02196,-34.80317,550.33],[150.02192,-34.80316,550.11],[150.02189,-34.80315,549.96],[150.02186,-34.80314,549.79],[150.02183,-34.80313,549.61],[150.0218,-34.80312,549.42],[150.02176,-34.80311,549.18],[150.02173,-34.8031,548.96],[150.02169,-34.80309,548.68],[150.02166,-34.80307,548.21],[150.02164,-34.80305,547.84],[150.02161,-34.80303,547.76],[150.02158,-34.80301,547.74],[150.02155,-34.80299,547.79],[150.02151,-34.80299,547.64],[150.02147,-34.80299,547.49],[150.02143,-34.80299,547.34],[150.0214,-34.80298,547.4],[150.02136,-34.80297,547.61],[150.02133,-34.80297,547.69],[150.02129,-34.80295,548.12],[150.02126,-34.80293,548.51],[150.02122,-34.80292,548.75],[150.02119,-34.80291,548.96],[150.02115,-34.80291,549.03],[150.02112,-34.8029,549.23],[150.02109,-34.80288,549.94],[150.02106,-34.80286,550.79],[150.02103,-34.80285,551.5],[150.02099,-34.80284,552.38],[150.02096,-34.80283,553.07],[150.02093,-34.80282,553.75],[150.02089,-34.80281,554.61],[150.02085,-34.80281,555.35],[150.02082,-34.80281,555.62],[150.02078,-34.8028,555.6],[150.02076,-34.80278,555.72],[150.02073,-34.80276,555.02],[150.02071,-34.80273,553.97],[150.02068,-34.80271,553.3],[150.02066,-34.8027,552.99],[150.02063,-34.80267,552.14],[150.0206,-34.80265,551.65],[150.02058,-34.80262,550.91],[150.02056,-34.8026,550.5],[150.02054,-34.80258,550.19],[150.02051,-34.80256,550.06],[150.02049,-34.80253,549.62],[150.02047,-34.80251,549.45],[150.02046,-34.80248,548.92],[150.02045,-34.80246,548.62],[150.02043,-34.80243,548.27],[150.02041,-34.80241,548.17],[150.02038,-34.80239,548.26],[150.02036,-34.80236,548],[150.02033,-34.80234,548.15],[150.02031,-34.80232,548.15],[150.02029,-34.80229,547.98],[150.02028,-34.80227,547.81],[150.02027,-34.80223,547.22],[150.02026,-34.8022,546.96],[150.02026,-34.80217,546.64],[150.02024,-34.80214,546.56],[150.02022,-34.80212,546.6],[150.0202,-34.80209,546.55],[150.02018,-34.80206,546.51],[150.02017,-34.80204,546.45],[150.02015,-34.80202,546.53],[150.02011,-34.80199,546.81],[150.02008,-34.80198,547.14],[150.02006,-34.80195,547.18],[150.02004,-34.80193,547.5],[150.02003,-34.8019,547.78],[150.02002,-34.80187,548.04],[150.02002,-34.80184,548.17],[150.02002,-34.80182,548.26],[150.02001,-34.80178,548.51],[150.02,-34.80175,548.7],[150.01999,-34.80173,548.83],[150.01998,-34.8017,549.01],[150.01997,-34.80167,549.2],[150.01997,-34.80163,549.11],[150.01995,-34.80161,549.23],[150.01994,-34.80158,549.25],[150.01995,-34.80155,549.09],[150.01996,-34.80152,548.91],[150.01997,-34.80149,548.72],[150.01996,-34.80147,548.78],[150.01994,-34.80144,548.97],[150.01992,-34.80142,549.2],[150.01989,-34.8014,549.59],[150.01985,-34.80139,550.16],[150.01981,-34.80138,550.73],[150.01978,-34.80138,551.19],[150.01974,-34.80137,551.85],[150.01971,-34.80135,552.24],[150.01968,-34.80133,552.27],[150.01966,-34.80131,552.34],[150.01962,-34.8013,552.27],[150.01958,-34.8013,552.13],[150.01955,-34.80129,552.09],[150.01952,-34.80127,552.13],[150.01949,-34.80126,552.09],[150.01945,-34.80125,552.02],[150.01942,-34.80124,551.75],[150.01939,-34.80122,551.47],[150.01935,-34.80122,550.92],[150.01931,-34.80122,550.37],[150.01928,-34.80123,549.94],[150.01925,-34.80122,549.54],[150.01921,-34.80122,548.99],[150.01918,-34.80122,548.58],[150.01914,-34.80122,548.28],[150.01911,-34.80123,548.17],[150.01907,-34.80125,547.98],[150.01904,-34.80127,547.79],[150.01901,-34.80129,547.55],[150.01896,-34.8013,547.16],[150.01892,-34.80132,546.75],[150.01888,-34.80133,546.42],[150.01883,-34.80134,546.31],[150.01879,-34.80135,546.23],[150.01875,-34.80136,546.16],[150.0187,-34.80139,546],[150.01867,-34.80141,546.03],[150.01865,-34.80145,546.06],[150.01864,-34.80148,546.07],[150.01862,-34.80152,546.03],[150.01859,-34.80155,546.1],[150.01857,-34.80158,546.26],[150.01854,-34.8016,546.52],[150.01851,-34.80162,546.85],[150.01847,-34.80161,547.11],[150.01844,-34.8016,547.26],[150.01841,-34.80159,547.37],[150.01838,-34.80157,547.34],[150.01835,-34.80155,547.24],[150.01832,-34.80154,547.14],[150.01829,-34.80152,546.83],[150.01826,-34.80151,546.7],[150.01823,-34.80149,546.52],[150.0182,-34.80148,546.48],[150.01817,-34.80146,546.45],[150.01813,-34.80147,546.56],[150.0181,-34.80147,546.62],[150.01806,-34.80146,546.73],[150.01803,-34.80147,547.18],[150.018,-34.80149,547.73],[150.01797,-34.8015,548.32],[150.01794,-34.80152,548.98],[150.01791,-34.80153,549.65],[150.01788,-34.80154,550.36],[150.01788,-34.80156,550.47],[150.01785,-34.80156,551.17],[150.01782,-34.80158,552.04],[150.01778,-34.8016,553.22],[150.01773,-34.80161,553.91],[150.01777,-34.8016,553.37],[150.01782,-34.80161,552.3],[150.01786,-34.80162,551.33],[150.01786,-34.80166,551.59],[150.01784,-34.80169,552.19],[150.01783,-34.80173,552.38],[150.01781,-34.80178,552.63],[150.01778,-34.80187,552.52],[150.01776,-34.80192,552.25],[150.01774,-34.80198,552.37],[150.01771,-34.80201,552.66],[150.01764,-34.80205,553.07],[150.01768,-34.80205,552.98],[150.01763,-34.80205,553.09],[150.01753,-34.80204,553.27],[150.01743,-34.80204,554.18],[150.01734,-34.8021,555.22],[150.01737,-34.80209,554.91],[150.01721,-34.80221,556.09],[150.01728,-34.80218,555.67],[150.01711,-34.8023,555.56],[150.01715,-34.80229,555.53],[150.01704,-34.8024,554.74],[150.01695,-34.80252,553.84],[150.01699,-34.80247,554.16],[150.01684,-34.80269,553.9],[150.01689,-34.80261,553.76],[150.0167,-34.80282,555.54],[150.01678,-34.80277,554.39],[150.01659,-34.80292,556.83],[150.01646,-34.80304,558.89],[150.01655,-34.80298,557.45],[150.01629,-34.80318,558.37],[150.01639,-34.80312,559.06],[150.01614,-34.80333,556.93],[150.01623,-34.80327,557.35],[150.01615,-34.80334,556.79],[150.01591,-34.80353,554.36],[150.01599,-34.80348,555.19],[150.01592,-34.80355,554.12],[150.01574,-34.80371,555.49],[150.01562,-34.80384,556.92],[150.0157,-34.80377,556.22],[150.01552,-34.804,556.24],[150.01556,-34.80393,556.83],[150.01541,-34.80416,553.95],[150.01546,-34.80409,555.09],[150.0154,-34.80417,553.75],[150.01519,-34.80436,553.05],[150.01529,-34.80432,553.13],[150.01499,-34.80443,552.05],[150.01513,-34.80442,552.9],[150.01477,-34.80448,551.94],[150.01492,-34.80448,552.15],[150.01463,-34.80453,551.46],[150.01453,-34.80457,551.17],[150.01444,-34.80461,551.01],[150.01428,-34.80467,551.11],[150.0144,-34.80465,551.04],[150.01418,-34.80474,551.19],[150.01422,-34.80473,551.08],[150.01412,-34.80479,552.32],[150.01407,-34.80483,553.29],[150.014,-34.80487,554.36],[150.01386,-34.80495,556.32],[150.01396,-34.80493,555.11],[150.0137,-34.80506,559.75],[150.0138,-34.80503,557.85],[150.01355,-34.80519,562.55],[150.01364,-34.80514,561.09],[150.01336,-34.80533,564.28],[150.01349,-34.80527,563.32],[150.01323,-34.80542,564.53],[150.01314,-34.80549,564.33],[150.01298,-34.8056,563.88],[150.0131,-34.80555,563.9],[150.013,-34.80562,563.08],[150.01277,-34.80577,561.11],[150.01268,-34.80586,559.25],[150.01252,-34.80601,556.11],[150.01264,-34.80592,557.84],[150.01255,-34.80601,555.85],[150.01236,-34.80615,555.89],[150.01227,-34.80625,557.8],[150.01232,-34.80621,556.64],[150.01216,-34.80636,559.14],[150.01221,-34.80633,559.06],[150.01208,-34.80644,558.17],[150.01197,-34.80656,556.48],[150.01204,-34.80651,557.11],[150.01197,-34.80657,556.33],[150.01186,-34.80675,553.83],[150.01184,-34.80685,551.99],[150.0118,-34.80695,549.94],[150.01176,-34.80714,549.43],[150.01177,-34.80702,549.61],[150.01174,-34.80713,549.49],[150.01164,-34.80745,554.94],[150.01167,-34.80734,552.53],[150.01155,-34.80762,555.75],[150.01159,-34.80754,555.9],[150.0115,-34.80769,555.73],[150.01147,-34.80774,555.75],[150.01143,-34.8078,555.77],[150.01137,-34.80795,555.45],[150.0114,-34.80787,555.63],[150.01127,-34.80814,555.08],[150.01131,-34.80804,555.34],[150.01119,-34.80827,555.28],[150.01114,-34.80836,555.6],[150.0111,-34.80847,555.67],[150.01103,-34.80863,556.24],[150.01106,-34.80854,555.99],[150.01098,-34.80874,557.16],[150.01093,-34.80889,557.65],[150.01094,-34.80881,557.57],[150.01086,-34.80908,557.08],[150.01088,-34.80898,557.39],[150.01078,-34.80927,556.52],[150.01081,-34.80918,556.99],[150.01064,-34.80942,556.51],[150.01072,-34.80936,556.3],[150.01066,-34.80944,556.27],[150.01058,-34.80951,555.66],[150.01048,-34.80957,555.23],[150.01027,-34.80965,556.29],[150.01031,-34.80965,555.92],[150.01018,-34.80969,556.7],[150.01009,-34.80974,557.61],[150.01,-34.80979,559.22],[150.00981,-34.80986,559.11],[150.00996,-34.80984,559.83],[150.00985,-34.80989,559.94],[150.00975,-34.80994,560.12],[150.00953,-34.81007,558.68],[150.00938,-34.81017,560],[150.00949,-34.81013,559.48],[150.00926,-34.81025,561.1],[150.00906,-34.81032,560.2],[150.00922,-34.8103,561.26],[150.00911,-34.81035,560.44],[150.00875,-34.81045,556.81],[150.00889,-34.81043,559.55],[150.00863,-34.8105,554.39],[150.00856,-34.81054,553.79],[150.00849,-34.81056,553.59],[150.00844,-34.81057,553.5],[150.00838,-34.81056,553.21],[150.00834,-34.81052,552.65],[150.00831,-34.81048,551.95],[150.00832,-34.8104,551.2],[150.00835,-34.81033,550.77],[150.00837,-34.81027,550.55],[150.00836,-34.81023,550.54],[150.00838,-34.81021,550.88],[150.00839,-34.81018,551.1],[150.00837,-34.81016,550.9],[150.00837,-34.81018,550.83],[150.00836,-34.81021,550.6],[150.00839,-34.81019,551.07],[150.00842,-34.81017,551.51],[150.0084,-34.81015,551.31],[150.00839,-34.81012,551.27],[150.00838,-34.81009,551.23],[150.00835,-34.8101,550.84],[150.00833,-34.81012,550.54],[150.00831,-34.8101,550.47],[150.00829,-34.81012,550.26],[150.00826,-34.81014,549.97],[150.00826,-34.81017,549.86],[150.00824,-34.81019,549.64],[150.00824,-34.81016,549.75],[150.00827,-34.81014,550.04],[150.00826,-34.81012,550.04],[150.00829,-34.81013,550.22],[150.0083,-34.81016,550.18],[150.00831,-34.81019,550.15],[150.00832,-34.81022,550.11],[150.00832,-34.81026,549.97],[150.00834,-34.81024,550.23],[150.00839,-34.81021,551.01],[150.00842,-34.8102,551.44],[150.00849,-34.81021,552.36],[150.00857,-34.81021,553.44],[150.00853,-34.8102,552.91],[150.00868,-34.81017,554.95],[150.00863,-34.81017,554.26],[150.00874,-34.81013,555.58],[150.00878,-34.81011,555.94],[150.00887,-34.81007,556.57],[150.00882,-34.81007,556.07],[150.00894,-34.81002,556.24],[150.009,-34.81,556],[150.00909,-34.80996,555.14],[150.00905,-34.80996,555.14],[150.00918,-34.80996,555.16],[150.00931,-34.81004,556.87],[150.00941,-34.81006,557.46],[150.00937,-34.81005,557.16],[150.0095,-34.81001,557.19],[150.00947,-34.81002,556.91],[150.00951,-34.80998,556.93],[150.00957,-34.80994,557.42],[150.00981,-34.80984,558.75],[150.00971,-34.80985,558.13],[150.00993,-34.80978,558.54],[150.01003,-34.80975,558.25],[150.01019,-34.80968,556.64],[150.01007,-34.8097,557.4],[150.01032,-34.8096,556.1],[150.01025,-34.80961,556.48],[150.01038,-34.80955,556.06],[150.01047,-34.8095,556.25],[150.01042,-34.80951,556.28],[150.01055,-34.80943,557.05],[150.01065,-34.80934,556.82],[150.01059,-34.80937,557.05],[150.01073,-34.8092,557.18],[150.01071,-34.80926,556.92],[150.01079,-34.80903,557.72],[150.01078,-34.80911,557.44],[150.01081,-34.80902,557.66],[150.01089,-34.80878,557.95],[150.01087,-34.80886,557.93],[150.01091,-34.80877,557.8],[150.01099,-34.80854,557],[150.01098,-34.80861,556.89],[150.01101,-34.80853,556.75],[150.01105,-34.80845,556.46],[150.01115,-34.80819,555.72],[150.01113,-34.80828,555.82],[150.01122,-34.80808,555.54],[150.01129,-34.80791,555.88],[150.01126,-34.80801,555.63],[150.01136,-34.8078,556.02],[150.01144,-34.80764,555.91],[150.0114,-34.80773,555.97],[150.0115,-34.80754,555.94],[150.01154,-34.80745,555],[150.01154,-34.80749,555.8],[150.01159,-34.80735,552.91],[150.01163,-34.8072,550.05],[150.01162,-34.80728,551.38],[150.01165,-34.8072,549.98],[150.01172,-34.8069,550.41],[150.01171,-34.807,549.39],[150.01177,-34.80678,553.23],[150.01182,-34.80661,556.08],[150.0118,-34.80671,554.65],[150.01189,-34.80646,557.88],[150.01187,-34.80652,557.1],[150.01191,-34.80638,559.07],[150.01191,-34.80632,560.39],[150.01191,-34.80626,561.72],[150.01187,-34.80616,563.9],[150.01188,-34.8062,563.01],[150.01176,-34.80605,564.85],[150.01181,-34.80608,564.95],[150.01164,-34.80598,564.39],[150.0117,-34.80598,564.58],[150.01149,-34.80594,563.36],[150.01158,-34.80594,563.88],[150.01137,-34.80592,562.6],[150.0112,-34.80591,562.36],[150.01133,-34.8059,562.43],[150.01105,-34.80586,562.29],[150.01114,-34.80586,562.11],[150.01097,-34.80579,562.58],[150.01092,-34.8057,562.48],[150.01094,-34.80574,562.59],[150.01087,-34.80555,561.65],[150.01087,-34.80561,561.79],[150.01086,-34.80539,565.02],[150.01086,-34.80546,563.48],[150.01085,-34.80528,567.25],[150.01085,-34.80521,567.29],[150.01083,-34.80516,566.98],[150.01078,-34.80508,567],[150.01065,-34.80501,568.15],[150.01072,-34.80502,567.61],[150.01049,-34.80493,569.87],[150.01058,-34.80494,569.47],[150.01039,-34.80486,571.11],[150.01027,-34.80477,573.17],[150.01035,-34.8048,572.23],[150.01018,-34.80469,574.39],[150.01006,-34.80461,575.1],[150.01014,-34.80464,574.64],[150.00995,-34.80455,575.69],[150.00987,-34.80453,575.84],[150.00975,-34.80452,575.97],[150.00983,-34.80452,575.89],[150.00976,-34.80452,575.96],[150.00969,-34.80453,575.93],[150.00947,-34.80454,575.38],[150.00938,-34.80454,575.01],[150.0092,-34.80454,574.16],[150.00934,-34.80454,574.82],[150.00924,-34.80454,574.35],[150.00888,-34.80452,572.23],[150.00903,-34.80452,573.15],[150.00892,-34.8045,572.4],[150.0086,-34.80443,570.95],[150.00871,-34.80445,571.36],[150.00846,-34.80431,571.04],[150.00853,-34.80435,570.86],[150.00846,-34.80429,571.05],[150.00825,-34.80407,572.3],[150.00833,-34.80413,572.01],[150.0081,-34.80393,572.84],[150.00819,-34.80398,572.52],[150.00812,-34.80391,572.77],[150.00788,-34.80375,570.92],[150.00796,-34.80379,571.44],[150.0078,-34.80366,571.96],[150.00773,-34.80359,572.74],[150.00761,-34.80346,574.9],[150.00769,-34.80353,573.37],[150.00746,-34.80332,579.21],[150.00755,-34.80338,577.66],[150.00736,-34.80324,578.49],[150.00725,-34.80315,578.72],[150.00732,-34.80318,579.1],[150.00714,-34.80303,581.3],[150.00719,-34.80307,580.58],[150.00705,-34.80291,582.9],[150.00708,-34.80295,582.33],[150.00703,-34.80289,583.2],[150.00688,-34.80281,584.74],[150.00694,-34.80281,584.55],[150.00673,-34.80273,585.51],[150.00682,-34.80274,585.33],[150.00666,-34.80265,585.05],[150.00663,-34.80254,584.25],[150.00663,-34.80259,584.56],[150.0066,-34.80243,583.29],[150.00658,-34.80233,582.51],[150.00656,-34.80224,582.05],[150.00654,-34.80207,581.53],[150.00654,-34.80217,582.02],[150.00654,-34.80208,581.58],[150.00657,-34.80182,580.54],[150.00655,-34.80189,580.76],[150.00666,-34.80166,579.98],[150.00662,-34.80173,580.21],[150.00667,-34.80165,579.85],[150.00686,-34.80142,580.46],[150.00678,-34.8015,579.29],[150.00696,-34.80133,582.11],[150.00707,-34.80119,582.14],[150.007,-34.80126,582.16],[150.00718,-34.80102,581.72],[150.00714,-34.8011,582.23],[150.00724,-34.80084,581.02],[150.00723,-34.80093,581.3],[150.00726,-34.80074,579.66],[150.00729,-34.8006,577.64],[150.00729,-34.80067,578.65],[150.00737,-34.80042,576.71],[150.00734,-34.80051,576.96],[150.00741,-34.8003,576.05],[150.00745,-34.80014,573.15],[150.00744,-34.80023,574.83],[150.00747,-34.80014,572.9],[150.00751,-34.80005,570.69],[150.00759,-34.79985,568.19],[150.00767,-34.79969,567.26],[150.00763,-34.79978,567.61],[150.00772,-34.79957,567.38],[150.00773,-34.79946,567.92],[150.00773,-34.79951,567.65],[150.00773,-34.79944,568.03],[150.00773,-34.79938,568.38],[150.00773,-34.79926,569.1],[150.00774,-34.79929,568.96],[150.00776,-34.79932,568.84],[150.00776,-34.79934,568.7],[150.00777,-34.79937,568.52],[150.00779,-34.79935,568.64],[150.0078,-34.79932,568.82],[150.00781,-34.79929,569],[150.0078,-34.79926,569.25],[150.00777,-34.79925,569.36],[150.00777,-34.79922,569.57],[150.00776,-34.79919,569.71],[150.00779,-34.79918,569.86],[150.00782,-34.79916,569.79],[150.00784,-34.79914,569.54],[150.00787,-34.79912,569.22],[150.00788,-34.79909,568.88],[150.0079,-34.79905,568.35],[150.00791,-34.79902,567.97],[150.00793,-34.79899,567.48],[150.00796,-34.79897,567],[150.00797,-34.79895,566.67],[150.00798,-34.79892,566.2],[150.00801,-34.79891,565.77],[150.00805,-34.79889,565.08],[150.00807,-34.79887,564.78],[150.0081,-34.79885,564.42],[150.00813,-34.79883,564.1],[150.00815,-34.79881,563.89],[150.00815,-34.79878,563.85],[150.00814,-34.79874,563.88],[150.00813,-34.79872,563.91],[150.00811,-34.79869,563.98],[150.00809,-34.79866,564.01],[150.00807,-34.79863,564.01],[150.00805,-34.7986,563.68],[150.00806,-34.79857,562.81],[150.00807,-34.79854,561.98],[150.00808,-34.79852,561.46],[150.0081,-34.79849,560.77],[150.00812,-34.79847,560.41],[150.00814,-34.79844,559.89],[150.00816,-34.79842,559.67],[150.00817,-34.79838,558.99],[150.00817,-34.79836,558.59],[150.00818,-34.79833,558.16],[150.00818,-34.7983,557.4],[150.00819,-34.79827,556.82],[150.0082,-34.79825,556.5],[150.00822,-34.79822,556.1],[150.00824,-34.7982,555.96],[150.00827,-34.79818,556],[150.00829,-34.79815,555.6],[150.0083,-34.79813,555.28]]},"properties":{"name":"bungonia hike"}}]}
