{"type":"FeatureCollection","features":[{"type":"Feature","geometry":{"type":"LineString","coordinates":[[151.2125640269369,-33.87389559298754,50.599998474121094],[151.21256846934557,-33.87389341369271,50.599998474121094],[151.21258112601936,-33.87385720387101,49.79999923706055],[151.2125944532454,-33.873842200264335,49.79999923706055],[151.21267969720066,-33.87378771789372,49.400001525878906],[151.21270936913788,-33.87377791106701,49.400001525878906],[151.2127638515085,-33.87377011589706,49.20000076293945],[151.2128463294357,-33.87376248836517,48.79999923706055],[151.2128713913262,-33.8737609796226,48.79999923706055],[151.2129345908761,-33.873763494193554,48.400001525878906],[151.21299628168344,-33.873766427859664,48],[151.21306375600398,-33.87377212755382,47.599998474121094],[151.21310046873987,-33.87377648614347,47.20000076293945],[151.21313584037125,-33.873780593276024,47],[151.21320725418627,-33.87378914281726,46.79999923706055],[151.21327590197325,-33.87379962019622,46.20000076293945],[151.21337288059294,-33.87382241897285,45.599998474121094],[151.2134356610477,-33.873832477256656,45.20000076293945],[151.2136410176754,-33.873855946585536,44],[151.21378334239125,-33.873869525268674,42.79999923706055],[151.2139502260834,-33.87389953248203,41.79999923706055],[151.21412012726068,-33.87392518110573,40.599998474121094],[151.21429765596986,-33.87394563294947,39.599998474121094],[151.2143305130303,-33.873948734253645,39.400001525878906],[151.21449588797987,-33.87396625243127,38.400001525878906],[151.21456939727068,-33.87396709062159,38],[151.2147444114089,-33.87402626685798,37.79999923706055],[151.21498505584896,-33.874035654589534,37.599998474121094],[151.2150811124593,-33.87405996210873,37.400001525878906],[151.2152037397027,-33.874077312648296,37.599998474121094],[151.2153873872012,-33.874079240486026,37.599998474121094],[151.21548738330603,-33.87411528266966,37.599998474121094],[151.2157130241394,-33.874179320409894,38],[151.21575166471303,-33.87417957186699,38.20000076293945],[151.21592567302287,-33.87420848943293,38.400001525878906],[151.21602206490934,-33.87424176558852,38.79999923706055],[151.21617671102285,-33.87423296459019,39.400001525878906],[151.21622054837644,-33.87422810308635,39.599998474121094],[151.21628592722118,-33.87424612417817,39.79999923706055],[151.2163203768432,-33.87425727210939,39.79999923706055],[151.2165597639978,-33.874364141374826,40.400001525878906],[151.21665867045522,-33.87436145916581,40.599998474121094],[151.2168045155704,-33.874384174123406,40.79999923706055],[151.21702688746154,-33.874430023133755,41.599998474121094],[151.21722436510026,-33.87441845610738,42.400001525878906],[151.21732578612864,-33.87441610917449,42.599998474121094],[151.21734749525785,-33.87441770173609,42.79999923706055],[151.21751395985484,-33.874474447220564,43.79999923706055],[151.2175759859383,-33.87449188157916,44],[151.2176576256752,-33.87450252659619,44.20000076293945],[151.21768469922245,-33.874511662870646,44.20000076293945],[151.21773457154632,-33.87450311332941,44.20000076293945],[151.21795593760908,-33.87455591931939,44.599998474121094],[151.21797974221408,-33.87456161901355,44.599998474121094],[151.21800790540874,-33.874562876299024,44.79999923706055],[151.2182276789099,-33.87461693957448,45.400001525878906],[151.21825031004846,-33.87461853213608,45.400001525878906],[151.2184898648411,-33.874647533521056,45.599998474121094],[151.21857091784477,-33.87465130537748,45.599998474121094],[151.21867359615862,-33.87467687018216,45.79999923706055],[151.21870695613325,-33.87468734756112,45.79999923706055],[151.21879949234426,-33.87468399479985,46],[151.2189967185259,-33.874700758606195,46.599998474121094],[151.21916452422738,-33.87474484741688,46.79999923706055],[151.219226969406,-33.87475750409067,47],[151.2194594834,-33.8748022634536,47.400001525878906],[151.21951539069414,-33.87480955570936,47.599998474121094],[151.2197465635836,-33.87484886683524,47.79999923706055],[151.21977732516825,-33.874861439689994,48],[151.21998947113752,-33.87489840388298,48.599998474121094],[151.2200483120978,-33.87490812689066,48.79999923706055],[151.22017747722566,-33.874917179346085,49],[151.22029155492783,-33.874935451895,49.599998474121094],[151.22037596069276,-33.87494534254074,50.20000076293945],[151.22051275335252,-33.87497493065894,51.20000076293945],[151.2205391563475,-33.874983228743076,51.20000076293945],[151.22056882828474,-33.874992029741406,51.400001525878906],[151.2207489553839,-33.875012062489986,52.400001525878906],[151.2208518013358,-33.87504341080785,53.20000076293945],[151.22090695425868,-33.87507635168731,53.400001525878906],[151.22102790512145,-33.87510811910033,54.400001525878906],[151.22111599892378,-33.87512982822955,55.400001525878906],[151.22113762423396,-33.875134605914354,55.400001525878906],[151.22127391397953,-33.87516754679382,56.599998474121094],[151.22139888815582,-33.87519998475909,57.400001525878906],[151.2214406300336,-33.87521683238447,57.599998474121094],[151.22159158810973,-33.87530065141618,58],[151.2217008881271,-33.87536762282252,58.20000076293945],[151.2217180710286,-33.87537617236376,58.20000076293945],[151.2217590585351,-33.875392600893974,58.400001525878906],[151.2218743097037,-33.87546862475574,58.400001525878906],[151.22495809569955,-33.87621176429093,54],[151.2250903621316,-33.87632911093533,54],[151.22512120753527,-33.87627865187824,53.79999923706055],[151.22524509206414,-33.87627873569727,53.599998474121094],[151.22533276677132,-33.87630421668291,53.599998474121094],[151.22552446089685,-33.87631234712899,52.79999923706055],[151.22561221942306,-33.876313185319304,52.400001525878906],[151.22581313364208,-33.87630773708224,51.79999923706055],[151.2259035743773,-33.876308323815465,51.400001525878906],[151.22607875615358,-33.87631444260478,50.79999923706055],[151.22620305977762,-33.87631360441446,50.20000076293945],[151.2263504974544,-33.87632315978408,49.400001525878906],[151.22637564316392,-33.87632416561246,49.20000076293945],[151.2265116814524,-33.8763359002769,48.20000076293945],[151.22663657180965,-33.87633011676371,47.400001525878906],[151.2266943231225,-33.87633020058274,47],[151.22681200504303,-33.87633237987757,45.79999923706055],[151.22686749324203,-33.87633196078241,45.20000076293945],[151.2269409187138,-33.87632458470762,44.79999923706055],[151.22706480324268,-33.8763152807951,43.599998474121094],[151.22718768194318,-33.87630270794034,42.599998474121094],[151.2273103930056,-33.87630262412131,41.599998474121094],[151.22733847238123,-33.87630421668291,41.400001525878906],[151.22743494808674,-33.8763084076345,40.79999923706055],[151.2274681404233,-33.876306898891926,40.400001525878906],[151.2274995725602,-33.87630773708224,40.20000076293945],[151.22762714512646,-33.87630907818675,39.20000076293945],[151.2276687193662,-33.87630564160645,39.20000076293945],[151.22776620090008,-33.8762944098562,38.400001525878906],[151.2277974653989,-33.876298516988754,38.20000076293945],[151.2278307415545,-33.87629734352231,38.20000076293945],[151.22790140099823,-33.876291224732995,37.599998474121094],[151.2279586493969,-33.87627471238375,37.20000076293945],[151.2280558794737,-33.8762669172138,36.79999923706055],[151.2281846255064,-33.8762600440532,36.20000076293945],[151.22834656387568,-33.876243364065886,35.400001525878906],[151.22837732546031,-33.8762391731143,35.20000076293945],[151.2284132000059,-33.87623087503016,35],[151.22848109342158,-33.87621712870896,34.599998474121094],[151.2286098394543,-33.87620992027223,34],[151.22864068485796,-33.876211093738675,33.79999923706055],[151.22867085970938,-33.876210171729326,33.599998474121094],[151.2287901341915,-33.876205729320645,33.400001525878906],[151.228905050084,-33.876213105395436,33],[151.22893371619284,-33.8762235827744,32.79999923706055],[151.2291257455945,-33.876252165064216,32],[151.2291907891631,-33.87625928968191,31.799999237060547],[151.22925985604525,-33.876264402642846,31.799999237060547],[151.22937217354774,-33.87627638876438,31.799999237060547],[151.229457417503,-33.87629181146622,31.600000381469727],[151.22954458929598,-33.87630756944418,31.600000381469727],[151.22970920987427,-33.87634386308491,31.200000762939453],[151.22981213964522,-33.87636129744351,30.799999237060547],[151.22995655983686,-33.876390382647514,30.799999237060547],[151.22998489066958,-33.876395244151354,30.799999237060547],[151.23016828671098,-33.87646087445319,30.600000381469727],[151.23035302385688,-33.87650437653065,30.799999237060547],[151.23047975823283,-33.87652348726988,31],[151.2306945025921,-33.8765621278435,31.200000762939453],[151.2308255955577,-33.876597080379725,31.399999618530273],[151.23095316812396,-33.87663387693465,31.600000381469727],[151.23103271238506,-33.876633709296584,31.600000381469727],[151.231122398749,-33.876630272716284,32],[151.23117822222412,-33.87663681060076,32.20000076293945],[151.23121577315032,-33.87663748115301,32.20000076293945],[151.23128224164248,-33.87663706205785,32.400001525878906],[151.23143286444247,-33.87665734626353,33],[151.23148692771792,-33.876667991280556,33.20000076293945],[151.23157099820673,-33.876688946038485,33.400001525878906],[151.2316942960024,-33.87671166099608,34],[151.23185011558235,-33.8767711725086,34.599998474121094],[151.23194667510688,-33.87679128907621,35],[151.2321086972952,-33.87681484222412,35.79999923706055],[151.23218664899468,-33.876837557181716,36.20000076293945],[151.23232528567314,-33.87685541063547,36.599998474121094],[151.23250977136195,-33.876892291009426,37.20000076293945],[151.23272392898798,-33.87693755328655,38.20000076293945],[151.23281747102737,-33.876961190253496,38.79999923706055],[151.2328875437379,-33.87697158381343,39],[151.23299525119364,-33.87698759324849,39.20000076293945],[151.23304923065007,-33.87699999846518,39.599998474121094],[151.23323019593954,-33.87703411281109,40],[151.2333051301539,-33.87706101872027,40.400001525878906],[151.23336254619062,-33.87707929126918,40.599998474121094],[151.23352138325572,-33.877154560759664,41],[151.23358801938593,-33.877197643741965,41.599998474121094],[151.23367602936924,-33.87725170701742,41.599998474121094],[151.23381424695253,-33.87732974253595,42],[151.2338284123689,-33.87733946554363,42],[151.23392061330378,-33.87741087935865,42.599998474121094],[151.2339973077178,-33.8774739112705,43.20000076293945],[151.23404080979526,-33.877516742795706,43.599998474121094],[151.23410711064935,-33.87756954878569,43.79999923706055],[151.2342563085258,-33.87768463231623,44.599998474121094],[151.23427013866603,-33.87769921682775,44.79999923706055],[151.23431355692446,-33.87773626483977,45.599998474121094],[151.2343347631395,-33.87776669114828,45.79999923706055],[151.23438337817788,-33.87782150879502,46.20000076293945],[151.23441439121962,-33.877840116620064,46.400001525878906],[151.2344671972096,-33.87790440581739,47],[151.23448136262596,-33.87792007997632,47],[151.23455805703998,-33.87798403389752,48],[151.23458881862462,-33.878013622015715,48.599998474121094],[151.23462502844632,-33.87804958038032,49],[151.23469401150942,-33.87811780907214,50],[151.2347238510847,-33.878148486837745,50.400001525878906],[151.2347671855241,-33.87819190509617,51],[151.23483398929238,-33.87826030142605,51.599998474121094],[151.23490607365966,-33.87831587344408,52.20000076293945],[151.23498846776783,-33.878390388563275,53.20000076293945],[151.23512442223728,-33.87848937883973,54.20000076293945],[151.2351582851261,-33.87849968858063,54.599998474121094],[151.2352918088436,-33.8785395026207,55.400001525878906],[151.2353276833892,-33.87854604050517,55.400001525878906],[151.23547797091305,-33.878586776554585,56.20000076293945],[151.23552868142724,-33.87859960086644,56.400001525878906],[151.2356104888022,-33.87863329611719,57],[151.23565935529768,-33.87865215539932,57.400001525878906],[151.2357550766319,-33.87866958975792,57.79999923706055],[151.23577737249434,-33.87867554090917,57.79999923706055],[151.2359036039561,-33.87869750149548,58.400001525878906],[151.23596688732505,-33.87870043516159,58.599998474121094],[151.2360771931708,-33.87872667051852,58.79999923706055],[151.23616034165025,-33.878728933632374,59.400001525878906],[151.23617534525692,-33.87872910127044,59.599998474121094],[151.236201999709,-33.87873605825007,59.79999923706055],[151.2363533768803,-33.8787482958287,60],[151.23642303049564,-33.87875642627478,60.599998474121094],[151.23652503825724,-33.87878341600299,61.400001525878906],[151.2365836277604,-33.878803197294474,61.400001525878906],[151.2366914190352,-33.87882934883237,61.79999923706055],[151.23672863468528,-33.878840329125524,61.79999923706055],[151.23692166991532,-33.87887192890048,62.400001525878906],[151.23708553612232,-33.87889598496258,62.79999923706055],[151.237124344334,-33.87889883480966,63],[151.23733581975102,-33.878939570859075,63.79999923706055],[151.23739818111062,-33.878952730447054,63.79999923706055],[151.23745928518474,-33.87896127998829,63.79999923706055],[151.23747680336237,-33.878966979682446,63.79999923706055],[151.23753572814167,-33.8789866771549,64],[151.2377311103046,-33.8790403213352,63.79999923706055],[151.23791098594666,-33.87906982563436,63.400001525878906],[151.23800880275667,-33.87910603545606,62.79999923706055],[151.23804710805416,-33.87911852449179,62.599998474121094],[151.23813461512327,-33.879156578332186,62.20000076293945],[151.2382673844695,-33.87919287197292,61.400001525878906],[151.23838808387518,-33.87922170571983,60.400001525878906],[151.23841976746917,-33.879226399585605,60.20000076293945],[151.2385887466371,-33.87921240180731,59],[151.23862051405013,-33.879206450656056,58.599998474121094],[151.23870944604278,-33.8791938778013,58],[151.23883366584778,-33.879165882244706,57],[151.23892603442073,-33.87913537211716,56.20000076293945],[151.23896249569952,-33.879123302176595,55.79999923706055],[151.23899225145578,-33.879109639674425,55.599998474121094],[151.23907757923007,-33.87906529940665,54.599998474121094],[151.23909769579768,-33.87904912233353,54.599998474121094],[151.23916869051754,-33.87899933382869,53.599998474121094],[151.2392908986658,-33.878945941105485,52.79999923706055],[151.2393345683813,-33.87891149148345,52.400001525878906],[151.23942794278264,-33.878840832039714,51.20000076293945],[151.2394661642611,-33.87881333939731,50.79999923706055],[151.23948686756194,-33.878799844533205,50.400001525878906],[151.23953414149582,-33.8787741959095,50],[151.23968753032386,-33.878721222281456,48.79999923706055],[151.2397121731192,-33.878717282786965,48.599998474121094],[151.2397925555706,-33.87870026752353,47.599998474121094],[151.2398948147893,-33.878687946125865,46.79999923706055],[151.2399669829756,-33.87867696583271,46.599998474121094],[151.24011299572885,-33.87864570133388,45.400001525878906],[151.2402645405382,-33.87863949872553,44.400001525878906],[151.24042212031782,-33.87861980125308,43.400001525878906],[151.24044894240797,-33.87861602939665,43],[151.2406073603779,-33.878584848716855,41.79999923706055],[151.24079109169543,-33.87854461558163,40.79999923706055],[151.24086351133883,-33.87853489257395,40.20000076293945],[151.2409250345081,-33.878520810976624,39.599998474121094],[151.24108714051545,-33.87848971411586,38.599998474121094],[151.24111354351044,-33.87848728336394,38.400001525878906],[151.24121462926269,-33.87848300859332,37.599998474121094],[151.24140422791243,-33.87850999832153,36.599998474121094],[151.24156189151108,-33.87852692976594,35.400001525878906],[151.24164470471442,-33.87852751649916,34.79999923706055],[151.24167965725064,-33.87852793559432,34.599998474121094],[151.24173791147768,-33.878520894795656,34.20000076293945],[151.24188585206866,-33.87850019149482,33.400001525878906],[151.2419136799872,-33.878493988886476,33],[151.24210914596915,-33.878413774073124,32],[151.24213789589703,-33.878401620313525,32],[151.24216119758785,-33.87838611379266,31.799999237060547],[151.24227862805128,-33.87828058563173,30.799999237060547],[151.24229891225696,-33.87825971469283,30.799999237060547],[151.2424367107451,-33.87811780907214,30],[151.2424983177334,-33.87805142439902,29.799999237060547],[151.2426489405334,-33.87791094370186,29.600000381469727],[151.24270887114108,-33.877845983952284,29.399999618530273],[151.24288145452738,-33.87771866284311,29.200000762939453],[151.2429578974843,-33.87768010608852,29.200000762939453],[151.24297751113772,-33.87766904197633,29.200000762939453],[151.24311899766326,-33.87760450132191,28.799999237060547],[151.2431912496686,-33.87757114134729,28.799999237060547],[151.24323257245123,-33.877538703382015,28.799999237060547],[151.2433334067464,-33.877490842714906,28.600000381469727],[151.24351487495005,-33.877439461648464,28.399999618530273],[151.24374219216406,-33.877374501898885,28.200000762939453],[151.24382508918643,-33.877346673980355,28],[151.24404972419143,-33.8773082010448,28],[151.2441664841026,-33.87729328125715,28],[151.24425541609526,-33.87726956047118,28],[151.24444669112563,-33.87723695486784,28],[151.24453084543347,-33.87720317579806,28],[151.2446604296565,-33.87716520577669,28.399999618530273],[151.2447381298989,-33.87713327072561,28.600000381469727],[151.24492085538805,-33.87703159824014,28.399999618530273],[151.24498380348086,-33.876968482509255,28.600000381469727],[151.24507332220674,-33.87687426991761,29.200000762939453],[151.24516921117902,-33.8767452724278,29.600000381469727],[151.2452132999897,-33.87670688331127,29.799999237060547],[151.2452841270715,-33.876633206382394,30.200000762939453],[151.24539082869887,-33.87651393190026,30.799999237060547],[151.2454088497907,-33.876497000455856,30.799999237060547],[151.24553432688117,-33.876401111483574,31.399999618530273],[151.24555494636297,-33.8763842638582,31.399999618530273],[151.245681848377,-33.876275382936,32],[151.24578955583274,-33.876195419579744,32.400001525878906],[151.24592961743474,-33.87605854310095,33],[151.24595032073557,-33.87604362331331,33],[151.24597110785544,-33.87602761387825,33.20000076293945],[151.24612893909216,-33.875930551439524,33.599998474121094],[151.24618685804307,-33.87586676515639,34],[151.24625684693456,-33.87578814290464,34.20000076293945],[151.24634276144207,-33.875652607530355,34.79999923706055],[151.24637804925442,-33.87556593865156,35],[151.2464163545519,-33.87548195198178,35.599998474121094],[151.246517021209,-33.875314481556416,36],[151.24653403647244,-33.875295370817184,36.20000076293945],[151.2466238066554,-33.87518271803856,36.400001525878906],[151.2466896045953,-33.875099904835224,36.400001525878906],[151.24673218466341,-33.87506201863289,37],[151.24674526043236,-33.875044751912355,37.20000076293945],[151.2468217033893,-33.8749766908586,37.400001525878906],[151.2469562329352,-33.87486353516579,37.79999923706055],[151.2469845637679,-33.874839060008526,38.20000076293945],[151.24703963287175,-33.87476303614676,38.400001525878906],[151.24704784713686,-33.87475239112973,38.400001525878906],[151.24709570780396,-33.87465490959585,38.79999923706055],[151.24711054377258,-33.8745694141835,39.20000076293945],[151.24711280688643,-33.874552147462964,39.20000076293945],[151.2471246253699,-33.87449900619686,39.599998474121094],[151.24716536141932,-33.874341091141105,40],[151.24716594815254,-33.87424889020622,40.20000076293945],[151.2471796106547,-33.87415090575814,40.79999923706055],[151.2471906747669,-33.87405057437718,41.400001525878906],[151.24719101004303,-33.873978573828936,41.599998474121094],[151.24718765728176,-33.873802637681365,42.20000076293945],[151.24718614853919,-33.873705826699734,42.400001525878906],[151.24718262813985,-33.87360792607069,43],[151.2471858970821,-33.873534416779876,43.20000076293945],[151.2471925187856,-33.8734882324934,43.400001525878906],[151.247196206823,-33.8734726421535,43.599998474121094],[151.24722537584603,-33.8733278028667,44.599998474121094],[151.24723208136857,-33.87330919504166,44.599998474121094],[151.24733174219728,-33.8731893338263,45],[151.24737205915153,-33.87315102852881,45.599998474121094],[151.24744355678558,-33.87309864163399,45.79999923706055],[151.24749929644167,-33.87305673211813,45.79999923706055],[151.24761521816254,-33.87298255227506,46.20000076293945],[151.24771144241095,-33.87292270548642,46.599998474121094],[151.24780800193548,-33.87288624420762,46.79999923706055],[151.24792283400893,-33.87285883538425,47.400001525878906],[151.24799290671945,-33.87283142656088,47.400001525878906],[151.24823044985533,-33.872768729925156,47.20000076293945],[151.2482647318393,-33.87275917455554,47.20000076293945],[151.2483659852296,-33.87272749096155,47.20000076293945],[151.2484613712877,-33.872694885358214,46.79999923706055],[151.2485501356423,-33.872665045782924,46.79999923706055],[151.24876940622926,-33.87262397445738,46.400001525878906],[151.24895012006164,-33.872542418539524,45.79999923706055],[151.24897266738117,-33.8725333660841,45.599998474121094],[151.24898406676948,-33.87253252789378,45.400001525878906],[151.248998651281,-33.8725280854851,45.400001525878906],[151.24902857467532,-33.87251392006874,45.400001525878906],[151.24906721524894,-33.87251576408744,45.400001525878906],[151.24923191964626,-33.872495060786605,45.400001525878906],[151.24932152219117,-33.87245868332684,45],[151.2493514455855,-33.87245759367943,44.79999923706055],[151.24940081499517,-33.872456923127174,44.400001525878906],[151.24950198456645,-33.87241668999195,44.20000076293945],[151.24972829595208,-33.87237654067576,44.20000076293945],[151.24975763261318,-33.872368996962905,44],[151.24994337558746,-33.872305043041706,43.79999923706055],[151.25014068558812,-33.872232120484114,43.400001525878906],[151.25016717240214,-33.87222005054355,43.400001525878906],[151.2502682581544,-33.872156431898475,43.20000076293945],[151.25044838525355,-33.872028356418014,43],[151.25050261616707,-33.87197454459965,43],[151.25062943436205,-33.8718372490257,43],[151.25069539994,-33.87175602838397,43.400001525878906],[151.25071157701313,-33.87173457071185,43.400001525878906],[151.2508095614612,-33.87163541279733,43.400001525878906],[151.2508792988956,-33.87152426876128,43.400001525878906],[151.25092355534434,-33.87148001231253,43.400001525878906],[151.25106001272798,-33.8713382743299,43],[151.25108348205686,-33.87131522409618,43],[151.2511996552348,-33.87118530459702,42.79999923706055],[151.25129143707454,-33.87106695212424,42.599998474121094],[151.25135145150125,-33.87097902595997,42.400001525878906],[151.25142789445817,-33.8708720728755,41.79999923706055],[151.25150517560542,-33.87076252140105,41.20000076293945],[151.2515905033797,-33.8706320989877,40.599998474121094],[151.25162310898304,-33.87056965380907,40.20000076293945],[151.2516523618251,-33.87051240541041,39.79999923706055],[151.25166065990925,-33.87049103155732,39.79999923706055],[151.25177666544914,-33.87032641097903,39],[151.25182536430657,-33.87029263190925,39],[151.25201689079404,-33.870181404054165,38.400001525878906],[151.25210674479604,-33.8701431825757,38.20000076293945],[151.25220062211156,-33.87010772712529,38.20000076293945],[151.2522852793336,-33.87008182704449,38],[151.25238829292357,-33.87007176876068,37.79999923706055],[151.2526100780815,-33.870090544223785,37.79999923706055],[151.25263849273324,-33.87009406462312,37.599998474121094],[151.25284418463707,-33.87015324085951,37.400001525878906],[151.25286983326077,-33.87016849592328,37.400001525878906],[151.25302867032588,-33.87023898772895,37],[151.25307879410684,-33.87026572600007,36.79999923706055],[151.253221957013,-33.87034292332828,36],[151.25334466807544,-33.87041634880006,35.400001525878906],[151.25341524370015,-33.870466221123934,34.79999923706055],[151.2536082789302,-33.87057753279805,33.79999923706055],[151.25378547236323,-33.87064978480339,32.599998474121094],[151.25398060306907,-33.87071415781975,31.600000381469727],[151.25405369326472,-33.87073628604412,31],[151.2541562039405,-33.87077920138836,30.600000381469727],[151.25428109429777,-33.87084131129086,29.799999237060547],[151.25430515035987,-33.870856650173664,29.600000381469727],[151.25448452308774,-33.87094382196665,28.799999237060547],[151.254564486444,-33.87097676284611,28.600000381469727],[151.25472617335618,-33.871028143912554,27.799999237060547],[151.2548565119505,-33.87107642367482,27.600000381469727],[151.25499037094414,-33.87112529017031,27.399999618530273],[151.2551844958216,-33.87122738175094,27],[151.2553589232266,-33.87131120078266,27],[151.25556763261557,-33.87139091268182,27],[151.25561884604394,-33.871409855782986,27],[151.2558227777481,-33.87150867842138,27.200000762939453],[151.25587290152907,-33.871525693684816,27],[151.25608647242188,-33.87159434147179,26.799999237060547],[151.25613844022155,-33.87160884216428,27],[151.25616517849267,-33.87161965481937,27],[151.25636701472104,-33.87168603949249,27],[151.25641537830234,-33.87170238420367,27],[151.2566285301,-33.87178134173155,27],[151.25672617927194,-33.871823670342565,27],[151.25681787729263,-33.87185703031719,26.799999237060547],[151.2568444479257,-33.871866250410676,26.799999237060547],[151.25696933828294,-33.87190790846944,27],[151.25700663775206,-33.87191763147712,26.799999237060547],[151.2571391556412,-33.87194814160466,26.799999237060547],[151.25724527053535,-33.871994661167264,26.799999237060547],[151.25729950144887,-33.87201259844005,26.799999237060547],[151.25737829133868,-33.87203363701701,27.200000762939453],[151.25747501850128,-33.87207311578095,27.200000762939453],[151.25763352029026,-33.87209985405207,27.200000762939453],[151.2576743401587,-33.87210940942168,27],[151.2578524556011,-33.87214209884405,26.799999237060547],[151.2578744161874,-33.87214637361467,26.600000381469727],[151.25805580057204,-33.87218937277794,26.600000381469727],[151.25807642005384,-33.87219515629113,26.399999618530273],[151.25810047611594,-33.87219859287143,26.399999618530273],[151.25821044668555,-33.872223319485784,26.600000381469727],[151.25829367898405,-33.87223765254021,26.799999237060547],[151.2584878038615,-33.872253242880106,26.600000381469727],[151.25857170671225,-33.87226824648678,26.600000381469727],[151.25865426845849,-33.872288446873426,26.399999618530273],[151.2587835174054,-33.87232817709446,26.399999618530273],[151.25896523706615,-33.872367572039366,26.600000381469727],[151.25919364392757,-33.87240034528077,26.600000381469727],[151.25935482792556,-33.87241384014487,26.600000381469727],[151.25944040715694,-33.87243026867509,26.600000381469727],[151.25952028669417,-33.87244049459696,26.600000381469727],[151.2596004176885,-33.87245365418494,26.399999618530273],[151.2597896810621,-33.87247578240931,26.399999618530273],[151.25996637158096,-33.87248257175088,26.399999618530273],[151.2601932696998,-33.87250369414687,26.799999237060547],[151.2603975366801,-33.872518530115485,26.200000762939453],[151.2606081739068,-33.872540071606636,26.600000381469727],[151.26073591411114,-33.87253378517926,26.200000762939453],[151.26080255024135,-33.872533114627004,26.200000762939453],[151.2610386684537,-33.872534623369575,26.399999618530273],[151.2612715177238,-33.872537640854716,26.399999618530273],[151.26135114580393,-33.87253453955054,26.200000762939453],[151.26146304421127,-33.87253537774086,26.200000762939453],[151.26160922460258,-33.87253931723535,26.399999618530273],[151.26174702309072,-33.87255264446139,26.399999618530273],[151.26191432587802,-33.87258432805538,26.200000762939453],[151.262038461864,-33.87262531556189,26.200000762939453],[151.2622541282326,-33.87269069440663,26],[151.26228757202625,-33.87270117178559,26],[151.26250382512808,-33.87275917455554,26],[151.26256585121155,-33.87277375906706,26],[151.2626312300563,-33.87278616428375,26],[151.2628427054733,-33.872815165668726,26.200000762939453],[151.26307379454374,-33.87281893752515,26.399999618530273],[151.2631056457758,-33.87281717732549,26.399999618530273],[151.2633419316262,-33.87278943322599,27],[151.2634203862399,-33.87277442961931,27],[151.263526417315,-33.87273654341698,27.200000762939453],[151.2635917123407,-33.872710559517145,27.200000762939453],[151.26368567347527,-33.872673846781254,27.399999618530273],[151.26370654441416,-33.87267451733351,27.399999618530273],[151.26372900791466,-33.87268700636923,27.399999618530273],[151.2637274991721,-33.87268977239728,27.200000762939453],[151.26374082639813,-33.87267996557057,27.200000762939453],[151.26376463100314,-33.872648952528834,27.200000762939453],[151.26382674090564,-33.872591368854046,27],[151.26389807090163,-33.87256421148777,27.200000762939453],[151.2639349512756,-33.87255012989044,27.200000762939453],[151.26395104452968,-33.87253294698894,27.200000762939453],[151.26401809975505,-33.8724554143846,27],[151.26416536979377,-33.87234619818628,27],[151.26424768008292,-33.8722965773195,26.799999237060547],[151.2642830517143,-33.87226941995323,27],[151.2643369473517,-33.872243436053395,27],[151.26437173224986,-33.87222801335156,27],[151.26444641500711,-33.87220110744238,27],[151.2645097821951,-33.872172022238374,27],[151.26454791985452,-33.872153582051396,27],[151.2646326608956,-33.87211854569614,26.600000381469727],[151.26480574719608,-33.8720531668514,26.399999618530273],[151.26492829062045,-33.87200237251818,26.399999618530273],[151.26497740857303,-33.87197923846543,26.200000762939453],[151.26504731364548,-33.87194747105241,26],[151.26523414626718,-33.871875470504165,26.399999618530273],[151.26531343907118,-33.87184445746243,26.600000381469727],[151.26533137634397,-33.8718340639025,26.600000381469727],[151.26544252038002,-33.871782179921865,26.600000381469727],[151.26557889394462,-33.87172979302704,26.600000381469727],[151.26579011790454,-33.871665839105844,26.600000381469727],[151.26594417728484,-33.87160607613623,26.600000381469727],[151.2660188600421,-33.871581265702844,26.600000381469727],[151.2662017531693,-33.87152041308582,26.399999618530273],[151.2663513701409,-33.871464002877474,26.799999237060547],[151.2664403859526,-33.87143164873123,26.799999237060547],[151.2666761688888,-33.871356127783656,26.799999237060547],[151.26688194461167,-33.871284211054444,26.799999237060547],[151.26704941503704,-33.87121162377298,26.799999237060547],[151.26725594513118,-33.871113890782,26.799999237060547],[151.2673862837255,-33.87105320580304,27],[151.26750857569277,-33.871009116992354,27],[151.26767730340362,-33.870907025411725,27.200000762939453],[151.26773941330612,-33.87086243368685,27.200000762939453],[151.26794384792447,-33.870759503915906,27.200000762939453],[151.26812238246202,-33.870657328516245,27.399999618530273],[151.268146103248,-33.87064333073795,27.399999618530273],[151.2683382164687,-33.87054325081408,27.399999618530273],[151.26840753480792,-33.87050360441208,27.200000762939453],[151.268561007455,-33.87038986198604,27],[151.26875412650406,-33.87028953060508,26.799999237060547],[151.26877784729004,-33.8702745269984,26.799999237060547],[151.26897113397717,-33.87015625834465,26.600000381469727],[151.26899535767734,-33.8701415900141,26.600000381469727],[151.2691670190543,-33.87003061361611,26.600000381469727],[151.26920490525663,-33.870007395744324,26.399999618530273],[151.26933968625963,-33.86992944404483,26.200000762939453],[151.26935368403792,-33.86991796083748,26.200000762939453],[151.2694762274623,-33.86984311044216,26.600000381469727],[151.26955308951437,-33.86978670023382,26.399999618530273],[151.2696300353855,-33.86974227614701,26.399999618530273],[151.26970094628632,-33.8697031326592,26.799999237060547],[151.26975626684725,-33.86965837329626,26.799999237060547],[151.2698213942349,-33.869589222595096,26.799999237060547],[151.26985223963857,-33.869559383019805,27],[151.26993496902287,-33.869473887607455,27.600000381469727],[151.26999179832637,-33.86943046934903,27.799999237060547],[151.27008785493672,-33.86936182156205,28.600000381469727],[151.2701021041721,-33.86935235001147,28.600000381469727],[151.27023881301284,-33.869251515716314,29.799999237060547],[151.27029036171734,-33.86921614408493,30.200000762939453],[151.27039873972535,-33.86910961009562,30.799999237060547],[151.27042950131,-33.869071220979095,31],[151.27056738361716,-33.868935434147716,32],[151.27065396867692,-33.86876268312335,32.79999923706055],[151.27065849490464,-33.86874650605023,33],[151.27066385932267,-33.868729658424854,33],[151.27066452987492,-33.86867291294038,33.400001525878906],[151.2706652842462,-33.86857157573104,33.79999923706055],[151.27066545188427,-33.8685545604676,34],[151.27067777328193,-33.86842103675008,34.599998474121094],[151.27067894674838,-33.86835901066661,35.20000076293945],[151.27070233225822,-33.86820796877146,35.79999923706055],[151.2707091215998,-33.8681626226753,36.20000076293945],[151.27071792259812,-33.86809824965894,36.79999923706055],[151.27076896838844,-33.867969335988164,37.400001525878906],[151.27079218626022,-33.86792700737715,37.79999923706055],[151.27082680352032,-33.867868753150105,38.400001525878906],[151.2708542123437,-33.86782390996814,38.599998474121094],[151.27095395699143,-33.86771167628467,39.599998474121094],[151.27097667194903,-33.86769365519285,39.79999923706055],[151.27102428115904,-33.86765576899052,40.599998474121094],[151.27107926644385,-33.867624420672655,41.20000076293945],[151.27119870856404,-33.867568764835596,41.599998474121094],[151.2712775822729,-33.8675478938967,42.20000076293945],[151.2713481578976,-33.86753029190004,42.599998474121094],[151.2714441306889,-33.86751369573176,43.400001525878906],[151.27147598192096,-33.867507576942444,43.79999923706055],[151.27161109820008,-33.867480251938105,44.79999923706055],[151.27162534743547,-33.86747656390071,45],[151.2717306241393,-33.86740129441023,45.79999923706055],[151.27174504101276,-33.86738612316549,45.79999923706055],[151.27183430828154,-33.86731194332242,46.79999923706055],[151.27187982201576,-33.867268692702055,47.400001525878906],[151.27189809456468,-33.867227202281356,48],[151.271909493953,-33.86717649176717,48.20000076293945],[151.2719002738595,-33.867026371881366,49],[151.27189457416534,-33.86700063943863,49.20000076293945],[151.2718410976231,-33.8668224401772,50],[151.27183673903346,-33.866794276982546,50.400001525878906],[151.27180103212595,-33.86664449237287,51],[151.27179700881243,-33.866616412997246,51.20000076293945],[151.27182684838772,-33.8664978928864,51.599998474121094],[151.27187789417803,-33.86638406664133,52.20000076293945],[151.27188870683312,-33.8663683924824,52.400001525878906],[151.27196540124714,-33.866248447448015,53],[151.27200697548687,-33.866200000047684,53.20000076293945],[151.27205483615398,-33.866155073046684,53.79999923706055],[151.27210202626884,-33.86611090041697,54.400001525878906],[151.2721503060311,-33.86607678607106,55],[151.2721891142428,-33.86603655293584,55.400001525878906],[151.27223446033895,-33.86594862677157,56.400001525878906],[151.2722427584231,-33.865932784974575,56.599998474121094],[151.27232557162642,-33.86579473502934,57.599998474121094],[151.2723360490054,-33.86578040197492,58],[151.2723963148892,-33.86567462235689,59],[151.27241743728518,-33.86564042419195,59.20000076293945],[151.2725086323917,-33.86555970646441,60.20000076293945],[151.27253646031022,-33.865543277934194,60.599998474121094],[151.2726209498942,-33.86550631374121,61.20000076293945],[151.27269546501338,-33.86548343114555,61.79999923706055],[151.27274005673826,-33.8654737919569,62.20000076293945],[151.27290073782206,-33.86543372645974,63.20000076293945],[151.27293082885444,-33.86541863903403,63.599998474121094],[151.27303208224475,-33.86537614278495,64.4000015258789],[151.27304775640368,-33.8653617259115,64.5999984741211],[151.27309838309884,-33.86529969982803,65.5999984741211],[151.27312587574124,-33.865248234942555,66],[151.27313174307346,-33.8651302177459,66.80000305175781],[151.2731241993606,-33.865097779780626,67],[151.27309452742338,-33.865014631301165,67.80000305175781],[151.27307516522706,-33.86497188359499,68],[151.27296703867614,-33.86487138457596,68.5999984741211],[151.27291783690453,-33.864854369312525,69],[151.27289939671755,-33.86485202237964,69],[151.27278992906213,-33.86480583809316,69.80000305175781],[151.27277199178934,-33.864797204732895,70],[151.2726867478341,-33.86474414728582,70.5999984741211],[151.2726846523583,-33.86474364437163,71],[151.2726688105613,-33.864740459248424,70.5999984741211],[151.27266948111355,-33.86474087834358,70.5999984741211],[151.27266973257065,-33.86474112980068,70.5999984741211],[151.27266981638968,-33.86474112980068,70.80000305175781],[151.272681215778,-33.86474213562906,71],[151.27268456853926,-33.864743979647756,71.4000015258789],[151.27266529016197,-33.864726293832064,70.80000305175781],[151.27258758991957,-33.86463861912489,71],[151.27248491160572,-33.86451800353825,71.4000015258789],[151.2724068760872,-33.864406859502196,72],[151.27237762324512,-33.8643392175436,72.4000015258789],[151.2723487894982,-33.86425078846514,72.80000305175781],[151.27233797684312,-33.86420083232224,73],[151.27233537845314,-33.86418373323977,73.19999694824219],[151.2723178602755,-33.864116091281176,73.4000015258789],[151.27229824662209,-33.86402782984078,73.5999984741211],[151.27230050973594,-33.86398105882108,74],[151.27227972261608,-33.863916266709566,74.19999694824219],[151.27227117307484,-33.86389782652259,74.4000015258789],[151.2722533196211,-33.86381325311959,74.80000305175781],[151.27224971540272,-33.86378651484847,75.19999694824219],[151.2722440995276,-33.86371937580407,75.4000015258789],[151.27219263464212,-33.863529190421104,76],[151.2721859291196,-33.86348015628755,76.19999694824219],[151.27216606400907,-33.863348392769694,77],[151.2721576821059,-33.863301957026124,77.19999694824219],[151.27216396853328,-33.86315384879708,78],[151.27215919084847,-33.86310682632029,78.4000015258789],[151.27215307205915,-33.863020492717624,79.4000015258789],[151.2721510604024,-33.863001046702266,79.4000015258789],[151.27215642482042,-33.862935500219464,79.80000305175781],[151.2721476238221,-33.86286551132798,80.4000015258789],[151.2721513118595,-33.862762078642845,81.5999984741211],[151.2721505574882,-33.862748332321644,81.80000305175781],[151.27215458080173,-33.862735256552696,82],[151.27216648310423,-33.862660489976406,82.5999984741211],[151.2721719313413,-33.86252009309828,83.4000015258789],[151.27217293716967,-33.862468376755714,83.80000305175781],[151.27218232490122,-33.86234516277909,84.4000015258789],[151.2721830792725,-33.86231289245188,84.80000305175781],[151.27218668349087,-33.862232342362404,85.80000305175781],[151.27218274399638,-33.86220032349229,86.19999694824219],[151.27215508371592,-33.862031595781446,86.4000015258789],[151.27213940955698,-33.86195766739547,86.80000305175781],[151.27212985418737,-33.861910896375775,87.4000015258789],[151.27212314866483,-33.86182121001184,88],[151.27211233600974,-33.86177242733538,87.80000305175781],[151.27209364436567,-33.86170445010066,87.5999984741211],[151.27207352779806,-33.861627420410514,88.4000015258789],[151.2720458675176,-33.86152759194374,89],[151.27202072180808,-33.86143321171403,89.19999694824219],[151.27199959941208,-33.86129365302622,89.19999694824219],[151.271980907768,-33.86113531887531,90],[151.27198074012995,-33.86111771687865,90],[151.27200144343078,-33.86095284484327,90.19999694824219],[151.2720395810902,-33.860807502642274,90.5999984741211],[151.27213270403445,-33.86067339219153,90.80000305175781],[151.27218349836767,-33.86061832308769,91],[151.27222909592092,-33.860573060810566,91.4000015258789],[151.27227092161775,-33.86053743772209,91.5999984741211],[151.27238332293928,-33.86047214269638,92],[151.27241676673293,-33.860451774671674,92.19999694824219],[151.27251718193293,-33.86039678938687,92.80000305175781],[151.27258650027215,-33.8603588193655,93.19999694824219],[151.272665373981,-33.860316909849644,93.80000305175781],[151.27270745113492,-33.86028204113245,94.19999694824219],[151.27278674393892,-33.8602311629802,94.80000305175781],[151.27286762930453,-33.860180620104074,95.80000305175781],[151.2729133106768,-33.860144913196564,96.4000015258789],[151.27294960431755,-33.86009814217687,96.4000015258789],[151.2730076070875,-33.86005036532879,96.80000305175781],[151.2730190064758,-33.86004080995917,96.80000305175781],[151.2730623409152,-33.859995966777205,97.19999694824219],[151.27312042750418,-33.85993218049407,97.19999694824219],[151.2731741555035,-33.85986085049808,97.80000305175781],[151.2732404563576,-33.859779043123126,98.4000015258789],[151.27330533228815,-33.85970352217555,99],[151.27335864119232,-33.859632946550846,99.4000015258789],[151.2734199129045,-33.85955390520394,99.4000015258789],[151.27348688431084,-33.859501015394926,99.80000305175781],[151.2735776603222,-33.8594229798764,100],[151.27362535335124,-33.85939079336822,100.19999694824219],[151.27374328672886,-33.859345028176904,100.5999984741211],[151.2737822625786,-33.85933614335954,100.4000015258789],[151.27392173744738,-33.85930462740362,100.5999984741211],[151.27396021038294,-33.85930077172816,100.5999984741211],[151.27397345378995,-33.85929582640529,100.5999984741211],[151.2740481365472,-33.85927638038993,100.5999984741211],[151.27420831471682,-33.859253665432334,100.5999984741211],[151.27425231970847,-33.859250145033,100.5999984741211],[151.27434100024402,-33.859231285750866,100.5999984741211],[151.27445231191814,-33.859195997938514,101],[151.27446371130645,-33.85919524356723,101.19999694824219],[151.27456630580127,-33.85918694548309,101.4000015258789],[151.27473545260727,-33.859163811430335,101.4000015258789],[151.2748520448804,-33.85914704762399,101.19999694824219],[151.27498917281628,-33.85915819555521,101.19999694824219],[151.27506963908672,-33.8591518253088,101.4000015258789],[151.27528538927436,-33.859138917177916,102],[151.2753032427281,-33.8591362349689,102.19999694824219],[151.27547029405832,-33.85912156663835,102.5999984741211],[151.27560121938586,-33.859142269939184,102.5999984741211],[151.27564136870205,-33.85915517807007,103],[151.27566006034613,-33.85915962047875,103],[151.27582987770438,-33.85923245921731,103.4000015258789],[151.27595082856715,-33.8593125063926,103.5999984741211],[151.27607882022858,-33.85939037427306,103.4000015258789],[151.27613497897983,-33.85940940119326,103.4000015258789],[151.27630781382322,-33.859438486397266,103.19999694824219],[151.27636489458382,-33.8594507239759,103.19999694824219],[151.27650587819517,-33.859467236325145,103],[151.27656983211637,-33.859474025666714,102.80000305175781],[151.27678222954273,-33.859484419226646,102.5999984741211],[151.27686772495508,-33.859484838321805,102.19999694824219],[151.27698691561818,-33.85949690826237,102],[151.27723057754338,-33.85951828211546,101.4000015258789],[151.27731833606958,-33.85952364653349,101.19999694824219],[151.27753685228527,-33.859529849141836,100.4000015258789],[151.2776045780629,-33.859526915475726,100.19999694824219],[151.27763751894236,-33.85952716693282,100],[151.27785293385386,-33.859494645148516,99.19999694824219],[151.27791395410895,-33.85948718525469,99.19999694824219],[151.27811579033732,-33.85941878892481,98.19999694824219],[151.27816373482347,-33.85939012281597,98.19999694824219],[151.27823959104717,-33.85931401513517,98.19999694824219],[151.27825861796737,-33.85929113253951,98.19999694824219],[151.27832810394466,-33.859169175848365,98.5999984741211],[151.27837168984115,-33.85908359661698,98.80000305175781],[151.27841494046152,-33.85900287888944,99.19999694824219],[151.2784471269697,-33.85894521139562,99.4000015258789],[151.27855265513062,-33.85876617394388,99.80000305175781],[151.27870051190257,-33.858624352142215,100],[151.27890016883612,-33.858490912243724,100],[151.27891642972827,-33.85847406461835,100],[151.27906219102442,-33.858357639983296,100.19999694824219],[151.27908507362008,-33.85833961889148,100.19999694824219],[151.27910980023444,-33.85831866413355,100.19999694824219],[151.27929034642875,-33.858181620016694,100.4000015258789],[151.27935010939837,-33.85813417844474,100.4000015258789],[151.2795042525977,-33.8579844776541,100.80000305175781],[151.27965294755995,-33.85784609243274,101.19999694824219],[151.27968865446746,-33.85780904442072,101.19999694824219],[151.27980440855026,-33.85772639885545,101.5999984741211],[151.27989166416228,-33.85765557177365,102],[151.28001043573022,-33.85754954069853,102.19999694824219],[151.28003004938364,-33.85753210633993,102.4000015258789],[151.2801847793162,-33.85741509497166,102.5999984741211],[151.28034596331418,-33.857320714741945,103.19999694824219],[151.28040078096092,-33.857301604002714,103.19999694824219],[151.2805986776948,-33.857255168259144,103.5999984741211],[151.28081358969212,-33.857209822162986,103.80000305175781],[151.28099648281932,-33.85714243166149,103.4000015258789],[151.281014168635,-33.85714067146182,103.4000015258789],[151.28117786720395,-33.857103707268834,103.19999694824219],[151.2812564894557,-33.857078310102224,103.4000015258789],[151.2813069485128,-33.857063641771674,103.4000015258789],[151.2814703118056,-33.85703816078603,102.80000305175781],[151.28153493627906,-33.8570277672261,102.80000305175781],[151.28159243613482,-33.85702583938837,102.5999984741211],[151.2816690467298,-33.85701687075198,102.19999694824219],[151.28175127319992,-33.857017708942294,102],[151.2818199209869,-33.85702684521675,102],[151.28189569339156,-33.857038076967,101.80000305175781],[151.28201555460691,-33.85704578831792,101.5999984741211],[151.28205168060958,-33.85705064982176,101.5999984741211],[151.2821487430483,-33.85707571171224,101.4000015258789],[151.28222493454814,-33.85711384937167,101.4000015258789],[151.28225871361792,-33.85717595927417,102],[151.28226625733078,-33.857226837426424,102.4000015258789],[151.2822446320206,-33.857282577082515,103.4000015258789],[151.28221596591175,-33.85731199756265,103.4000015258789],[151.28211236558855,-33.857393553480506,103.5999984741211],[151.28197708167136,-33.85748952627182,103.5999984741211],[151.28182084299624,-33.857611985877156,103.5999984741211],[151.2817073520273,-33.85767845436931,103.80000305175781],[151.28161414526403,-33.85776747018099,103.80000305175781],[151.28159729763865,-33.857791693881154,104],[151.28150769509375,-33.857874339446425,103.80000305175781],[151.28141247667372,-33.857951536774635,104.4000015258789],[151.2814002390951,-33.85796343907714,104.4000015258789],[151.2813880853355,-33.85797324590385,104.4000015258789],[151.28130041062832,-33.85807307437062,104],[151.28124517388642,-33.85813107714057,104.19999694824219],[151.28116227686405,-33.85820441879332,103.5999984741211],[151.2810376379639,-33.858325872570276,103.19999694824219],[151.2809924595058,-33.85838186368346,102.80000305175781],[151.28092523664236,-33.858450343832374,102.19999694824219],[151.2808613665402,-33.85851798579097,101.4000015258789],[151.28083932213485,-33.8585455622524,101.19999694824219],[151.28076153807342,-33.85861529968679,100.4000015258789],[151.28074795939028,-33.85863080620766,100.19999694824219],[151.28068123944104,-33.85871646925807,99],[151.280636228621,-33.85875502601266,98.19999694824219],[151.2806013599038,-33.85879500769079,98],[151.28053480759263,-33.858881341293454,96.80000305175781],[151.28040430136025,-33.85899927467108,96.19999694824219],[151.28035744652152,-33.85904101654887,95.5999984741211],[151.28027664497495,-33.85912114754319,95],[151.28021134994924,-33.85919926688075,94.19999694824219],[151.28012333996594,-33.85929490439594,93.80000305175781],[151.28010070882738,-33.85932080447674,93.80000305175781],[151.2800790835172,-33.85934427380562,93.5999984741211],[151.2799873854965,-33.85943898931146,93.19999694824219],[151.27989551983774,-33.85953236371279,92.80000305175781],[151.27987288869917,-33.85955541394651,92.80000305175781],[151.27980566583574,-33.85961894877255,92.80000305175781],[151.2797143869102,-33.85969564318657,92.5999984741211],[151.2796096969396,-33.859806787222624,92.19999694824219],[151.27951816655695,-33.85991516523063,91.80000305175781],[151.2793845590204,-33.86006754823029,91.4000015258789],[151.2793634366244,-33.86009001173079,91.4000015258789],[151.2793245445937,-33.86013292707503,91.19999694824219],[151.2792875804007,-33.860175255686045,91],[151.27919361926615,-33.860249603167176,90.80000305175781],[151.27912295982242,-33.86029763147235,90.4000015258789],[151.27896588295698,-33.86044188402593,90.19999694824219],[151.27884342335165,-33.86054095812142,90],[151.27876815386117,-33.86060642078519,89.80000305175781],[151.27862784080207,-33.86073147878051,89],[151.27859028987586,-33.86077120900154,88.80000305175781],[151.27843002788723,-33.86092568747699,88.19999694824219],[151.2783916387707,-33.86097547598183,88.19999694824219],[151.27829826436937,-33.86108737438917,88],[151.27825518138707,-33.8611791562289,88],[151.2781929038465,-33.86136095970869,87.80000305175781],[151.27818745560944,-33.86140848509967,87.80000305175781],[151.2781768105924,-33.86159481480718,88],[151.27817555330694,-33.86164342984557,88],[151.2781807500869,-33.86178298853338,88.19999694824219],[151.27818594686687,-33.86183084920049,88.19999694824219],[151.27823472954333,-33.86201340705156,88.19999694824219],[151.27826934680343,-33.862188002094626,88.4000015258789],[151.27831402234733,-33.86232311837375,88.5999984741211],[151.27838308922946,-33.86246334761381,88.5999984741211],[151.2784225679934,-33.86262805201113,88.80000305175781],[151.27847470343113,-33.862743470817804,88.80000305175781],[151.27857302315533,-33.86282234452665,88.5999984741211],[151.27866505645216,-33.86284438893199,88.4000015258789],[151.27870948053896,-33.86284992098808,88],[151.2787838280201,-33.86287364177406,87.5999984741211],[151.27885364927351,-33.86288579553366,87.4000015258789],[151.27889488823712,-33.86289627291262,86.80000305175781],[151.27899086102843,-33.862914545461535,85.5999984741211],[151.27906537614763,-33.86292510665953,85],[151.27914156764746,-33.8629303034395,84.5999984741211],[151.2791596725583,-33.86293684132397,84.5999984741211],[151.2791926972568,-33.86295008473098,84.19999694824219],[151.2792626861483,-33.86297087185085,83.5999984741211],[151.27927953377366,-33.862973134964705,83.5999984741211],[151.27936167642474,-33.86298260651529,82.80000305175781],[151.27940484322608,-33.86298411525786,82.4000015258789],[151.27946309745312,-33.86299006640911,82.19999694824219],[151.27951783128083,-33.862998615950346,82],[151.27955269999802,-33.86300322599709,81.80000305175781],[151.2796036619693,-33.863010853528976,81.19999694824219],[151.2796263769269,-33.863014709204435,81],[151.27970793284476,-33.86303264647722,80.4000015258789],[151.27974707633257,-33.86304379440844,80.4000015258789],[151.27978479489684,-33.863052260130644,80.4000015258789],[151.27982812933624,-33.863059636205435,80.19999694824219],[151.27994094975293,-33.86308444663882,79.19999694824219],[151.28000901080668,-33.86308955959976,78.80000305175781],[151.28023062832654,-33.86313012801111,78.4000015258789],[151.2802889663726,-33.86314144358039,78.19999694824219],[151.28044260665774,-33.863171115517616,77.5999984741211],[151.28058400936425,-33.8631961774081,77.19999694824219],[151.2807123363018,-33.8632202334702,76.4000015258789],[151.28079975955188,-33.863230710849166,76],[151.2809261586517,-33.863259460777044,75.5999984741211],[151.28100469708443,-33.863272704184055,75],[151.28106705844402,-33.863283935934305,74.80000305175781],[151.28113377839327,-33.863324001431465,74.5999984741211],[151.28117627464235,-33.863433972001076,74.19999694824219],[151.28115942701697,-33.863578559830785,74.5999984741211],[151.28112112171948,-33.86377218179405,76],[151.28111357800663,-33.86380453594029,76],[151.28109144978225,-33.863893300294876,76.19999694824219],[151.28107376396656,-33.863938227295876,76.5999984741211],[151.2810561619699,-33.86402095668018,77],[151.281051132828,-33.86403922922909,77],[151.28104367293417,-33.86407342739403,77.19999694824219],[151.28103931434453,-33.8640889339149,77.19999694824219],[151.28101031295955,-33.86421415954828,78.19999694824219],[151.28098491579294,-33.86438406072557,78.5999984741211],[151.280982401222,-33.86440115980804,78.5999984741211],[151.28096002154052,-33.86458053253591,79],[151.28095926716924,-33.86459805071354,78.80000305175781],[151.2809377256781,-33.86470651254058,78.80000305175781],[151.28089162521064,-33.864886639639735,79],[151.2808865122497,-33.86490608565509,79],[151.28082792274654,-33.86506576091051,79],[151.28080688416958,-33.86518922634423,79.19999694824219],[151.28080571070313,-33.8652063254267,79.19999694824219],[151.2808016873896,-33.865222837775946,79.4000015258789],[151.28074024803936,-33.865374801680446,80],[151.28072599880397,-33.86544638313353,80],[151.28070831298828,-33.86550145223737,80.19999694824219],[151.28070814535022,-33.865616116672754,80.5999984741211],[151.28068367019296,-33.8657312002033,81],[151.28067553974688,-33.86579532176256,81.19999694824219],[151.28067126497626,-33.86585005559027,81.5999984741211],[151.2806472927332,-33.865946028381586,82.4000015258789],[151.28063748590648,-33.86600889265537,83.4000015258789],[151.2806311994791,-33.86602398008108,83.5999984741211],[151.28061183728278,-33.86610687710345,84],[151.28060035407543,-33.86614266782999,84.4000015258789],[151.28059255890548,-33.866175105795264,84.80000305175781],[151.28059054724872,-33.86619069613516,84.80000305175781],[151.28057084977627,-33.86626906692982,86],[151.2805534992367,-33.86636847630143,86.80000305175781],[151.28055199049413,-33.86638255789876,87],[151.28056095913053,-33.86647786013782,88],[151.28057814203203,-33.866504933685064,88.4000015258789],[151.28070923499763,-33.86658732779324,88.19999694824219],[151.28089556470513,-33.86662387289107,87.80000305175781],[151.28097075037658,-33.86662990786135,87.5999984741211],[151.2810281664133,-33.86663485318422,87.19999694824219],[151.2810490373522,-33.86663284152746,87],[151.28120007924736,-33.86664206162095,86.80000305175781],[151.2814229540527,-33.866679444909096,86.19999694824219],[151.28144768066704,-33.86668053455651,86],[151.28160760737956,-33.866715570911765,85.5999984741211],[151.2818104494363,-33.86681833304465,85.5999984741211],[151.28182914108038,-33.866831324994564,85.5999984741211],[151.28194078803062,-33.86697239242494,86.4000015258789],[151.28199351020157,-33.86705000884831,87.19999694824219],[151.2820041552186,-33.86709451675415,87.19999694824219],[151.28201111219823,-33.86719727888703,88.19999694824219],[151.2820080947131,-33.8672336563468,88.4000015258789],[151.28200817853212,-33.867269698530436,88.80000305175781],[151.28200700506568,-33.86730708181858,89.19999694824219],[151.28199116326869,-33.86740389280021,90.19999694824219],[151.2819883134216,-33.86741537600756,90.4000015258789],[151.28195461817086,-33.867528699338436,91.5999984741211],[151.28194372169673,-33.86760178953409,92],[151.2819158937782,-33.86768468655646,92.80000305175781],[151.28189938142896,-33.86775417253375,93.80000305175781],[151.28186417743564,-33.86793706566095,94.5999984741211],[151.28184129483998,-33.86805994436145,94.80000305175781],[151.2818336673081,-33.86816932819784,94.19999694824219],[151.28182059153914,-33.868233701214194,94.19999694824219],[151.28180315718055,-33.868319699540734,94.19999694824219],[151.28176066093147,-33.86848180554807,94],[151.28175051882863,-33.86852715164423,94],[151.2817203439772,-33.86865229345858,94],[151.2816846370697,-33.868785398080945,94.4000015258789],[151.28164934925735,-33.868890423327684,94.80000305175781],[151.2816447392106,-33.86890240944922,94.80000305175781],[151.28159654326737,-33.86909091845155,95.4000015258789],[151.2815926875919,-33.86910801753402,95.4000015258789],[151.2815609201789,-33.86924799531698,95.5999984741211],[151.28154767677188,-33.8692900724709,96],[151.28151901066303,-33.86935159564018,96],[151.28146545030177,-33.86950389482081,96.80000305175781],[151.28146586939692,-33.869580924510956,97],[151.28145396709442,-33.86965728364885,97.19999694824219],[151.28144248388708,-33.86968997307122,97.19999694824219],[151.28142965957522,-33.8698516599834,97.5999984741211],[151.28137048333883,-33.86999415233731,97.80000305175781],[151.2813698966056,-33.870012843981385,98],[151.2813201919198,-33.870189199224114,98.5999984741211],[151.2813135702163,-33.87022658251226,99],[151.28132647834718,-33.870256589725614,99.19999694824219],[151.28130233846605,-33.870343090966344,100.19999694824219],[151.28129336982965,-33.87037427164614,100.5999984741211],[151.2812657095492,-33.870469154790044,100.80000305175781],[151.28123846836388,-33.870532186701894,100.4000015258789],[151.28121751360595,-33.87062782421708,101],[151.2812147475779,-33.87066545896232,101.19999694824219],[151.28117862157524,-33.87079160660505,102.19999694824219],[151.28113511949778,-33.87093166820705,103.4000015258789],[151.2811264861375,-33.87098497711122,103.4000015258789],[151.28110511228442,-33.87114616110921,103.19999694824219],[151.28108608536422,-33.871253030374646,103.4000015258789],[151.28108432516456,-33.87126979418099,103.19999694824219],[151.28105808980763,-33.87138856574893,103.4000015258789],[151.28105171956122,-33.87142804451287,103],[151.2810202036053,-33.87160121463239,102.5999984741211],[151.28101592883468,-33.87161957100034,102.4000015258789],[151.28100478090346,-33.87170263566077,102.19999694824219],[151.28099204041064,-33.871776731684804,102.19999694824219],[151.28095222637057,-33.87193959206343,101.5999984741211],[151.28091836348176,-33.872113516554236,101.4000015258789],[151.28088609315455,-33.87225994840264,101.4000015258789],[151.28087972290814,-33.872276628389955,101.4000015258789],[151.2808645516634,-33.87234024703503,101.19999694824219],[151.2808331195265,-33.872438902035356,101],[151.28081576898694,-33.872583070769906,101],[151.28076480701566,-33.872773591428995,100.4000015258789],[151.28075709566474,-33.87279253453016,100.4000015258789],[151.28073538653553,-33.8728631939739,100.5999984741211],[151.2807194609195,-33.87291440740228,100.5999984741211],[151.2807118333876,-33.872960256412625,100.5999984741211],[151.28071610815823,-33.872978864237666,100.5999984741211],[151.28071040846407,-33.8730635214597,100.80000305175781],[151.28068266436458,-33.873224537819624,100.80000305175781],[151.28065215423703,-33.873415142297745,101.19999694824219],[151.28060412593186,-33.873570039868355,101.4000015258789],[151.2805857695639,-33.87364153750241,102.4000015258789],[151.2805801536888,-33.87375343590975,102.80000305175781],[151.28055106848478,-33.873853934928775,103],[151.28053195774555,-33.87390783056617,103.19999694824219],[151.28053044900298,-33.87394471094012,103.4000015258789],[151.28050287254155,-33.87407077476382,103.5999984741211],[151.28050203435123,-33.87425970286131,103.80000305175781],[151.28054427914321,-33.874399261549115,103.80000305175781],[151.28057001158595,-33.874572766944766,103.80000305175781],[151.28055601380765,-33.87463613413274,103.80000305175781],[151.2805434409529,-33.8747367169708,103],[151.28051661886275,-33.874892285093665,102.19999694824219],[151.28050127997994,-33.874972919002175,102],[151.2804892938584,-33.8750234618783,101.80000305175781],[151.28046515397727,-33.875171234831214,101.19999694824219],[151.28044101409614,-33.875273410230875,101],[151.28040078096092,-33.87544901110232,100.5999984741211],[151.28039206378162,-33.87552570551634,100.19999694824219],[151.28037940710783,-33.87562310323119,99.80000305175781],[151.28036683425307,-33.87568940408528,99.4000015258789],[151.28033129498363,-33.875820245593786,99.19999694824219],[151.2803240865469,-33.87584790587425,99.19999694824219],[151.28031805157661,-33.875875398516655,99.19999694824219],[151.28030380234122,-33.8760044798255,98.5999984741211],[151.28029642626643,-33.876073798164725,98.4000015258789],[151.2802628148347,-33.876198353245854,98.19999694824219],[151.28021369688213,-33.876373367384076,98.19999694824219],[151.28017933107913,-33.87656506150961,97.80000305175781],[151.28014035522938,-33.876710403710604,98],[151.28012476488948,-33.87681190855801,98.19999694824219],[151.28008168190718,-33.87698935344815,98.4000015258789],[151.28007824532688,-33.877040818333626,98.4000015258789],[151.28004756756127,-33.87722077779472,98.5999984741211],[151.28004823811352,-33.877250449731946,98.80000305175781],[151.2800085078925,-33.87739755213261,98.80000305175781],[151.27999442629516,-33.87744817882776,99.19999694824219],[151.279983446002,-33.87750366702676,99.19999694824219],[151.2799678556621,-33.87768840417266,99.5999984741211],[151.2799554504454,-33.877773229032755,99.5999984741211],[151.2799392733723,-33.8778296392411,99.4000015258789],[151.27993382513523,-33.87789971195161,99.5999984741211],[151.27990381792188,-33.878031224012375,99.4000015258789],[151.27989736385643,-33.87804958038032,99.19999694824219],[151.27989074215293,-33.87810523621738,99.4000015258789],[151.27988227643073,-33.87814236804843,99.4000015258789],[151.27987096086144,-33.87831436470151,99.19999694824219],[151.27981991507113,-33.878461718559265,98.4000015258789],[151.2797875609249,-33.878578981384635,98.19999694824219],[151.27977917902172,-33.87860991060734,98.19999694824219],[151.27977456897497,-33.87862508185208,98],[151.27976350486279,-33.878692891448736,97.80000305175781],[151.27975570969284,-33.8787395786494,98],[151.2797519378364,-33.87884259223938,97.4000015258789],[151.27972587011755,-33.87892465107143,97.19999694824219],[151.27971790730953,-33.878953820094466,97.19999694824219],[151.27971706911922,-33.879002602770925,97],[151.2797157280147,-33.87902179732919,97],[151.2796961143613,-33.879179041832685,96.5999984741211],[151.27972612157464,-33.879256658256054,96],[151.2797389458865,-33.879274763166904,96],[151.2798557896167,-33.87938163243234,96.5999984741211],[151.27996576018631,-33.87942597270012,97],[151.2800027243793,-33.8794320076704,97.4000015258789],[151.28001789562404,-33.87943477369845,97.4000015258789],[151.28016876988113,-33.87944801710546,98],[151.28018888644874,-33.879451118409634,98.19999694824219],[151.28027513623238,-33.87946268543601,98.4000015258789],[151.28036205656826,-33.87947584502399,99],[151.28040773794055,-33.87947944924235,99.19999694824219],[151.28049633465707,-33.879481041803956,99.4000015258789],[151.28068073652685,-33.87949948199093,99.80000305175781],[151.28079330548644,-33.87951381504536,100.19999694824219],[151.2808320298791,-33.87952269986272,100.4000015258789],[151.2810543179512,-33.879558155313134,100.80000305175781],[151.2810979038477,-33.879561591893435,100.80000305175781],[151.28124953247607,-33.879623198881745,100.80000305175781],[151.28135933540761,-33.87972805649042,100.80000305175781],[151.28138540312648,-33.87986660934985,99.5999984741211],[151.28137551248074,-33.879955960437655,99.19999694824219],[151.28135363571346,-33.88007582165301,98.4000015258789],[151.28136838786304,-33.880138685926795,98],[151.28142739646137,-33.880243208259344,97.5999984741211],[151.28152563236654,-33.88037748634815,97],[151.28155203536153,-33.880399111658335,96.80000305175781],[151.28157382830977,-33.880414701998234,96.5999984741211],[151.28166946582496,-33.880492486059666,95.80000305175781],[151.28176879137754,-33.88057320378721,95.19999694824219],[151.28182210028172,-33.880617963150144,94.80000305175781],[151.2818389479071,-33.88063673861325,94.5999984741211],[151.28200331702828,-33.88077554292977,93.5999984741211],[151.28202720545232,-33.880791552364826,93.4000015258789],[151.28212259151042,-33.88087335973978,92.4000015258789],[151.28223390318453,-33.88096187263727,91.80000305175781],[151.2822929956019,-33.88101861812174,91.4000015258789],[151.28241729922593,-33.88113764114678,90.5999984741211],[151.2824457976967,-33.881172677502036,90.19999694824219],[151.28252944909036,-33.88134291395545,89.4000015258789],[151.2825435306877,-33.8814199436456,89.19999694824219],[151.2825599592179,-33.881546929478645,88.80000305175781],[151.28255476243794,-33.88174859806895,88],[151.2825641501695,-33.88184800744057,87.5999984741211],[151.28256029449403,-33.88198195025325,87],[151.28256591036916,-33.88208228163421,86.5999984741211],[151.28255157731473,-33.88225159607828,85.80000305175781],[151.28255560062826,-33.882275400683284,85.80000305175781],[151.28255803138018,-33.88244873844087,85],[151.28255635499954,-33.882471872493625,84.80000305175781],[151.2825705204159,-33.88260154053569,84],[151.28256674855947,-33.882650658488274,83.80000305175781],[151.2825673352927,-33.88277512975037,83],[151.28256825730205,-33.882850147783756,82.5999984741211],[151.28255903720856,-33.882941426709294,82],[151.28254051320255,-33.88303957879543,81.5999984741211],[151.28251628950238,-33.88315977528691,80.80000305175781],[151.28251092508435,-33.88320788741112,80.4000015258789],[151.2825240008533,-33.88330469839275,80],[151.28253548406065,-33.88340109027922,79.4000015258789],[151.2825583666563,-33.88349479995668,78.80000305175781],[151.2825890444219,-33.8835886772722,78.19999694824219],[151.28262768499553,-33.88365799561143,78],[151.28272072412074,-33.88376746326685,77.19999694824219],[151.2827756255865,-33.88383636251092,76.80000305175781],[151.28286170773208,-33.88395370915532,76.19999694824219],[151.2828897871077,-33.8840033300221,75.80000305175781],[151.2829622067511,-33.88409921899438,75],[151.2830454390496,-33.88421765528619,74.19999694824219],[151.28306228667498,-33.8842398673296,74],[151.28316085785627,-33.88438177295029,73.19999694824219],[151.28317393362522,-33.884406331926584,73],[151.2832838203758,-33.884534910321236,72],[151.28331919200718,-33.884577322751284,72],[151.28342974931002,-33.884735656902194,71.5999984741211],[151.28346445038915,-33.88477748259902,71.5999984741211],[151.28358841873705,-33.88488879427314,70.80000305175781],[151.2836070265621,-33.884904803708196,70.80000305175781],[151.283696629107,-33.884991807863116,70.19999694824219],[151.28374113701284,-33.88503757305443,69.5999984741211],[151.2837814539671,-33.885074369609356,69.19999694824219],[151.2838742416352,-33.885171012952924,68.5999984741211],[151.28389092162251,-33.885183753445745,68.5999984741211],[151.28391749225557,-33.8852119166404,68.4000015258789],[151.2840309832245,-33.88531601987779,68],[151.2840975355357,-33.88542347587645,67.5999984741211],[151.28410424105823,-33.88543965294957,67.5999984741211],[151.28411455079913,-33.88546831905842,67.4000015258789],[151.28414925187826,-33.88552405871451,67],[151.28416886553168,-33.88555674813688,66.5999984741211],[151.2841921672225,-33.88560460880399,66.5999984741211],[151.2842082604766,-33.88564978726208,66.4000015258789],[151.28421127796173,-33.88566688634455,66.4000015258789],[151.28422477282584,-33.88570351526141,66.19999694824219],[151.2842756509781,-33.8858300819993,65.4000015258789],[151.28428059630096,-33.88584701344371,65.19999694824219],[151.28429660573602,-33.88588288798928,65],[151.28432787023485,-33.88600643724203,64.80000305175781],[151.2843420356512,-33.886108696460724,64.19999694824219],[151.284365253523,-33.88616921380162,63.599998474121094],[151.28437522798777,-33.886228473857045,63.20000076293945],[151.28438444808125,-33.88631656765938,62.79999923706055],[151.28439785912633,-33.88639544136822,62.20000076293945],[151.2844038940966,-33.88645067811012,62],[151.2844144552946,-33.886559307575226,61.599998474121094],[151.28441571258008,-33.88661513105035,61.400001525878906],[151.28441370092332,-33.88666206970811,61.20000076293945],[151.28438285551965,-33.88675309717655,60.599998474121094],[151.28431965596974,-33.88686742633581,60.20000076293945],[151.2843037303537,-33.88688108883798,60],[151.28418470732868,-33.88698167167604,59.599998474121094],[151.28408756107092,-33.887073788791895,59],[151.2840629182756,-33.88710714876652,58.79999923706055],[151.28395982086658,-33.88717328198254,58.400001525878906],[151.2838818691671,-33.88726414181292,58],[151.28385320305824,-33.887290796265006,57.79999923706055],[151.2837360240519,-33.8874052092433,57.20000076293945],[151.28364784643054,-33.887486262246966,57],[151.28358070738614,-33.887545857578516,56.400001525878906],[151.28351817838848,-33.887603441253304,56.400001525878906],[151.28347266465425,-33.88764685951173,56],[151.28342321142554,-33.887681644409895,55.79999923706055],[151.28332950174809,-33.887826735153794,55],[151.2832872569561,-33.88793025165796,54.79999923706055],[151.28327895887196,-33.8879628572613,54.599998474121094],[151.28328164108098,-33.88802924193442,54],[151.28328122198582,-33.888051034882665,53.79999923706055],[151.28330276347697,-33.8881182577461,53.400001525878906],[151.2833535578102,-33.888249937444925,53],[151.28337057307363,-33.888279274106026,52.79999923706055],[151.2834254745394,-33.888396453112364,52],[151.28345782868564,-33.88844917528331,51.599998474121094],[151.28350149840117,-33.8885516859591,51.20000076293945],[151.28353192470968,-33.888634499162436,50.599998474121094],[151.28356461413205,-33.888744385913014,50],[151.28359738737345,-33.888838766142726,49.599998474121094],[151.2835964653641,-33.88892593793571,49],[151.28358732908964,-33.88898067176342,48.400001525878906],[151.28354265354574,-33.88907069340348,47.79999923706055],[151.2835148256272,-33.88912467285991,47.400001525878906],[151.28344332799315,-33.889214443042874,46.79999923706055],[151.28339940682054,-33.889263896271586,46.400001525878906],[151.28325666300952,-33.88941208831966,45.599998474121094],[151.28322456032038,-33.88945022597909,45.20000076293945],[151.28312372602522,-33.88956321403384,44.20000076293945],[151.28308072686195,-33.88960403390229,44],[151.28296530805528,-33.88971517793834,43.599998474121094],[151.28289464861155,-33.889789106324315,43],[151.2828255817294,-33.889852138236165,42.79999923706055],[151.28266557119787,-33.88994702138007,42],[151.2826429400593,-33.88995599001646,42],[151.28245376050472,-33.88999454677105,41.20000076293945],[151.28236792981625,-33.889977782964706,40.79999923706055],[151.28225963562727,-33.88993822038174,39.599998474121094],[151.2821072526276,-33.88987828977406,39],[151.2820337433368,-33.88985331170261,38.400001525878906],[151.28196023404598,-33.88982984237373,37.599998474121094],[151.28192042000592,-33.889821292832494,37.400001525878906],[151.2818778399378,-33.889808217063546,37.20000076293945],[151.28175823017955,-33.88978499919176,36.599998474121094],[151.28168371506035,-33.88978013768792,36.400001525878906],[151.28157315775752,-33.889768151566386,36.20000076293945],[151.28153518773615,-33.88976630754769,36],[151.28142890520394,-33.88976966030896,35.599998474121094],[151.28128255717456,-33.8897726777941,35.20000076293945],[151.28124534152448,-33.889775360003114,35],[151.28117250278592,-33.889777874574065,34.599998474121094],[151.2809573393315,-33.88979572802782,34],[151.28088575787842,-33.889807630330324,33.400001525878906],[151.28084803931415,-33.88981458730996,33.20000076293945],[151.28077536821365,-33.889825819060206,32.79999923706055],[151.28059356473386,-33.88984685763717,32.599998474121094],[151.28035409376025,-33.88982883654535,32.79999923706055],[151.28017539158463,-33.889776868745685,32.599998474121094],[151.28000708296895,-33.88970545493066,33.400001525878906],[151.27987104468048,-33.889617612585425,34.20000076293945],[151.2798031512648,-33.889570254832506,34.400001525878906],[151.2797495070845,-33.889541840180755,34.599998474121094],[151.2796765845269,-33.88950730673969,34.79999923706055],[151.2796559650451,-33.8894909620285,34.79999923706055],[151.2794913444668,-33.88938778080046,35],[151.2793980538845,-33.88934226706624,35.599998474121094],[151.27935564145446,-33.8893358130008,35.599998474121094],[151.27924969419837,-33.88929541222751,36.20000076293945],[151.2790695670992,-33.889246713370085,36.599998474121094],[151.27900519408286,-33.8892216514796,37],[151.27895071171224,-33.8891991879791,37],[151.2788253184408,-33.88915895484388,37.599998474121094],[151.27879137173295,-33.88914839364588,37.599998474121094],[151.2787180300802,-33.889122661203146,38],[151.27864041365683,-33.88909022323787,38.20000076293945],[151.27856757491827,-33.88906566426158,38.400001525878906],[151.27854871563613,-33.889062982052565,38.400001525878906],[151.27840043976903,-33.88902668841183,38.79999923706055],[151.27836649306118,-33.889019982889295,39],[151.2781820911914,-33.8889782410115,39.400001525878906],[151.278109671548,-33.88896550051868,39.599998474121094],[151.2779965158552,-33.888954520225525,39.599998474121094],[151.27795049920678,-33.88895217329264,39.79999923706055],[151.27784254029393,-33.88892342336476,40],[151.2778223399073,-33.88892007060349,40],[151.2776650954038,-33.8889142870903,40],[151.27764573320746,-33.88890992850065,40.20000076293945],[151.27747281454504,-33.8889145385474,40],[151.2774328328669,-33.888912023976445,40],[151.27729629166424,-33.888901714235544,40.599998474121094],[151.2772515323013,-33.888904647901654,40.599998474121094],[151.27715044654906,-33.88890246860683,40.20000076293945],[151.277084229514,-33.88889861293137,40.400001525878906],[151.27691633999348,-33.88891520909965,40.400001525878906],[151.2767491210252,-33.8889541849494,40.20000076293945],[151.27662666141987,-33.88899668119848,40.20000076293945],[151.27658265642822,-33.88901730068028,40.20000076293945],[151.27653219737113,-33.88904160819948,40.20000076293945],[151.27641493454576,-33.88910673558712,40],[151.27638316713274,-33.88912777416408,40],[151.2763550877571,-33.889151494950056,40],[151.27630437724292,-33.889196338132024,40],[151.2762337177992,-33.88925425708294,40.20000076293945],[151.27612148411572,-33.88934092596173,40.400001525878906],[151.27600874751806,-33.88943362981081,40.400001525878906],[151.2758811749518,-33.889541840180755,40.599998474121094],[151.27583172172308,-33.8895876891911,40.599998474121094],[151.2757498305291,-33.88974191620946,40.400001525878906],[151.27581764012575,-33.889732947573066,40.599998474121094],[151.27595962956548,-33.88963798061013,40.79999923706055],[151.27605065703392,-33.889550222083926,40.400001525878906],[151.2761177122593,-33.889476880431175,40.400001525878906],[151.2762855179608,-33.889343943446875,40],[151.2763420958072,-33.88929574750364,40],[151.27652088180184,-33.88918795622885,40],[151.27662473358214,-33.88914152048528,40],[151.27675373107195,-33.889094330370426,40],[151.27688214182854,-33.889074716717005,40],[151.2770538032055,-33.88903792016208,39.79999923706055],[151.27712379209697,-33.88903046026826,40],[151.27726133912802,-33.889031717553735,40],[151.27745336852968,-33.88903540559113,40],[151.27767079509795,-33.889038590714335,40],[151.2777689471841,-33.88904705643654,40],[151.27795896492898,-33.889065412804484,39.79999923706055],[151.27804613672197,-33.88907589018345,39.599998474121094],[151.27828787080944,-33.88911654241383,39.20000076293945],[151.27837043255568,-33.889138754457235,39.20000076293945],[151.27846020273864,-33.889155853539705,38.599998474121094],[151.27848107367754,-33.889161720871925,38.599998474121094],[151.278519295156,-33.88917261734605,38.400001525878906],[151.27862096764147,-33.889191979542375,38.20000076293945],[151.27869724296033,-33.88921092264354,37.599998474121094],[151.27880486659706,-33.88925593346357,37.400001525878906],[151.27886412665248,-33.88928501866758,37.400001525878906],[151.27889212220907,-33.88929482549429,37.400001525878906],[151.27895289100707,-33.8893186300993,37.20000076293945],[151.2790409848094,-33.88935240916908,36.599998474121094],[151.2790613528341,-33.88935970142484,36.400001525878906],[151.27912522293627,-33.88939943164587,36.20000076293945],[151.27917777746916,-33.88941988348961,36.20000076293945],[151.27932521514595,-33.889472018927336,35.400001525878906],[151.27938606776297,-33.889498924836516,35.20000076293945],[151.27943996340036,-33.88952876441181,35.20000076293945],[151.27948405221105,-33.88955919072032,35],[151.27958773635328,-33.88962473720312,34.79999923706055],[151.27963936887681,-33.88965172693133,34.400001525878906],[151.27980323508382,-33.889713417738676,34.20000076293945],[151.27982175908983,-33.88972322456539,34.20000076293945],[151.2799326516688,-33.88982682488859,34],[151.27993382513523,-33.889852557331324,34],[151.27986961975694,-33.890001168474555,33.79999923706055],[151.27976057119668,-33.89010694809258,33.400001525878906],[151.2796731479466,-33.890139386057854,33],[151.2795793544501,-33.89015967026353,32.79999923706055],[151.27948589622974,-33.890173668041825,32.79999923706055],[151.27934390679002,-33.890185318887234,33],[151.27920602448285,-33.89020317234099,33.20000076293945],[151.27911223098636,-33.89021557755768,33.400001525878906],[151.2790657952428,-33.89022035524249,33.400001525878906],[151.2788467761129,-33.89023460447788,33.599998474121094],[151.27872976474464,-33.89025497250259,33.79999923706055],[151.27861769869924,-33.89025899581611,33.79999923706055]]},"properties":{"name":"City2surf"}}]}
