{"type":"FeatureCollection","features":[{"type":"Feature","geometry":{"type":"LineString","coordinates":[[151.2964084558189,-33.7544812168926,11],[151.29640619270504,-33.75449228100479,11],[151.29637618549168,-33.75460275448859,10.600000381469727],[151.29633595235646,-33.7547299079597,11],[151.29628985188901,-33.75486510805786,11.399999618530273],[151.29628197290003,-33.75489159487188,11.600000381469727],[151.296276608482,-33.75494683161378,11.800000190734863],[151.29627878777683,-33.754976922646165,11.800000190734863],[151.2962866667658,-33.75506334006786,12],[151.29628616385162,-33.75509192235768,12],[151.29629965871572,-33.75520742498338,12.600000381469727],[151.29632991738617,-33.75528210774064,12.800000190734863],[151.2963598407805,-33.755387384444475,13],[151.29636931233108,-33.75549986958504,13.600000381469727],[151.29638540558517,-33.75558544881642,13.800000190734863],[151.29639253020287,-33.75561721622944,13.800000190734863],[151.29641289822757,-33.755704052746296,14.199999809265137],[151.29642128013074,-33.75578929670155,14.800000190734863],[151.2964196037501,-33.75581821426749,15],[151.29643561318517,-33.75592214986682,15.199999809265137],[151.29643687047064,-33.7559472117573,15.399999618530273],[151.29644449800253,-33.75603161752224,15.800000190734863],[151.2964629381895,-33.75623328611255,16.200000762939453],[151.2964592501521,-33.75628718174994,16.399999618530273],[151.29645086824894,-33.756337724626064,16.799999237060547],[151.2964396364987,-33.75641240738332,17],[151.29643536172807,-33.75643461942673,17.200000762939453],[151.29641625098884,-33.75650745816529,17.399999618530273],[151.29638481885195,-33.75669026747346,18],[151.29636243917048,-33.756776014342904,18.600000381469727],[151.2963394727558,-33.75691842287779,19.200000762939453],[151.29631826654077,-33.756988579407334,19.600000381469727],[151.2962935399264,-33.75709989108145,20],[151.29625523462892,-33.757271468639374,20.600000381469727],[151.2962160911411,-33.757392670959234,21.200000762939453],[151.2962036859244,-33.75744958408177,21.600000381469727],[151.29619899205863,-33.75747942365706,21.600000381469727],[151.2961743492633,-33.757667262107134,22.399999618530273],[151.29616144113243,-33.757726941257715,22.799999237060547],[151.2961544841528,-33.75775552354753,23],[151.29612087272108,-33.757922910153866,23.799999237060547],[151.2961132451892,-33.757976135239005,24.200000762939453],[151.29609589464962,-33.758106557652354,24.799999237060547],[151.2960987444967,-33.758130529895425,25],[151.29610176198184,-33.758181408047676,25],[151.29610343836248,-33.75835935585201,26.200000762939453],[151.29608801566064,-33.75849924981594,27.200000762939453],[151.29608717747033,-33.758524814620614,27.200000762939453],[151.29606286995113,-33.75867761671543,28.200000762939453],[151.29605742171407,-33.758756993338466,29],[151.29604820162058,-33.758799992501736,29.399999618530273],[151.29602515138686,-33.75892320647836,30.399999618530273],[151.29599413834512,-33.759027644991875,31.600000381469727],[151.29596756771207,-33.75913384370506,32.79999923706055],[151.29593906924129,-33.75923761166632,34],[151.2959348782897,-33.75928094610572,34.400001525878906],[151.29592716693878,-33.75933366827667,35.20000076293945],[151.29589648917317,-33.75942762941122,36.599998474121094],[151.29588961601257,-33.75944657251239,36.79999923706055],[151.29586815834045,-33.75953131355345,37.79999923706055],[151.2958518974483,-33.759608594700694,39],[151.29583194851875,-33.759674560278654,40],[151.2958212196827,-33.7596945092082,40.20000076293945],[151.29578551277518,-33.75979056581855,41.20000076293945],[151.29577361047268,-33.759858878329396,41.79999923706055],[151.29576740786433,-33.759904308244586,42.20000076293945],[151.29575232043862,-33.76003699377179,43],[151.2957482971251,-33.760061552748084,43.20000076293945],[151.2957432679832,-33.76008468680084,43.20000076293945],[151.29571854136884,-33.7602661550045,43.79999923706055],[151.29571728408337,-33.76030806452036,43.79999923706055],[151.29570554941893,-33.76050604507327,43.79999923706055],[151.2957131769508,-33.76057687215507,43.400001525878906],[151.29572382196784,-33.760625487193465,43],[151.29573513753712,-33.76072196289897,42.20000076293945],[151.2957467045635,-33.760839477181435,41],[151.29574586637318,-33.76094341278076,39.79999923706055],[151.29575114697218,-33.76101792789996,39.20000076293945],[151.29575265571475,-33.7610434088856,39],[151.29575232043862,-33.76106888987124,38.599998474121094],[151.29575232043862,-33.76117341220379,37.20000076293945],[151.29573966376483,-33.76127064228058,36],[151.29573673009872,-33.761294949799776,35.79999923706055],[151.29571678116918,-33.76139343716204,34.79999923706055],[151.29570613615215,-33.76146677881479,33.79999923706055],[151.2956983409822,-33.7614921759814,33.599998474121094],[151.2956914678216,-33.76156006939709,32.79999923706055],[151.2956618797034,-33.76166107133031,31.799999237060547],[151.29565064795315,-33.761710273101926,31.200000762939453],[151.29564142785966,-33.76175704412162,30.600000381469727],[151.2956169527024,-33.761850418522954,29.399999618530273],[151.29559826105833,-33.76192267052829,28.200000762939453],[151.29559281282127,-33.76194731332362,28],[151.29556498490274,-33.76201696693897,27.200000762939453],[151.2955458741635,-33.76210573129356,26],[151.29554151557386,-33.762156357988715,25.399999618530273],[151.2955331336707,-33.762202039361,24.799999237060547],[151.29551662132144,-33.762300023809075,23.600000381469727],[151.29550086334348,-33.76238954253495,22.799999237060547],[151.29549491219223,-33.762414772063494,22.399999618530273],[151.29548409953713,-33.76246405765414,21.799999237060547],[151.2954771425575,-33.76249020919204,21.399999618530273],[151.2954665813595,-33.762515438720584,21.200000762939453],[151.29537999629974,-33.762569669634104,20.200000762939453],[151.29534831270576,-33.76257193274796,20],[151.29521990194917,-33.76256790943444,19.600000381469727],[151.29499359056354,-33.76255709677935,19.200000762939453],[151.29492879845202,-33.76255374401808,19.200000762939453],[151.29476794973016,-33.76253320835531,19],[151.29464657977223,-33.76251585781574,18.600000381469727],[151.2944154907018,-33.76249171793461,18.200000762939453],[151.29438648931682,-33.76248987391591,18],[151.29432228393853,-33.7624747864902,17.799999237060547],[151.2942006625235,-33.76246045343578,17.600000381469727],[151.2940849084407,-33.762444611638784,17.399999618530273],[151.29386404529214,-33.76241016201675,17.200000762939453],[151.29379740916193,-33.76240379177034,17],[151.29369473084807,-33.762390380725265,16.799999237060547],[151.2935296073556,-33.76236875541508,16.399999618530273],[151.29346707835793,-33.76236389391124,16.200000762939453],[151.29337672144175,-33.76234654337168,16.200000762939453],[151.29322618246078,-33.76232550479472,16.200000762939453],[151.29308100789785,-33.76231888309121,16.200000762939453],[151.29299618303776,-33.76231980510056,16.200000762939453],[151.29276911728084,-33.762337071821094,16.799999237060547],[151.29274011589587,-33.7623365689069,16.799999237060547],[151.29255579784513,-33.7623521592468,16.799999237060547],[151.29246250726283,-33.76236213371158,16.799999237060547],[151.29231196828187,-33.762390883639455,16.600000381469727],[151.2921637762338,-33.76242524944246,16.399999618530273],[151.2919526360929,-33.762453915551305,16.399999618530273],[151.29170939326286,-33.762479815632105,16.200000762939453],[151.29168022423983,-33.76248199492693,16.200000762939453],[151.29146338440478,-33.76252616755664,15.800000190734863],[151.29143002443016,-33.76252943649888,15.800000190734863],[151.29136866889894,-33.76253773458302,15.800000190734863],[151.29115090705454,-33.76256857998669,15.399999618530273],[151.29103523679078,-33.76259456388652,15.399999618530273],[151.29086215049028,-33.76262230798602,15],[151.29070331342518,-33.76263848505914,15],[151.29067171365023,-33.76264267601073,14.800000190734863],[151.29054967314005,-33.76266815699637,14.399999618530273],[151.29048462957144,-33.76267662271857,14.399999618530273],[151.29031623713672,-33.76269129104912,14.199999809265137],[151.29021691158414,-33.76269908621907,14.399999618530273],[151.28999764099717,-33.76273412257433,14.600000381469727],[151.28981634043157,-33.762766141444445,14.800000190734863],[151.28958977758884,-33.76280251890421,14.800000190734863],[151.2895581778139,-33.76280930824578,14.800000190734863],[151.28933270461857,-33.762850211933255,14.800000190734863],[151.28927495330572,-33.76285255886614,14.800000190734863],[151.28907412290573,-33.76287636347115,15],[151.28886323422194,-33.76291592605412,14.800000190734863],[151.28880665637553,-33.76292824745178,15],[151.2885867152363,-33.763003097847104,14.800000190734863],[151.2883578054607,-33.76307333819568,14.600000381469727],[151.2883039098233,-33.763089096173644,14.399999618530273],[151.2880816217512,-33.76314961351454,14.199999809265137],[151.28805505111814,-33.76315237954259,14.199999809265137],[151.28802529536188,-33.76315766014159,14],[151.28787240944803,-33.763186912983656,13.800000190734863],[151.2877544760704,-33.76320568844676,13.399999618530273],[151.28764048218727,-33.763222116976976,13.399999618530273],[151.2875771149993,-33.763235695660114,13.600000381469727],[151.28734309226274,-33.76328565180302,14.600000381469727],[151.28728752024472,-33.76330082304776,14.800000190734863],[151.28717335872352,-33.76333368010819,15.199999809265137],[151.28705324605107,-33.76335731707513,15.399999618530273],[151.28699130378664,-33.76336544752121,15.600000381469727],[151.2869320437312,-33.763372572138906,15.600000381469727],[151.28684679977596,-33.76338589936495,15.800000190734863],[151.28667111508548,-33.76340609975159,16],[151.28643005155027,-33.763416074216366,16],[151.28630465827882,-33.763421438634396,15.600000381469727],[151.2861764151603,-33.7634452432394,15.399999618530273],[151.2860982120037,-33.76344591379166,15.399999618530273],[151.2860585656017,-33.76345454715192,15.399999618530273],[151.28592470660806,-33.76347156241536,15.399999618530273],[151.2858820427209,-33.76348128542304,15.399999618530273],[151.2858624290675,-33.763488410040736,15.399999618530273],[151.28584323450923,-33.763494696468115,15.399999618530273],[151.28582328557968,-33.76350282691419,15.399999618530273],[151.2858037557453,-33.763508358970284,15.199999809265137],[151.28576586954296,-33.763518165796995,15.199999809265137],[151.2857284862548,-33.76352587714791,15.199999809265137],[151.28566402941942,-33.7635369412601,15.199999809265137],[151.2855328526348,-33.763546999543905,15],[151.28548884764314,-33.76351875253022,15],[151.28538348712027,-33.76355538144708,15],[151.28533462062478,-33.76359418965876,14.800000190734863],[151.28531400114298,-33.76362252049148,14.800000190734863],[151.2853024341166,-33.763637356460094,14.800000190734863],[151.28521744161844,-33.76377775333822,14],[151.2851935531944,-33.76382729038596,13.800000190734863],[151.28515306860209,-33.76391571946442,13.199999809265137],[151.28512549214065,-33.76396894454956,12.800000190734863],[151.28511409275234,-33.76398361288011,12.800000190734863],[151.28504787571728,-33.76405251212418,12.399999618530273],[151.28491770476103,-33.764095176011324,12.199999809265137],[151.28478560596704,-33.764152340590954,11.800000190734863],[151.28476733341813,-33.76416055485606,11.800000190734863],[151.28470086492598,-33.76416105777025,11.800000190734863],[151.28457597456872,-33.76415158621967,11.800000190734863],[151.28435938619077,-33.764144126325846,11.600000381469727],[151.28432342782617,-33.76414395868778,11.600000381469727],[151.2841726373881,-33.76414421014488,11.800000190734863],[151.2840811908245,-33.764115460217,11.800000190734863],[151.28396183252335,-33.7640911526978,12],[151.28375203348696,-33.764058127999306,12],[151.2835888378322,-33.764032227918506,12],[151.28355874679983,-33.764025354757905,12],[151.28344324417412,-33.7640012986958,12],[151.28332673572004,-33.7639825232327,12],[151.28310905769467,-33.76396416686475,11.600000381469727],[151.2830798048526,-33.76395729370415,11.600000381469727],[151.28284796141088,-33.76392066478729,11.800000190734863],[151.28281770274043,-33.763918820768595,11.800000190734863],[151.28263422288,-33.76388529315591,12.199999809265137],[151.28241361118853,-33.76385696232319,12.199999809265137],[151.28235728479922,-33.76384832896292,12.199999809265137],[151.28213139250875,-33.76379401423037,12.199999809265137],[151.28190223127604,-33.7637700419873,12],[151.28185177221894,-33.76376124098897,12],[151.2816333398223,-33.76373617909849,11.800000190734863],[151.28160333260894,-33.76372997649014,11.800000190734863],[151.2813786137849,-33.763696029782295,11.600000381469727],[151.28115506842732,-33.7636611610651,11.399999618530273],[151.28109706565738,-33.76364967785776,11.399999618530273],[151.28086388111115,-33.763618748635054,11.600000381469727],[151.2806240748614,-33.76359133981168,12],[151.28045802935958,-33.76356912776828,12.199999809265137],[151.28027664497495,-33.76354658044875,12.399999618530273],[151.2801681831479,-33.76353207975626,12.399999618530273],[151.28005888313055,-33.76354398205876,12.399999618530273],[151.28005368635058,-33.76355563290417,12.399999618530273],[151.2800582125783,-33.76356594264507,12.399999618530273],[151.28013214096427,-33.76358882524073,12.399999618530273],[151.2803227454424,-33.763588489964604,12.399999618530273],[151.28052039071918,-33.76359863206744,12],[151.2807403318584,-33.763630483299494,11.800000190734863],[151.2807654775679,-33.76363769173622,11.800000190734863],[151.2809795513749,-33.76366501674056,11.399999618530273],[151.2810117378831,-33.763675494119525,11.399999618530273],[151.2812263984233,-33.763708183541894,11],[151.28125724382699,-33.76371522434056,11],[151.28136872313917,-33.76373332925141,11],[151.28159595653415,-33.76374984160066,11.199999809265137],[151.28168128430843,-33.76375252380967,11.199999809265137],[151.28182637505233,-33.76380038447678,11.399999618530273],[151.28185202367604,-33.76380197703838,11.399999618530273],[151.28204237669706,-33.76383936032653,11.600000381469727],[151.28225686959922,-33.76388160511851,11.600000381469727],[151.2822877150029,-33.763889065012336,11.600000381469727],[151.2825168762356,-33.76390214078128,11.600000381469727],[151.28258024342358,-33.76391236670315,11.600000381469727],[151.2828043755144,-33.76395368948579,11.600000381469727],[151.28290235996246,-33.763966681435704,11.600000381469727],[151.28303286619484,-33.76397422514856,11.199999809265137],[151.28314577043056,-33.76398487016559,11.199999809265137],[151.28339278511703,-33.76402845606208,12],[151.28362110815942,-33.76406676135957,12],[151.28384507261217,-33.764094254001975,12.399999618530273],[151.2839006446302,-33.7641085870564,12.399999618530273],[151.28395713865757,-33.76412367448211,12.600000381469727],[151.28414187580347,-33.76416969113052,12.199999809265137],[151.2841733917594,-33.76417849212885,12.199999809265137],[151.28440196625888,-33.764224257320166,12.199999809265137],[151.28461771644652,-33.76424445770681,12],[151.28468141891062,-33.76425392925739,12.199999809265137],[151.2848956603557,-33.76425074413419,12.800000190734863],[151.28492223098874,-33.76425485126674,13],[151.2849739473313,-33.764277063310146,13.199999809265137],[151.28505474887788,-33.764345375820994,13.399999618530273],[151.2851938046515,-33.764434810727835,12.399999618530273],[151.28525130450726,-33.76446356065571,11.800000190734863],[151.2853079661727,-33.764488622546196,11.199999809265137],[151.28535968251526,-33.76451469026506,10.600000381469727],[151.28549630753696,-33.76456405967474,10.399999618530273],[151.28568900749087,-33.764651231467724,10],[151.2857191823423,-33.764665480703115,9.800000190734863],[151.28580342046916,-33.76470177434385,9.600000381469727],[151.28591305576265,-33.76474133692682,9.399999618530273],[151.28609192557633,-33.76484401524067,9],[151.28613408654928,-33.7648771237582,9],[151.2863194104284,-33.764993799850345,8.800000190734863],[151.28642887808383,-33.7650515511632,8.600000381469727],[151.2864578794688,-33.765068063512444,8.600000381469727],[151.2866458017379,-33.76516797579825,8.399999618530273],[151.28667530603707,-33.76517887227237,8.399999618530273],[151.2868752144277,-33.76526369713247,8],[151.28707143478096,-33.765361262485385,7.800000190734863],[151.28710211254656,-33.765379283577204,7.599999904632568],[151.2871656473726,-33.76540434546769,7.599999904632568],[151.28732959739864,-33.76546327024698,7.199999809265137],[151.28755138255656,-33.76551557332277,7.199999809265137],[151.28757175058126,-33.76551641151309,7],[151.28770351409912,-33.76553602516651,6.599999904632568],[151.28787802532315,-33.76555982977152,6.599999904632568],[151.28804113715887,-33.76559461466968,6.599999904632568],[151.28819787874818,-33.76560090109706,6.599999904632568],[151.28829552792013,-33.76559746451676,6.599999904632568],[151.28837515600026,-33.765613390132785,6.599999904632568],[151.28839820623398,-33.76561816781759,6.599999904632568],[151.28859140910208,-33.76564113423228,6.800000190734863],[151.28880959004164,-33.76566686667502,6.199999809265137],[151.2888557743281,-33.76567332074046,6],[151.28897303715348,-33.765691090375185,5.800000190734863],[151.2890806607902,-33.765710201114416,5.599999904632568],[151.28918811678886,-33.76572788693011,5.599999904632568],[151.28932558000088,-33.76575973816216,5.400000095367432],[151.28951970487833,-33.76578949391842,5.199999809265137],[151.2897109799087,-33.76577130518854,5],[151.28988389857113,-33.76572210341692,5],[151.28990158438683,-33.765717409551144,5],[151.29000711254776,-33.76568455249071,5.199999809265137],[151.2900780234486,-33.76567332074046,5.199999809265137],[151.290176929906,-33.76563677564263,5.199999809265137],[151.2902345135808,-33.76561841927469,5.400000095367432],[151.29033140838146,-33.76558279618621,5.599999904632568],[151.29041866399348,-33.765558740124106,5.599999904632568],[151.29059585742652,-33.76550526358187,5.599999904632568],[151.29061572253704,-33.76550065353513,5.599999904632568],[151.29080892540514,-33.76543862745166,6],[151.29094060510397,-33.765409206971526,6],[151.29102794453502,-33.76538590528071,5.800000190734863],[151.29105099476874,-33.76538121141493,5.800000190734863],[151.29123103804886,-33.76532966271043,6],[151.29137311130762,-33.765277191996574,6],[151.2915506400168,-33.765225894749165,5.800000190734863],[151.29165457561612,-33.76519865356386,5.800000190734863],[151.29187636077404,-33.76512547954917,5.599999904632568],[151.29191055893898,-33.76511282287538,5.599999904632568],[151.2921471800655,-33.76503034494817,5.599999904632568],[151.29220518283546,-33.765007043257356,5.599999904632568],[151.29230610094965,-33.764980137348175,6],[151.29240157082677,-33.7649545725435,6],[151.2925229407847,-33.76491978764534,5.800000190734863],[151.29266794770956,-33.76488517038524,6],[151.29269669763744,-33.7648803088814,6],[151.29290658049285,-33.764806212857366,6.199999809265137],[151.29293650388718,-33.76479992642999,6.199999809265137],[151.29312124103308,-33.76474033109844,6.400000095367432],[151.29317790269852,-33.76472390256822,6.599999904632568],[151.29330061376095,-33.76468534581363,6.599999904632568],[151.2935052998364,-33.76461619511247,7.199999809265137],[151.29353530704975,-33.764608819037676,7.199999809265137],[151.2937455251813,-33.764547212049365,7.199999809265137],[151.29377578385174,-33.76454142853618,7.199999809265137],[151.29396839998662,-33.76452198252082,7.199999809265137],[151.29403746686876,-33.76452189870179,7],[151.2942833919078,-33.76454503275454,7],[151.29451867192984,-33.76458987593651,6.800000190734863],[151.29455152899027,-33.76459255814552,7],[151.29477566108108,-33.76462516374886,7],[151.2949258647859,-33.76468786038458,6.800000190734863],[151.29503382369876,-33.7648163549602,6.800000190734863],[151.29502510651946,-33.765003522858024,6.400000095367432],[151.2949829455465,-33.76515045762062,6],[151.29494531080127,-33.76531449146569,5.599999904632568],[151.2949403654784,-33.76534231938422,5.599999904632568],[151.2948983721435,-33.76553543843329,5.199999809265137],[151.2948761601001,-33.765673069283366,5.199999809265137],[151.29487046040595,-33.76572738401592,5.199999809265137],[151.2948661018163,-33.76575521193445,5.199999809265137],[151.29484171047807,-33.765943720936775,5.199999809265137],[151.2948399502784,-33.76599711365998,5.199999809265137],[151.29481237381697,-33.76618235372007,5.199999809265137],[151.29479644820094,-33.766230465844274,5.199999809265137],[151.29476761445403,-33.766426015645266,5.199999809265137],[151.2947617471218,-33.76644789241254,5.199999809265137],[151.29469360224903,-33.76663346774876,5],[151.29468169994652,-33.76665827818215,5],[151.2946361862123,-33.766830610111356,5],[151.29461280070245,-33.766925828531384,4.800000190734863],[151.29457902163267,-33.767111571505666,5],[151.29453702829778,-33.767300164327025,5.199999809265137],[151.2945307418704,-33.76733369193971,5.199999809265137],[151.2945114634931,-33.76744592562318,5.800000190734863],[151.29451070912182,-33.76745916903019,5.800000190734863],[151.29450861364603,-33.767587998881936,6],[151.29448891617358,-33.76771565526724,6.199999809265137],[151.29443409852684,-33.7678646016866,6.400000095367432],[151.29440777935088,-33.7679404579103,6.599999904632568],[151.29439034499228,-33.768015475943685,6.599999904632568],[151.29434801638126,-33.76814614981413,7],[151.29433837719262,-33.7681804317981,7],[151.29431130364537,-33.76834228634834,7.199999809265137],[151.29426922649145,-33.768506068736315,7.199999809265137],[151.2942194379866,-33.768684938549995,7.199999809265137],[151.29416118375957,-33.76881804317236,7],[151.29408499225974,-33.76898995600641,7],[151.29400787875056,-33.769186260178685,7],[151.29395104944706,-33.76936621963978,7],[151.2939242273569,-33.769424725323915,7],[151.29389807581902,-33.76951038837433,7.199999809265137],[151.29384049214423,-33.76970551908016,7.599999904632568],[151.2937936373055,-33.76984214410186,7.800000190734863],[151.29375466145575,-33.769964184612036,8],[151.2936778832227,-33.77014129422605,8.600000381469727],[151.29366908222437,-33.770166942849755,8.600000381469727],[151.2936530727893,-33.770221173763275,8.800000190734863],[151.2936052121222,-33.77042669802904,9.199999809265137],[151.2935972493142,-33.77045385539532,9.199999809265137],[151.29358652047813,-33.770481096580625,9.199999809265137],[151.29354829899967,-33.77055334858596,9.600000381469727],[151.2935039587319,-33.77068419009447,10],[151.2934344727546,-33.77087093889713,10.199999809265137],[151.29342248663306,-33.770894994959235,10.399999618530273],[151.29334637895226,-33.77107017673552,10.600000381469727],[151.29331410862505,-33.77115910872817,10.600000381469727],[151.29325090907514,-33.77133688889444,10.600000381469727],[151.29319944418967,-33.77148541621864,10.600000381469727],[151.29316935315728,-33.771562445908785,10.800000190734863],[151.29311302676797,-33.77169471234083,10.800000190734863],[151.29310087300837,-33.77171759493649,10.800000190734863],[151.29304471425712,-33.77187358215451,10.800000190734863],[151.29298453219235,-33.77206712029874,10.800000190734863],[151.29296952858567,-33.77211632207036,10.600000381469727],[151.29292141646147,-33.772301729768515,10],[151.2928345799446,-33.7724594771862,10],[151.29278227686882,-33.772521670907736,10],[151.29266425967216,-33.77268888987601,10],[151.29256904125214,-33.77286868169904,10],[151.29252620972693,-33.77295493148267,10],[151.2924407981336,-33.77310832031071,10.199999809265137],[151.29237030632794,-33.77325139939785,10.399999618530273],[151.29234834574163,-33.773302948102355,10.600000381469727],[151.29225329495966,-33.773465221747756,10.399999618530273],[151.29223996773362,-33.77348684705794,10.399999618530273],[151.2921474315226,-33.77367057837546,10.199999809265137],[151.2921098805964,-33.77387425862253,10],[151.29215950146317,-33.774006608873606,9.600000381469727],[151.29219009540975,-33.77405321225524,9.399999618530273],[151.2923115491867,-33.7742177490145,9],[151.29234155640006,-33.77426435239613,8.800000190734863],[151.292465608567,-33.77443777397275,9],[151.29248530603945,-33.7744627520442,9.199999809265137],[151.29261153750122,-33.77461555413902,10],[151.292653279379,-33.77465050667524,10.399999618530273],[151.29270072095096,-33.77468252554536,10.600000381469727],[151.29284631460905,-33.774771289899945,11.399999618530273],[151.292965086177,-33.77485745586455,11.600000381469727],[151.2930005416274,-33.77489609643817,11.800000190734863],[151.29305879585445,-33.774961810559034,12.199999809265137],[151.29313305951655,-33.7750774808228,12.199999809265137],[151.29316315054893,-33.775151912122965,12.600000381469727],[151.29321101121604,-33.77523380331695,12.800000190734863],[151.29326934926212,-33.77540437504649,13],[151.29327094182372,-33.775417786091566,13.199999809265137],[151.29328292794526,-33.77559187822044,13.199999809265137],[151.29328267648816,-33.775621969252825,13.199999809265137],[151.29328678362072,-33.775760270655155,13.399999618530273],[151.29328737035394,-33.77580603584647,13.399999618530273],[151.2932912260294,-33.7759945448488,13.399999618530273],[151.29328854382038,-33.77601457759738,13.399999618530273],[151.29328192211688,-33.776155058294535,13.600000381469727],[151.2932817544788,-33.77618699334562,13.800000190734863],[151.29328468814492,-33.77636351622641,14],[151.29329105839133,-33.7765506003052,14.199999809265137],[151.29329382441938,-33.77669166773558,14.399999618530273],[151.29329793155193,-33.77686919644475,14.600000381469727],[151.29329768009484,-33.776887468993664,14.600000381469727],[151.29330455325544,-33.77699039876461,14.399999618530273],[151.29330530762672,-33.77707555890083,14.399999618530273],[151.29330673255026,-33.77713113091886,14.600000381469727],[151.29332173615694,-33.77726557664573,14.399999618530273],[151.29333179444075,-33.7773172929883,14.399999618530273],[151.29332257434726,-33.777399184182286,14.399999618530273],[151.29332249052823,-33.777524242177606,14.800000190734863],[151.29332198761404,-33.77758006565273,15.199999809265137],[151.29331863485277,-33.7777039501816,15.800000190734863],[151.29332181997597,-33.77779648639262,16.200000762939453],[151.29331804811954,-33.777869157493114,16.799999237060547],[151.2933028768748,-33.77797317691147,17.399999618530273],[151.29329248331487,-33.778019193559885,18],[151.29330622963607,-33.77814358100295,19],[151.293369429186,-33.77830979414284,19.600000381469727],[151.2934397533536,-33.77846251241863,18.399999618530273],[151.29348518326879,-33.77855798229575,18],[151.29350127652287,-33.77858807332814,18],[151.29356414079666,-33.77869779244065,18.200000762939453],[151.29358216188848,-33.77872562035918,18],[151.29362524487078,-33.77879426814616,18],[151.2936961557716,-33.778909016400576,17.799999237060547],[151.2937384005636,-33.7789769936353,17.600000381469727],[151.29376924596727,-33.7790287937969,17.600000381469727],[151.29385373555124,-33.77918042242527,17.600000381469727],[151.29395096562803,-33.77930891700089,17.600000381469727],[151.29404878243804,-33.779439087957144,17.799999237060547],[151.2941028457135,-33.77949994057417,17.799999237060547],[151.29415053874254,-33.779552495107055,17.799999237060547],[151.294260090217,-33.77971015870571,18.200000762939453],[151.29429018124938,-33.77976539544761,18.399999618530273],[151.29433343186975,-33.779857847839594,18.399999618530273],[151.29435966722667,-33.77996505238116,19],[151.29436645656824,-33.77999975346029,19],[151.2943647801876,-33.780032275244594,19],[151.2943597510457,-33.78017828799784,19.200000762939453],[151.29431750625372,-33.780282055959105,19.200000762939453],[151.29418071359396,-33.780418345704675,19.799999237060547],[151.29414525814354,-33.780442737042904,20.200000762939453],[151.29401098005474,-33.78049713559449,21.399999618530273],[151.2939141690731,-33.78052496351302,22.600000381469727],[151.29376673139632,-33.78054273314774,23.600000381469727],[151.2936411704868,-33.780527394264936,24.200000762939453],[151.2935700919479,-33.78049889579415,24.200000762939453],[151.293411757797,-33.78041918389499,24.600000381469727],[151.2933975085616,-33.78041172400117,24.600000381469727],[151.29334294237196,-33.78036738373339,24.799999237060547],[151.29328007809818,-33.78031306900084,25],[151.2932299543172,-33.780270237475634,25],[151.29310665652156,-33.78016294911504,25],[151.29298076033592,-33.78005616366863,24.799999237060547],[151.29289987497032,-33.78000319004059,24.799999237060547],[151.29285268485546,-33.77995692193508,24.799999237060547],[151.29271966405213,-33.77982574515045,24],[151.29263861104846,-33.7797503080219,23.399999618530273],[151.2925258744508,-33.77963715232909,22.399999618530273],[151.2924019061029,-33.77953749150038,22],[151.29223686642945,-33.77940664999187,21.399999618530273],[151.29219202324748,-33.77937622368336,21.200000762939453],[151.29206168465316,-33.77928016707301,20.200000762939453],[151.2919830624014,-33.779213363304734,19],[151.29193302243948,-33.77916684374213,18.399999618530273],[151.29187778569758,-33.779128370806575,17.799999237060547],[151.29170302301645,-33.77898638136685,17.799999237060547],[151.2916803918779,-33.77897280268371,18.200000762939453],[151.29161166027188,-33.778917817398906,19],[151.29151057451963,-33.77884665504098,19.399999618530273],[151.2913386616856,-33.77873266115785,19],[151.29131368361413,-33.7787124607712,19],[151.29115744493902,-33.77860249020159,19.200000762939453],[151.2910561915487,-33.77852370031178,19],[151.29089316353202,-33.778404761105776,19],[151.29087849520147,-33.778391517698765,18.799999237060547],[151.2907786667347,-33.7783189304173,18.600000381469727],[151.29065386019647,-33.77822664566338,18.600000381469727],[151.29055227153003,-33.77815145999193,18.399999618530273],[151.29049728624523,-33.77809991128743,18.399999618530273],[151.29043081775308,-33.7780202832073,18.200000762939453],[151.29037155769765,-33.77797451801598,18.200000762939453],[151.29035630263388,-33.77796269953251,18.200000762939453],[151.29029494710267,-33.77790788188577,18],[151.29020844586194,-33.7778387311846,18],[151.29008162766695,-33.77775155939162,18.200000762939453],[151.28993502818048,-33.77765449695289,18.600000381469727],[151.2898074556142,-33.777563301846385,18.600000381469727],[151.28965222276747,-33.77742835320532,18.600000381469727],[151.2894852552563,-33.77728099934757,18.200000762939453],[151.28932415507734,-33.77715937793255,17.799999237060547],[151.28920479677618,-33.77707589417696,17.799999237060547],[151.28918417729437,-33.77707555890083,17.600000381469727],[151.28916699439287,-33.77709165215492,17.600000381469727],[151.28917822614312,-33.77711017616093,17.600000381469727],[151.28927076235414,-33.77718921750784,17.600000381469727],[151.28943052142859,-33.777333134785295,18],[151.2894751969725,-33.777373284101486,18],[151.28961961716413,-33.77748434431851,18.399999618530273],[151.2896573357284,-33.77751368097961,18.399999618530273],[151.28982002846897,-33.77763228490949,18.799999237060547],[151.28985146060586,-33.77765005454421,18.799999237060547],[151.2899652030319,-33.77773764543235,19],[151.29003225825727,-33.77779506146908,18.799999237060547],[151.2901747506112,-33.77789447084069,18.200000762939453],[151.29015832208097,-33.777974685654044,17.799999237060547],[151.29008187912405,-33.77807359211147,16.799999237060547],[151.290042148903,-33.77811851911247,16.200000762939453],[151.2900222837925,-33.77813863568008,15.600000381469727],[151.2899525463581,-33.77819647081196,14.399999618530273],[151.28988482058048,-33.77825061790645,13.199999809265137],[151.28983234986663,-33.77831507474184,12.600000381469727],[151.28979521803558,-33.77837961539626,12],[151.28979463130236,-33.778425212949514,11.800000190734863],[151.28980712033808,-33.778445832431316,11.600000381469727],[151.28989789634943,-33.77853233367205,11.399999618530273],[151.28992019221187,-33.77854918129742,11.399999618530273],[151.29007140174508,-33.778690584003925,11.199999809265137],[151.29009772092104,-33.77870692871511,11.199999809265137],[151.2902503553778,-33.77883257344365,11.199999809265137],[151.2902955338359,-33.77887029200792,11],[151.29040977917612,-33.77897229976952,10.800000190734863],[151.29056744277477,-33.779110349714756,10.800000190734863],[151.2905899900943,-33.77913071773946,10.800000190734863],[151.290747737512,-33.77925778739154,10.199999809265137],[151.29079777747393,-33.77929609268904,10.199999809265137],[151.2908634915948,-33.77935384400189,10],[151.29099349491298,-33.77947018481791,9.800000190734863],[151.29102693870664,-33.779595075175166,9.600000381469727],[151.29096197895706,-33.77968434244394,9],[151.290945969522,-33.779698088765144,9],[151.29078218713403,-33.77980965189636,8.199999809265137],[151.29074069671333,-33.77985382452607,8],[151.2905989587307,-33.7799958139658,7.199999809265137],[151.29057976417243,-33.78001634962857,7.199999809265137],[151.290441211313,-33.780152555555105,7.199999809265137],[151.2902855593711,-33.78028364852071,7],[151.29023761488497,-33.78031357191503,7],[151.290213894099,-33.78033000044525,7.199999809265137],[151.29019059240818,-33.78034642897546,7.199999809265137],[151.29005891270936,-33.780387584120035,7],[151.2900045979768,-33.780360762029886,7],[151.2899030931294,-33.78029529936612,6.599999904632568],[151.2897295039147,-33.78018080256879,6.199999809265137],[151.289706453681,-33.78016387112439,6.199999809265137],[151.28961349837482,-33.780091535300016,5.800000190734863],[151.28952129743993,-33.78003755584359,5.400000095367432],[151.28938836045563,-33.780010398477316,4.800000190734863],[151.28936304710805,-33.780022552236915,4.800000190734863],[151.28918593749404,-33.78013973124325,5.400000095367432],[151.28909817896783,-33.78020795993507,5.800000190734863],[151.28896582871675,-33.78032488748431,6.599999904632568],[151.2889075744897,-33.780366629362106,7],[151.28884688951075,-33.78041432239115,7.199999809265137],[151.28883607685566,-33.78042982891202,7.400000095367432],[151.28879743628204,-33.780466290190816,7.800000190734863],[151.28878427669406,-33.78047861158848,8],[151.28870607353747,-33.78055673092604,8.399999618530273],[151.2886567041278,-33.78059143200517,9.199999809265137],[151.28857892006636,-33.78063694573939,10],[151.28854748792946,-33.78065848723054,10.199999809265137],[151.28846869803965,-33.78069226630032,11],[151.2884288839996,-33.78068589605391,11.199999809265137],[151.28834573552012,-33.78063895739615,12.199999809265137],[151.28829301334918,-33.78060836344957,12.399999618530273],[151.28821053542197,-33.780543906614184,12.600000381469727],[151.28804608248174,-33.780448269099,13],[151.28792848438025,-33.78036763519049,13],[151.28791239112616,-33.78035766072571,13],[151.2877668812871,-33.78027928993106,13],[151.28771122545004,-33.7802445050329,13],[151.2876098882407,-33.78023972734809,13],[151.28759387880564,-33.780246851965785,13.399999618530273],[151.28745088353753,-33.7803412321955,14.399999618530273],[151.28742406144738,-33.78036470152438,14.800000190734863],[151.28738164901733,-33.78038783557713,15.600000381469727],[151.28736949525774,-33.78039596602321,15.600000381469727],[151.28731224685907,-33.78043569624424,16.600000381469727],[151.287230104208,-33.78048783168197,17.399999618530273],[151.28720252774656,-33.78050995990634,17.799999237060547],[151.2871405016631,-33.78056259825826,19],[151.28711267374456,-33.78057156689465,19.600000381469727],[151.28708015196025,-33.78057642839849,20],[151.28700898960233,-33.78056553192437,21.200000762939453],[151.28699239343405,-33.780557652935386,21.200000762939453],[151.2868252582848,-33.780484814196825,22],[151.28662962466478,-33.780398815870285,21.799999237060547],[151.28646005876362,-33.78031642176211,21.799999237060547],[151.2863116990775,-33.780255652964115,22],[151.2862924207002,-33.78024844452739,22],[151.28625319339335,-33.78023386001587,22.200000762939453],[151.2861246149987,-33.78017761744559,22.399999618530273],[151.28599100746214,-33.780114417895675,23.200000762939453],[151.2859568092972,-33.780093966051936,23.399999618530273],[151.28576243296266,-33.78002883866429,24.200000762939453],[151.28559035249054,-33.77996865659952,25.200000762939453],[151.28553721122444,-33.77995306625962,25.399999618530273],[151.28540502861142,-33.77989414148033,25.600000381469727],[151.28523571416736,-33.77983379177749,25.600000381469727],[151.2850370630622,-33.77976103685796,25.200000762939453],[151.2850170303136,-33.779754331335425,25.200000762939453],[151.28485333174467,-33.77970923669636,25.399999618530273],[151.28479625098407,-33.77970026805997,25.600000381469727],[151.28462869673967,-33.77969431690872,26.399999618530273],[151.28445762209594,-33.77966741099954,27.399999618530273],[151.28443758934736,-33.779664393514395,27.399999618530273],[151.28429241478443,-33.77962374128401,28.600000381469727],[151.28416978754103,-33.779610665515065,29.799999237060547],[151.284124776721,-33.779605301097035,30],[151.28401212394238,-33.779600858688354,30.799999237060547],[151.28397381864488,-33.779597505927086,31.399999618530273],[151.28389494493604,-33.77958694472909,32],[151.2837986368686,-33.779572108760476,32.400001525878906],[151.28371129743755,-33.779586190357804,33],[151.28368279896677,-33.77960504963994,33.400001525878906],[151.2836397998035,-33.779684007167816,34.20000076293945],[151.28363527357578,-33.77969934605062,34.400001525878906],[151.2835874967277,-33.77982834354043,35.20000076293945],[151.2835872452706,-33.77984535880387,35.400001525878906],[151.2835573218763,-33.77992297522724,36.20000076293945],[151.2835425697267,-33.77996714785695,36.599998474121094],[151.28350962884724,-33.78003076650202,37.20000076293945],[151.28349546343088,-33.78005716949701,37.400001525878906],[151.2834775261581,-33.780102683231235,37.79999923706055],[151.2833958864212,-33.78026437014341,38],[151.28338012844324,-33.780309380963445,38.20000076293945],[151.28330460749567,-33.78042991273105,38.400001525878906],[151.28322162665427,-33.78058539703488,38.79999923706055],[151.28315691836178,-33.780712047591805,39],[151.28312414512038,-33.78076703287661,39],[151.28300436772406,-33.78085261210799,39],[151.28286589868367,-33.780810786411166,38.79999923706055],[151.282663308084,-33.78074163571,38.20000076293945],[151.28262902610004,-33.780728643760085,38],[151.28241947852075,-33.78065957687795,37.20000076293945],[151.28232308663428,-33.78062671981752,36.79999923706055],[151.28212485462427,-33.78059947863221,36.20000076293945],[151.28209543414414,-33.780610375106335,36],[151.2820485793054,-33.78064281307161,35.79999923706055],[151.28201505169272,-33.780692517757416,35.599998474121094],[151.28196140751243,-33.7808661069721,35.20000076293945],[151.28195327706635,-33.78089443780482,35],[151.28189745359123,-33.78109535202384,34.400001525878906],[151.2818723078817,-33.781186547130346,34.20000076293945],[151.28186526708305,-33.78121320158243,34],[151.2818593159318,-33.781395088881254,33.20000076293945],[151.28188010305166,-33.781453343108296,32.79999923706055],[151.28195595927536,-33.78153221681714,32.400001525878906],[151.28216056153178,-33.7816343922168,32.400001525878906],[151.28218562342227,-33.78164880909026,32.400001525878906],[151.28235996700823,-33.781719636172056,31.799999237060547],[151.28240866586566,-33.781741010025144,31.799999237060547],[151.2826276011765,-33.78182826563716,31],[151.2826846819371,-33.78185207024217,30.799999237060547],[151.28274109214544,-33.78187570720911,30.799999237060547],[151.28294611349702,-33.78196371719241,30.200000762939453],[151.28305315040052,-33.78202121704817,29.600000381469727],[151.28316043876112,-33.78208399750292,29.399999618530273],[151.28336001187563,-33.78219363279641,28.799999237060547],[151.28341055475175,-33.78222263418138,28.799999237060547],[151.28350468352437,-33.78226714208722,29],[151.28372286446393,-33.78235414624214,29.200000762939453],[151.28383442759514,-33.78240242600441,29.600000381469727],[151.28389779478312,-33.78243310377002,29.600000381469727],[151.2840621639043,-33.782500913366675,29.600000381469727],[151.28419803455472,-33.78256905823946,29.600000381469727],[151.28435502760112,-33.78263007849455,29.799999237060547],[151.2844915688038,-33.78268959000707,29.799999237060547],[151.28456155769527,-33.78272211179137,29.600000381469727],[151.2846763059497,-33.78276108764112,29.200000762939453],[151.28479113802314,-33.78281305544078,28.600000381469727],[151.2848472967744,-33.78284792415798,28.200000762939453],[151.28486271947622,-33.78285798244178,28.200000762939453],[151.284973109141,-33.78292570821941,27.600000381469727],[151.28501057624817,-33.78294289112091,27.399999618530273],[151.28519623540342,-33.7830314040184,27.200000762939453],[151.28526840358973,-33.783060405403376,27.200000762939453],[151.28539605997503,-33.78313190303743,26.799999237060547],[151.28548088483512,-33.78320180810988,27],[151.28555757924914,-33.78327523358166,26.600000381469727],[151.28557853400707,-33.78330607898533,26.600000381469727],[151.28554861061275,-33.78342954441905,25.600000381469727],[151.28549261949956,-33.783555775880814,24.399999618530273],[151.28546613268554,-33.783681923523545,23.200000762939453],[151.28547015599906,-33.78371159546077,23],[151.28549152985215,-33.7837949115783,22],[151.28553084097803,-33.7839172873646,20.600000381469727],[151.2855577468872,-33.7839865218848,20.200000762939453],[151.28557895310223,-33.78404804505408,19.600000381469727],[151.28565799444914,-33.78414837643504,18.799999237060547],[151.2856771890074,-33.7841728515923,18.399999618530273],[151.2856985628605,-33.784193471074104,18.399999618530273],[151.2858211901039,-33.78428399562836,18.200000762939453],[151.2860233616084,-33.78436823375523,18.399999618530273],[151.2862052489072,-33.78442187793553,18.399999618530273],[151.28626375459135,-33.78443277440965,18.600000381469727],[151.2864840310067,-33.784447610378265,19],[151.28655703738332,-33.784448029473424,19.200000762939453],[151.28675778396428,-33.78446336835623,19.200000762939453],[151.2869687564671,-33.78446596674621,18.200000762939453],[151.2871283479035,-33.78447082825005,17.399999618530273],[151.28721677698195,-33.78447770141065,17],[151.28730528987944,-33.78448147326708,16.399999618530273],[151.28746655769646,-33.78449706360698,15.199999809265137],[151.28762095235288,-33.78454500809312,14],[151.28767023794353,-33.784568812698126,13.800000190734863],[151.28771642223,-33.78461969085038,12.800000190734863],[151.2877414841205,-33.784683141857386,12],[151.28774743527174,-33.78470837138593,11.800000190734863],[151.28774383105338,-33.78478464670479,10.800000190734863],[151.28773787990212,-33.78483988344669,10.199999809265137],[151.28772228956223,-33.78491926006973,9.399999618530273],[151.2876921147108,-33.78505655564368,8.199999809265137],[151.2876590900123,-33.78520365804434,7.199999809265137],[151.2876252271235,-33.78531756810844,6.800000190734863],[151.2876062002033,-33.78541035577655,6],[151.28755792044103,-33.785587046295404,5.199999809265137],[151.2875514663756,-33.785614455118775,5],[151.28751617856324,-33.78574663773179,4.800000190734863],[151.2875012587756,-33.78589675761759,3.5999999046325684],[151.28750268369913,-33.785928692668676,3.4000000953674316],[151.28753922879696,-33.78607210703194,3],[151.2875718344003,-33.78617126494646,2.799999952316284],[151.28766755573452,-33.786319540813565,3.4000000953674316],[151.28769219852984,-33.78640805371106,4],[151.28776227124035,-33.786558508872986,4],[151.2878189329058,-33.78670376725495,3.799999952316284],[151.28789227455854,-33.786834524944425,4.199999809265137],[151.2878762651235,-33.78699403256178,4.400000095367432],[151.2878519576043,-33.78710073418915,4.599999904632568],[151.2878450844437,-33.78714247606695,4.800000190734863],[151.28780409693718,-33.787266528233886,5],[151.287750788033,-33.78744900226593,5.199999809265137],[151.28769957460463,-33.78763264976442,5],[151.2876807153225,-33.78769149072468,5],[151.28764500841498,-33.787757121026516,5],[151.28758868202567,-33.787878323346376,5],[151.2875060364604,-33.78805291838944,5],[151.28743831068277,-33.78822105936706,5],[151.28737720660865,-33.788359612226486,4.800000190734863],[151.28731375560164,-33.7884970754385,4.800000190734863],[151.2872639670968,-33.788624396547675,4.800000190734863],[151.2872534058988,-33.788656666874886,4.800000190734863],[151.28720940090716,-33.788802679628134,4.800000190734863],[151.28716623410583,-33.788933185860515,4.800000190734863],[151.28714586608112,-33.78900518640876,5],[151.2871301919222,-33.789089592173696,5],[151.28710689023137,-33.789279190823436,5],[151.28709339536726,-33.78936250694096,5],[151.28708031959832,-33.78951011225581,5],[151.28707671537995,-33.7895695399493,5.199999809265137],[151.28707914613187,-33.78959745168686,5.199999809265137],[151.28707529045641,-33.78962519578636,5.199999809265137],[151.28706397488713,-33.78968462347984,5.199999809265137],[151.28706011921167,-33.78971228376031,5.400000095367432],[151.28704897128046,-33.78977942280471,5.400000095367432],[151.28703572787344,-33.78987807780504,5.400000095367432],[151.28703262656927,-33.78993356600404,5.400000095367432],[151.28702198155224,-33.79003716632724,5.400000095367432],[151.28701494075358,-33.79011453129351,5.400000095367432],[151.28700429573655,-33.79019306972623,5.599999904632568],[151.28700538538396,-33.79028451628983,5.599999904632568],[151.28699666820467,-33.79046724177897,5.400000095367432],[151.2869954109192,-33.790516778826714,5.400000095367432],[151.28699767403305,-33.79072490148246,5.599999904632568],[151.2870089057833,-33.79083470441401,5.400000095367432],[151.28701192326844,-33.79101793281734,5.400000095367432],[151.28701468929648,-33.79122228361666,5.199999809265137],[151.28701695241034,-33.791249860078096,5.199999809265137],[151.28704260103405,-33.791423281654716,5],[151.28704687580466,-33.791571808978915,4.800000190734863],[151.287047797814,-33.791675828397274,4.800000190734863],[151.28705156967044,-33.79185679368675,4.599999904632568],[151.28705022856593,-33.791962657123804,4.400000095367432],[151.2870382424444,-33.79211696796119,4.599999904632568],[151.28703681752086,-33.792269099503756,4.400000095367432],[151.28703371621668,-33.79244704730809,4.400000095367432],[151.2870300281793,-33.792589120566845,4.400000095367432],[151.28703069873154,-33.79260705783963,4.400000095367432],[151.28702960908413,-33.79269288852811,4.400000095367432],[151.28703145310283,-33.79277167841792,4.199999809265137],[151.28701753914356,-33.7928884383291,4.199999809265137],[151.28701125271618,-33.79292322322726,4],[151.28700991161168,-33.793008299544454,4],[151.2870089057833,-33.79309454932809,4],[151.28700588829815,-33.793212063610554,4.199999809265137],[151.28700320608914,-33.7932719103992,4.199999809265137],[151.28698518499732,-33.79331834614277,4.400000095367432],[151.2869708519429,-33.793442733585835,4.400000095367432],[151.28696590662003,-33.79349386319518,4.400000095367432],[151.28698518499732,-33.7936897482723,4.199999809265137],[151.28698920831084,-33.79372109659016,4.199999809265137],[151.2870622985065,-33.79389602690935,4.199999809265137],[151.28709498792887,-33.7940919958055,4.199999809265137],[151.2871001008898,-33.79410993307829,4.199999809265137],[151.2871690839529,-33.79425804130733,4],[151.28721845336258,-33.79444093443453,3.799999952316284],[151.28723546862602,-33.79454939626157,3.799999952316284],[151.28728056326509,-33.7947310321033,3.799999952316284],[151.2872896157205,-33.794784089550376,3.799999952316284],[151.2873620353639,-33.79496991634369,4],[151.28736957907677,-33.79499112255871,4],[151.28741182386875,-33.795150546357036,4],[151.28745499067008,-33.79531349055469,4.199999809265137],[151.2875105626881,-33.79548808559775,4.199999809265137],[151.287573678419,-33.795671816915274,4.199999809265137],[151.28758658654988,-33.795725628733635,4.199999809265137],[151.28760879859328,-33.79578153602779,4.199999809265137],[151.28765808418393,-33.79590483382344,4],[151.28767761401832,-33.79595487378538,4],[151.2877174280584,-33.79604950547218,4],[151.28775774501264,-33.79618747159839,3.799999952316284],[151.28776654601097,-33.796237260103226,3.799999952316284],[151.28783485852182,-33.796416129916906,3.799999952316284],[151.28787106834352,-33.79651009105146,3.5999999046325684],[151.2878916040063,-33.7965596280992,3.5999999046325684],[151.28796310164034,-33.79673548042774,3.5999999046325684],[151.28803392872214,-33.79692600108683,3.5999999046325684],[151.28804557956755,-33.79695089533925,3.5999999046325684],[151.28814197145402,-33.79713119007647,3.5999999046325684],[151.28815479576588,-33.79716195166111,3.5999999046325684],[151.2882722262293,-33.79733897745609,3.5999999046325684],[151.288287229836,-33.7973611894995,3.5999999046325684],[151.28839803859591,-33.797533521428704,3.200000047683716],[151.28847892396152,-33.79765237681568,3.4000000953674316],[151.28850867971778,-33.79770568571985,3.4000000953674316],[151.28861797973514,-33.79788086749613,3.4000000953674316],[151.28865150734782,-33.79793459549546,3.4000000953674316],[151.2886910699308,-33.79805563017726,3.5999999046325684],[151.28873373381793,-33.79812696017325,3.4000000953674316]]},"properties":{"name":"Sun run 3 Feb 2024"}}]}
